postal_code,country_code,latitude,longitude,city,state,province
01067,DE,51.05470000,13.72690000,Dresden,Sachsen,
01067,DE,51.05870000,13.71720000,Dresden Friedrichstadt,Sachsen,
01067,DE,51.05070000,13.73660000,Dresden Innere Altstadt,Sachsen,
01099,DE,51.07830000,13.80510000,Dresden,Sachsen,
01109,DE,51.11670000,13.75000000,Hellerau,Sachsen,
01109,DE,51.11640000,13.74680000,Dresden,Sachsen,
01109,DE,51.11050000,13.76860000,Klotzsche,Sachsen,
01109,DE,51.12200000,13.72180000,Wilschdorf,Sachsen,
01307,DE,51.05000000,13.75000000,Dresden,Sachsen,
01445,DE,51.10650000,13.66050000,Radebeul,Sachsen,
01454,DE,51.16170000,13.90650000,Wachau,Sachsen,
01454,DE,51.11110000,13.91200000,Radeberg,Sachsen,
01471,DE,51.21520000,13.72810000,Radeburg,Sachsen,
01477,DE,51.09420000,13.99180000,Arnsdorf,Sachsen,
01558,DE,51.28950000,13.53350000,Großenhain,Sachsen,
01589,DE,51.30260000,13.30970000,Riesa,Sachsen,
01640,DE,51.13200000,13.58310000,Coswig,Sachsen,
01662,DE,51.16490000,13.48590000,Meißen,Sachsen,
01705,DE,51.00170000,13.64880000,Freital,Sachsen,
01731,DE,50.94530000,13.75510000,Kreischa,Sachsen,
01744,DE,50.89620000,13.66910000,Dippoldiswalde,Sachsen,
01796,DE,50.91670000,13.93330000,Dohma,Sachsen,
01796,DE,50.95840000,13.93700000,Pirna,Sachsen,
01796,DE,50.93330000,14.01670000,Struppen,Sachsen,
01844,DE,51.04440000,14.22500000,Hohwald,Sachsen,
01844,DE,51.02840000,14.21790000,Neustadt in Sachsen,Sachsen,
01855,DE,50.97540000,14.27580000,Sebnitz,Sachsen,
01855,DE,50.94330000,14.24670000,Kirnitzschtal,Sachsen,
01877,DE,51.13040000,14.22200000,Rammenau,Sachsen,
01877,DE,51.12770000,14.17970000,Bischofswerda,Sachsen,
01877,DE,51.14150000,14.24720000,Demitz-Thumitz,Sachsen,
01877,DE,51.11670000,14.23330000,Schmölln-Putzkau,Sachsen,
01877,DE,51.14170000,14.35730000,Doberschau-Gaußig,Sachsen,
01896,DE,51.18330000,13.96670000,Lichtenberg,Sachsen,
01896,DE,51.18320000,14.01420000,Pulsnitz,Sachsen,
01896,DE,51.17200000,14.04670000,Ohorn,Sachsen,
01917,DE,51.26800000,14.09370000,Kamenz,Sachsen,
01968,DE,51.52990000,13.95080000,Schipkau Hörlitz,Brandenburg,
01968,DE,51.54560000,13.91210000,Schipkau,Brandenburg,
01968,DE,51.52520000,14.00160000,Senftenberg,Brandenburg,
01979,DE,51.48810000,13.76620000,Lauchhammer,Brandenburg,
02625,DE,51.18250000,14.42920000,Bautzen,Sachsen,
02708,DE,51.05400000,14.65830000,Niedercunnersdorf,Sachsen,
02708,DE,51.09950000,14.66740000,Löbau,Sachsen,
02708,DE,51.08800000,14.73600000,Rosenbach,Sachsen,
02708,DE,51.08330000,14.60000000,Lawalde,Sachsen,
02708,DE,51.04860000,14.60380000,Dürrhennersdorf,Sachsen,
02708,DE,51.06670000,14.56670000,Schönbach,Sachsen,
02708,DE,51.06940000,14.64300000,Großschweidnitz,Sachsen,
02708,DE,51.13140000,14.67560000,Kittlitz,Sachsen,
02708,DE,51.03120000,14.67240000,Obercunnersdorf,Sachsen,
02730,DE,51.01670000,14.58330000,Ebersbach/Sachsen,Sachsen,
02827,DE,51.14900000,14.95340000,Görlitz,Sachsen,
02828,DE,51.16870000,14.96930000,Görlitz,Sachsen,
02929,DE,51.36350000,14.94610000,Rothenburg/Oberlausitz,Sachsen,
02943,DE,51.50400000,14.64020000,Weißwasser,Sachsen,
02943,DE,51.40000000,14.56670000,Boxberg/Oberlausitz,Sachsen,
02977,DE,51.43790000,14.23550000,Hoyerswerda,Sachsen,
03048,DE,51.74030000,14.31980000,Cottbus,Brandenburg,
03130,DE,51.56960000,14.37390000,Spremberg,Brandenburg,
03130,DE,51.56830000,14.52710000,Lieskau,Brandenburg,
03130,DE,51.55140000,14.18840000,Proschim,Brandenburg,
03130,DE,51.64480000,14.43320000,Bagenz,Brandenburg,
03130,DE,51.60830000,14.52080000,Felixsee,Brandenburg,
03130,DE,51.59100000,14.45810000,Türkendorf,Brandenburg,
03130,DE,51.59780000,14.44670000,Groß Luja,Brandenburg,
03130,DE,51.66670000,14.47500000,Drieschnitz-Kahsel,Brandenburg,
03130,DE,51.57990000,14.58900000,Wolfshain,Brandenburg,
03130,DE,51.56670000,14.64170000,Jämlitz-Klein Düben,Brandenburg,
03130,DE,51.55180000,14.22190000,Haidemühl,Brandenburg,
03130,DE,51.58330000,14.61670000,Tschernitz,Brandenburg,
03130,DE,51.59060000,14.52660000,Reuthen,Brandenburg,
03130,DE,51.57290000,14.47320000,Graustein,Brandenburg,
03130,DE,51.62500000,14.49170000,Hornow-Wadelsdorf,Brandenburg,
03149,DE,51.73020000,14.59800000,Forst (Lausitz),Brandenburg,
03149,DE,51.69670000,14.55330000,Wiesengrund,Brandenburg,
03149,DE,51.70000000,14.62500000,Groß Schacksdorf-Simmersdorf,Brandenburg,
03172,DE,51.93420000,14.62550000,Atterwasch,Brandenburg,
03172,DE,51.94990000,14.71450000,Guben,Brandenburg,
03172,DE,51.93830000,14.56670000,Bärenklau,Brandenburg,
03172,DE,51.98330000,14.53330000,Pinnow-Heideland,Brandenburg,
03172,DE,51.90990000,14.57560000,Grabko,Brandenburg,
03172,DE,51.84920000,14.59240000,Grießen,Brandenburg,
03172,DE,51.98330000,14.62380000,Lutzketal,Brandenburg,
03172,DE,51.90000000,14.65000000,Gastrose-Kerkwitz,Brandenburg,
03238,DE,51.53370000,13.67030000,Staupitz,Brandenburg,
03238,DE,51.53320000,13.62690000,Gorden,Brandenburg,
03238,DE,51.59600000,13.61210000,Fischwasser,Brandenburg,
03238,DE,51.61510000,13.76180000,Schacksdorf,Brandenburg,
03238,DE,51.65820000,13.71380000,Gröbitz,Brandenburg,
03238,DE,51.56780000,13.51850000,Gruhno,Brandenburg,
03238,DE,51.66670000,13.68330000,Ponnsdorf,Brandenburg,
03238,DE,51.55490000,13.59440000,Oppelhain,Brandenburg,
03238,DE,51.61730000,13.80860000,Lieskau,Brandenburg,
03238,DE,51.60820000,13.85950000,Dollenchen,Brandenburg,
03238,DE,51.59280000,13.54340000,Lindena,Brandenburg,
03238,DE,51.63390000,13.70660000,Finsterwalde,Brandenburg,
03238,DE,51.60830000,13.65830000,Eichholz-Drößig,Brandenburg,
03238,DE,51.56950000,13.57230000,Rückersdorf,Brandenburg,
03238,DE,51.56070000,13.48210000,Schadewitz,Brandenburg,
03238,DE,51.58870000,13.84860000,Sallgast,Brandenburg,
03238,DE,51.59760000,13.77810000,Lichterfeld,Brandenburg,
03238,DE,51.65810000,13.78040000,Lindthal,Brandenburg,
03238,DE,51.61090000,13.59790000,Lugau,Brandenburg,
03238,DE,51.62730000,13.76740000,Betten,Brandenburg,
03238,DE,51.64280000,13.73300000,Massen,Brandenburg,
03238,DE,51.64000000,13.85750000,Göllnitz,Brandenburg,
03238,DE,51.66730000,13.64470000,Münchhausen,Brandenburg,
04103,DE,51.34050000,12.38270000,Leipzig,Sachsen,
04129,DE,51.36740000,12.39090000,Leipzig,Sachsen,
04177,DE,51.34250000,12.32300000,Leipzig,Sachsen,
04277,DE,51.36670000,12.38330000,Leipzig,Sachsen,
04289,DE,51.36670000,12.38330000,Leipzig,Sachsen,
04435,DE,51.39680000,12.22140000,Schkeuditz,Sachsen,
04509,DE,51.52550000,12.34280000,Delitzsch,Sachsen,
04509,DE,51.47930000,12.35890000,Zschortau,Sachsen,
04509,DE,51.51240000,12.34750000,Döbernitz,Sachsen,
04509,DE,51.51670000,12.25000000,Neukyhna,Sachsen,
04509,DE,51.46470000,12.26840000,Zwochau,Sachsen,
04509,DE,51.46670000,12.20000000,Wiedemar,Sachsen,
04509,DE,51.59240000,12.46350000,Löbnitz,Sachsen,
04509,DE,51.51670000,12.48330000,Schönwölkau,Sachsen,
04509,DE,51.46210000,12.45360000,Krostitz,Sachsen,
04552,DE,51.12420000,12.49640000,Borna,Sachsen,
04552,DE,51.13360000,12.44860000,Lobstädt,Sachsen,
04552,DE,51.09200000,12.52000000,Wyhratal,Sachsen,
04600,DE,50.98760000,12.43680000,Altenburg,Thüringen,
04668,DE,51.20420000,12.69850000,Großbardau,Sachsen,
04668,DE,51.20000000,12.61670000,Otterwisch,Sachsen,
04668,DE,51.18780000,12.75100000,Großbothen,Sachsen,
04668,DE,51.18170000,12.91750000,Thümmlitzwalde,Sachsen,
04668,DE,51.23370000,12.71960000,Grimma,Sachsen,
04668,DE,51.25670000,12.64000000,Parthenstein,Sachsen,
04680,DE,51.13330000,12.81670000,Zschadraß,Sachsen,
04680,DE,51.12820000,12.80300000,Colditz,Sachsen,
04703,DE,51.19940000,12.95620000,Bockelwitz,Sachsen,
04703,DE,51.11220000,12.93890000,Gersdorf,Sachsen,
04703,DE,51.15740000,12.92790000,Leisnig,Sachsen,
04720,DE,51.13330000,13.18330000,Mochau,Sachsen,
04720,DE,51.15850000,13.04520000,Großweitzschen,Sachsen,
04720,DE,51.09900000,13.11350000,Ebersbach,Sachsen,
04720,DE,51.17500000,13.20000000,Zschaitz-Ottewig,Sachsen,
04720,DE,51.12210000,13.11030000,Döbeln,Sachsen,
04720,DE,51.09170000,13.07500000,Ziegra-Knobelsdorf,Sachsen,
04758,DE,51.38330000,13.13330000,Cavertitz,Sachsen,
04758,DE,51.33330000,13.15880000,Liebschützberg,Sachsen,
04758,DE,51.30000000,13.10980000,Oschatz,Sachsen,
04779,DE,51.28330000,12.95000000,Wermsdorf,Sachsen,
04808,DE,51.39890000,12.87080000,Falkenhain,Sachsen,
04808,DE,51.43330000,12.68330000,Thallwitz,Sachsen,
04808,DE,51.32960000,12.82590000,Kühren-Burkartshain,Sachsen,
04808,DE,51.41170000,12.80510000,Hohburg,Sachsen,
04808,DE,51.38680000,12.80410000,Wurzen,Sachsen,
04828,DE,51.36070000,12.71380000,Bennewitz,Sachsen,
04838,DE,51.45980000,12.63340000,Eilenburg,Sachsen,
04838,DE,51.43330000,12.50000000,Jesewitz,Sachsen,
04838,DE,51.50760000,12.81420000,Mockrehna,Sachsen,
04838,DE,51.49870000,12.74790000,Doberschütz,Sachsen,
04838,DE,51.50000000,12.60000000,Zschepplin,Sachsen,
04838,DE,51.54680000,12.62930000,Laußig,Sachsen,
04849,DE,51.58740000,12.64370000,Bad Düben,Sachsen,
04849,DE,51.61710000,12.68200000,Kossa,Sachsen,
04860,DE,51.56790000,12.95350000,Zinna,Sachsen,
04860,DE,51.56020000,12.99620000,Torgau,Sachsen,
04860,DE,51.51000000,13.01330000,Pflückuff,Sachsen,
04860,DE,51.56110000,12.88890000,Dreiheide,Sachsen,
04910,DE,51.46040000,13.52000000,Elsterwerda,Brandenburg,
04910,DE,51.47930000,13.46790000,Haida,Brandenburg,
04916,DE,51.84410000,13.16070000,Stolzenhain,Brandenburg,
04916,DE,51.68330000,13.23330000,Herzberg (Elster),Brandenburg,
04916,DE,51.77820000,13.31940000,Werchau,Brandenburg,
04916,DE,51.83330000,13.20000000,Heideeck,Brandenburg,
04916,DE,51.78330000,13.31670000,Wildberg,Brandenburg,
04916,DE,51.76670000,13.25000000,Themesgrund,Brandenburg,
06110,DE,51.47010000,11.96750000,Halle,Sachsen-Anhalt,
06112,DE,51.47530000,11.99730000,Halle,Sachsen-Anhalt,
06114,DE,51.50340000,11.96220000,Halle,Sachsen-Anhalt,
06120,DE,51.50400000,11.86210000,Lieskau,Sachsen-Anhalt,
06120,DE,51.51240000,11.90550000,Halle,Sachsen-Anhalt,
06124,DE,51.47960000,11.93700000,Halle,Sachsen-Anhalt,
06217,DE,51.35480000,11.98920000,Merseburg,Sachsen-Anhalt,
06217,DE,51.31670000,11.95000000,Beuna,Sachsen-Anhalt,
06217,DE,51.33910000,11.94380000,Geusa,Sachsen-Anhalt,
06366,DE,51.75190000,11.97090000,Köthen,Sachsen-Anhalt,
06406,DE,51.79460000,11.74010000,Bernburg,Sachsen-Anhalt,
06449,DE,51.83730000,11.36020000,Schadeleben,Sachsen-Anhalt,
06449,DE,51.83330000,11.45000000,Aschersleben Winningen,Sachsen-Anhalt,
06449,DE,51.75000000,11.51670000,Groß Schierstedt,Sachsen-Anhalt,
06449,DE,51.83580000,11.33160000,Friedrichsaue,Sachsen-Anhalt,
06449,DE,51.75200000,11.45830000,Aschersleben Aschersleben,Sachsen-Anhalt,
06449,DE,51.73870000,11.58920000,Schackenthal,Sachsen-Anhalt,
06449,DE,51.76670000,11.56670000,Giersleben,Sachsen-Anhalt,
06449,DE,51.73550000,11.43500000,Westdorf,Sachsen-Anhalt,
06449,DE,51.83420000,11.40200000,Neu Königsaue,Sachsen-Anhalt,
06449,DE,51.88250000,11.41080000,Cochstedt,Sachsen-Anhalt,
06449,DE,51.75740000,11.46080000,Aschersleben,Sachsen-Anhalt,
06449,DE,51.79970000,11.42560000,Wilsleben,Sachsen-Anhalt,
06449,DE,51.75000000,11.55000000,Aschersleben Klein Schierstedt,Sachsen-Anhalt,
06484,DE,51.82570000,11.19040000,Westerhausen,Sachsen-Anhalt,
06484,DE,51.78840000,11.15010000,Quedlinburg,Sachsen-Anhalt,
06484,DE,51.83330000,11.20000000,Ditfurt,Sachsen-Anhalt,
06493,DE,51.65630000,11.16210000,Ballenstedt,Sachsen-Anhalt,
06493,DE,51.64190000,11.14330000,Harzgerode,Sachsen-Anhalt,
06493,DE,51.61570000,11.04910000,Straßberg,Sachsen-Anhalt,
06493,DE,51.59170000,11.14050000,Dankerode,Sachsen-Anhalt,
06493,DE,51.60170000,11.20250000,Königerode,Sachsen-Anhalt,
06493,DE,51.61940000,11.21960000,Schielo,Sachsen-Anhalt,
06493,DE,51.60800000,11.11470000,Neudorf,Sachsen-Anhalt,
06502,DE,51.77410000,11.05810000,Warnstedt,Sachsen-Anhalt,
06502,DE,51.76530000,11.08530000,Weddersleben,Sachsen-Anhalt,
06502,DE,51.74860000,11.04100000,Thale,Sachsen-Anhalt,
06502,DE,51.74950000,11.08720000,Neinstedt,Sachsen-Anhalt,
06526,DE,51.47220000,11.29530000,Sangerhausen,Sachsen-Anhalt,
06526,DE,51.57300000,11.27500000,Wippra,Sachsen-Anhalt,
06567,DE,51.34730000,11.17900000,Esperstedt,Thüringen,
06567,DE,51.35610000,11.09980000,Bad Frankenhausen,Thüringen,
06618,DE,51.20800000,11.83280000,Pödelist,Sachsen-Anhalt,
06618,DE,51.16670000,11.86670000,Schönburg,Sachsen-Anhalt,
06618,DE,51.06580000,11.86520000,Utenbach,Sachsen-Anhalt,
06618,DE,51.09480000,11.77890000,Prießnitz,Sachsen-Anhalt,
06618,DE,51.14990000,11.80980000,Naumburg,Sachsen-Anhalt,
06618,DE,51.13720000,11.85680000,Wethau,Sachsen-Anhalt,
06618,DE,51.10790000,11.78200000,Janisroda,Sachsen-Anhalt,
06618,DE,51.08430000,11.74490000,Leislau,Sachsen-Anhalt,
06618,DE,51.13400000,11.88380000,Gieckau,Sachsen-Anhalt,
06618,DE,51.11210000,11.90160000,Görschen,Sachsen-Anhalt,
06618,DE,51.06630000,11.83980000,Casekirchen,Sachsen-Anhalt,
06618,DE,51.05780000,11.77930000,Molau,Sachsen-Anhalt,
06618,DE,51.11880000,11.85840000,Mertendorf,Sachsen-Anhalt,
06618,DE,51.08840000,11.88450000,Löbitz,Sachsen-Anhalt,
06667,DE,51.24850000,11.95350000,Reichardtswerben,Sachsen-Anhalt,
06667,DE,51.20000000,11.86670000,Goseck,Sachsen-Anhalt,
06667,DE,51.20150000,11.96840000,Weißenfels,Sachsen-Anhalt,
06667,DE,51.18260000,11.90950000,Leißling,Sachsen-Anhalt,
06667,DE,51.15000000,11.93020000,Prittitz,Sachsen-Anhalt,
06667,DE,51.20650000,11.92210000,Uichteritz,Sachsen-Anhalt,
06667,DE,51.17970000,11.96140000,Langendorf,Sachsen-Anhalt,
06667,DE,51.22770000,11.92420000,Storkau,Sachsen-Anhalt,
06667,DE,51.22270000,11.98400000,Burgwerben,Sachsen-Anhalt,
06667,DE,51.09440000,11.94630000,Pretzsch,Sachsen-Anhalt,
06667,DE,51.11440000,11.92400000,Stößen,Sachsen-Anhalt,
06667,DE,51.23760000,11.95130000,Tagewerben,Sachsen-Anhalt,
06667,DE,51.21580000,11.94070000,Markwerben,Sachsen-Anhalt,
06667,DE,51.13470000,11.92450000,Gröbitz,Sachsen-Anhalt,
06712,DE,51.01670000,12.18330000,Geußnitz,Sachsen-Anhalt,
06712,DE,51.04960000,12.13690000,Zeitz,Sachsen-Anhalt,
06712,DE,50.97740000,12.11740000,Schellbach,Sachsen-Anhalt,
06712,DE,51.03180000,12.11780000,Bergisdorf,Sachsen-Anhalt,
06712,DE,51.05000000,12.06670000,Kretzschau,Sachsen-Anhalt,
06712,DE,50.97740000,12.19490000,Wittgendorf,Sachsen-Anhalt,
06712,DE,51.00840000,12.12140000,Droßdorf,Sachsen-Anhalt,
06712,DE,51.08690000,12.21140000,Könderitz,Sachsen-Anhalt,
06712,DE,51.08820000,12.17160000,Bornitz,Sachsen-Anhalt,
06712,DE,51.09870000,12.18100000,Draschwitz,Sachsen-Anhalt,
06712,DE,51.01830000,12.06610000,Haynsburg,Sachsen-Anhalt,
06712,DE,51.06330000,12.05660000,Döschwitz,Sachsen-Anhalt,
06712,DE,51.01900000,12.22740000,Würchwitz,Sachsen-Anhalt,
06712,DE,51.00410000,12.07500000,Breitenbach,Sachsen-Anhalt,
06712,DE,51.05450000,12.10540000,Grana,Sachsen-Anhalt,
06712,DE,51.08550000,12.18360000,Göbitz,Sachsen-Anhalt,
06712,DE,50.96630000,12.15320000,Heuckewalde,Sachsen-Anhalt,
06749,DE,51.64810000,12.36550000,Friedersdorf,Sachsen-Anhalt,
06749,DE,51.61780000,12.30690000,Bitterfeld,Sachsen-Anhalt,
06846,DE,51.83330000,12.25000000,Dessau,Sachsen-Anhalt,
06847,DE,51.82210000,12.19170000,Dessau,Sachsen-Anhalt,
06869,DE,51.88620000,12.45010000,Coswig,Sachsen-Anhalt,
06869,DE,51.91860000,12.53560000,Möllensdorf,Sachsen-Anhalt,
06869,DE,51.96850000,12.56890000,Senst,Sachsen-Anhalt,
06869,DE,51.94270000,12.40800000,Buko,Sachsen-Anhalt,
06869,DE,51.88130000,12.50880000,Griebo,Sachsen-Anhalt,
06869,DE,51.92790000,12.38500000,Düben,Sachsen-Anhalt,
06869,DE,51.95710000,12.48660000,Köselitz,Sachsen-Anhalt,
06869,DE,51.91410000,12.41340000,Zieko,Sachsen-Anhalt,
06869,DE,51.88810000,12.37070000,Klieken,Sachsen-Anhalt,
06869,DE,51.96080000,12.53000000,Cobbelsdorf,Sachsen-Anhalt,
06869,DE,51.92590000,12.50310000,Wörpen,Sachsen-Anhalt,
06886,DE,51.87440000,12.60600000,Lutherstadt Wittenberg,Sachsen-Anhalt,
06898,DE,0.00000000,0.00000000,Westerland,Schleswig-Holstein,
07318,DE,50.60860000,11.31630000,Arnsgereuth,Thüringen,
07318,DE,50.65160000,11.37640000,Saalfeld/Saale,Thüringen,
07318,DE,50.60000000,11.23330000,Wittgendorf,Thüringen,
07407,DE,50.77490000,11.35580000,Großkochberg,Thüringen,
07407,DE,50.77110000,11.46100000,Heilingen,Thüringen,
07407,DE,50.75910000,11.43180000,Uhlstädt-Kirchhasel,Thüringen,
07407,DE,50.72040000,11.34050000,Rudolstadt,Thüringen,
07407,DE,50.76440000,11.25000000,Remda-Teichel,Thüringen,
07548,DE,50.86670000,12.08330000,Gera,Thüringen,
07580,DE,50.86340000,12.18670000,Ronneburg,Thüringen,
07580,DE,50.78330000,12.20000000,Gauern,Thüringen,
07580,DE,50.81670000,12.15000000,Hilbersdorf,Thüringen,
07580,DE,50.80000000,12.21670000,Braunichswalde,Thüringen,
07580,DE,50.77270000,12.24360000,Seelingstädt,Thüringen,
07580,DE,50.82190000,12.22030000,Rückersdorf,Thüringen,
07580,DE,50.92150000,12.23420000,Reichstädt,Thüringen,
07580,DE,50.80000000,12.20000000,Linda bei Weida,Thüringen,
07580,DE,50.90000000,12.20000000,Großenstein,Thüringen,
07580,DE,50.85000000,12.21670000,Paitzdorf,Thüringen,
07607,DE,51.00000000,11.88330000,Gösen,Thüringen,
07607,DE,50.96110000,11.83800000,Hainspitz,Thüringen,
07607,DE,50.96860000,11.90210000,Eisenberg,Thüringen,
07607,DE,51.00000000,11.91430000,Heideland,Thüringen,
07639,DE,50.92390000,11.87950000,Weißenborn,Thüringen,
07639,DE,50.92470000,11.91940000,Tautenhain,Thüringen,
07639,DE,50.91670000,11.86670000,Bad Klosterlausnitz,Thüringen,
07646,DE,50.79920000,11.77160000,Bremsnitz,Thüringen,
07646,DE,50.82750000,11.82510000,Ottendorf,Thüringen,
07646,DE,50.81670000,11.83330000,Kleinebersdorf,Thüringen,
07646,DE,50.90340000,11.79300000,Bobeck,Thüringen,
07646,DE,50.80000000,11.66670000,Oberbodnitz,Thüringen,
07646,DE,50.78330000,11.70000000,Trockenborn-Wolfersdorf,Thüringen,
07646,DE,50.86670000,11.76670000,Quirla,Thüringen,
07646,DE,50.83330000,11.75000000,Waltersdorf,Thüringen,
07646,DE,50.81670000,11.73330000,Meusebach,Thüringen,
07646,DE,50.81670000,11.78330000,Weißbach,Thüringen,
07646,DE,50.90520000,11.75430000,Scheiditz,Thüringen,
07646,DE,50.85000000,11.75000000,Tissa,Thüringen,
07646,DE,50.90750000,11.72380000,Schöngleina,Thüringen,
07646,DE,50.90330000,11.77300000,Albersdorf,Thüringen,
07646,DE,50.87000000,11.79800000,Mörsdorf,Thüringen,
07646,DE,50.89400000,11.68900000,Schlöben,Thüringen,
07646,DE,50.81670000,11.68330000,Gneus,Thüringen,
07646,DE,50.85000000,11.65000000,Großbockedra,Thüringen,
07646,DE,50.86670000,11.68330000,Rausdorf,Thüringen,
07646,DE,50.81670000,11.65000000,Unterbodnitz,Thüringen,
07646,DE,50.80000000,11.80000000,Karlsdorf,Thüringen,
07646,DE,50.85680000,11.72680000,Stadtroda,Thüringen,
07646,DE,50.83330000,11.73330000,Tröbnitz,Thüringen,
07646,DE,50.88330000,11.73330000,Ruttersdorf-Lotschen,Thüringen,
07646,DE,50.85000000,11.65000000,Kleinbockedra,Thüringen,
07646,DE,50.83330000,11.79170000,Lippersdorf-Erdmannsdorf,Thüringen,
07646,DE,50.83330000,11.71670000,Geisenhain,Thüringen,
07646,DE,50.83330000,11.86670000,Eineborn,Thüringen,
07646,DE,50.81670000,11.76670000,Rattelsdorf,Thüringen,
07646,DE,50.85000000,11.76670000,Möckern,Thüringen,
07646,DE,50.87140000,11.67250000,Laasdorf,Thüringen,
07646,DE,50.81670000,11.90000000,Tautendorf,Thüringen,
07646,DE,50.88330000,11.80000000,Bollberg,Thüringen,
07646,DE,50.80000000,11.96670000,Renthendorf,Thüringen,
07646,DE,50.91670000,11.78330000,Waldeck,Thüringen,
07743,DE,50.93260000,11.58680000,Jena,Thüringen,
07907,DE,50.65000000,11.81670000,Dittersdorf,Thüringen,
07907,DE,50.65000000,11.86670000,Tegau,Thüringen,
07907,DE,50.58330000,11.78330000,Görkwitz,Thüringen,
07907,DE,50.60000000,11.81670000,Oettersdorf,Thüringen,
07907,DE,50.57870000,11.81020000,Schleiz,Thüringen,
07907,DE,50.63330000,11.76670000,Plothen,Thüringen,
07907,DE,50.63330000,11.86670000,Göschitz,Thüringen,
07907,DE,50.61670000,11.81670000,Pörmitz,Thüringen,
07907,DE,50.61170000,11.85200000,Löhma,Thüringen,
07907,DE,50.64590000,11.83350000,Dragensdorf,Thüringen,
07973,DE,50.65780000,12.19920000,Greiz,Thüringen,
08060,DE,50.71880000,12.46010000,Zwickau,Sachsen,
08134,DE,50.64000000,12.61270000,Langenweißbach,Sachsen,
08134,DE,50.64620000,12.56430000,Wildenfels Wiesenburg,Sachsen,
08134,DE,50.62930000,12.59360000,Langenweißbach Weißbach,Sachsen,
08134,DE,50.64370000,12.55570000,Wildenfels Wiesen,Sachsen,
08134,DE,50.66780000,12.60890000,Wildenfels,Sachsen,
08134,DE,50.65030000,12.60930000,Langenweißbach Grünau,Sachsen,
08134,DE,50.64030000,12.63520000,Langenweißbach Langenbach,Sachsen,
08134,DE,50.65710000,12.57560000,Wildenfels Schönau,Sachsen,
08134,DE,50.67620000,12.60930000,Wildenfels Härtensdorf,Sachsen,
08134,DE,50.67780000,12.58920000,Wildenfels Wildenfels,Sachsen,
08228,DE,50.53080000,12.41330000,Rodewisch,Sachsen,
08262,DE,50.44630000,12.51310000,Morgenröthe-Rautenkranz,Sachsen,
08262,DE,50.43330000,12.46670000,Tannenbergsthal/Vogtland,Sachsen,
08280,DE,50.59030000,12.70660000,Aue,Sachsen,
08359,DE,50.46670000,12.76670000,Breitenbrunn/Erzgebirge,Sachsen,
08371,DE,50.81990000,12.54490000,Glauchau,Sachsen,
08412,DE,50.72310000,12.35660000,Leubnitz,Sachsen,
08412,DE,50.73600000,12.37530000,Werdau,Sachsen,
08468,DE,50.62220000,12.37220000,Heinsdorfergrund,Sachsen,
08468,DE,50.62280000,12.30340000,Reichenbach/Vogtland,Sachsen,
08523,DE,50.49420000,12.13530000,Plauen,Sachsen,
08529,DE,50.49210000,12.17750000,Plauen,Sachsen,
08645,DE,50.28190000,12.23430000,Bad Elster,Sachsen,
09116,DE,50.82130000,12.88400000,Chemnitz,Sachsen,
09117,DE,50.81790000,12.83790000,Chemnitz,Sachsen,
09130,DE,50.83760000,12.93450000,Chemnitz,Sachsen,
09232,DE,50.90000000,12.80000000,Hartmannsdorf,Sachsen,
09350,DE,50.74380000,12.64530000,Lichtenstein/Sachsen,Sachsen,
09366,DE,50.72620000,12.78590000,Niederdorf,Sachsen,
09366,DE,50.70470000,12.76450000,Stollberg/Erzgebirge,Sachsen,
09405,DE,50.74820000,13.07690000,Zschopau,Sachsen,
09405,DE,50.76670000,13.01670000,Gornau/Erzgebirge,Sachsen,
09456,DE,50.58690000,13.07260000,Mildenau,Sachsen,
09456,DE,50.57950000,13.00630000,Annaberg-Buchholz,Sachsen,
09526,DE,50.70000000,13.35000000,Pfaffroda,Sachsen,
09526,DE,50.68330000,13.40000000,Heidersdorf,Sachsen,
09526,DE,50.65870000,13.34250000,Olbernhau,Sachsen,
09599,DE,50.91090000,13.33880000,Freiberg,Sachsen,
09633,DE,50.95000000,13.35000000,Halsbrücke,Sachsen,
09648,DE,51.05000000,13.01670000,Kriebstein,Sachsen,
09648,DE,50.98620000,12.97540000,Mittweida,Sachsen,
09648,DE,50.96670000,12.95000000,Altmittweida,Sachsen,
10115,DE,52.53230000,13.38460000,Berlin,Berlin,
10117,DE,52.51700000,13.38720000,Berlin,Berlin,
10247,DE,52.51610000,13.46560000,Berlin Friedrichshain,Berlin,
10249,DE,52.52380000,13.44280000,Berlin Friedrichshain,Berlin,
10365,DE,52.52060000,13.49690000,Berlin,Berlin,
10405,DE,52.53520000,13.42570000,Berlin,Berlin,
10623,DE,52.50880000,13.32740000,Berlin,Berlin,
10627,DE,52.50800000,13.30300000,Berlin,Berlin,
10709,DE,52.49390000,13.30310000,Berlin,Berlin,
10713,DE,52.48510000,13.31330000,Berlin,Berlin,
10715,DE,52.48240000,13.32890000,Berlin,Berlin,
10717,DE,52.49080000,13.32750000,Berlin,Berlin,
10785,DE,52.50730000,13.36430000,Berlin,Berlin,
10787,DE,52.50780000,13.34390000,Berlin,Berlin,
10789,DE,52.50170000,13.33770000,Berlin,Berlin,
10963,DE,52.50030000,13.38130000,Berlin Kreuzberg,Berlin,
10967,DE,52.49050000,13.41640000,Berlin Kreuzberg,Berlin,
12043,DE,52.47990000,13.43710000,Berlin,Berlin,
12099,DE,52.46440000,13.40230000,Berlin,Berlin,
12101,DE,52.47850000,13.37910000,Berlin,Berlin,
12109,DE,52.44650000,13.39930000,Berlin,Berlin,
12157,DE,52.46530000,13.34620000,Berlin,Berlin,
12203,DE,52.44440000,13.30960000,Berlin,Berlin,
12207,DE,52.41990000,13.31330000,Berlin,Berlin,
12249,DE,52.42640000,13.35180000,Berlin,Berlin,
12351,DE,52.43280000,13.45550000,Berlin,Berlin,
12526,DE,52.39760000,13.56420000,Berlin,Berlin,
12557,DE,52.43030000,13.59200000,Berlin,Berlin,
12559,DE,52.41490000,13.66340000,Berlin,Berlin,
12621,DE,52.50270000,13.58780000,Berlin,Berlin,
12627,DE,52.53720000,13.61350000,Berlin,Berlin,
12681,DE,52.53690000,13.53670000,Berlin,Berlin,
12683,DE,52.50750000,13.55910000,Berlin,Berlin,
13086,DE,52.55650000,13.44820000,Berlin,Berlin,
13088,DE,52.56030000,13.47080000,Berlin,Berlin,
13125,DE,52.63290000,13.48290000,Berlin,Berlin,
13187,DE,52.56950000,13.40840000,Berlin,Berlin,
13347,DE,52.54910000,13.36550000,Berlin,Berlin,
13353,DE,52.54160000,13.34950000,Berlin,Berlin,
13357,DE,52.55020000,13.38280000,Berlin,Berlin,
13359,DE,52.55990000,13.38510000,Berlin,Berlin,
13435,DE,52.60200000,13.34560000,Berlin,Berlin,
13467,DE,52.61710000,13.30750000,Berlin,Berlin,
13507,DE,52.57650000,13.27170000,Berlin,Berlin,
13509,DE,52.58920000,13.30060000,Berlin,Berlin,
13581,DE,52.53100000,13.17940000,Berlin,Berlin,
13585,DE,52.54770000,13.20490000,Berlin,Berlin,
13587,DE,52.57670000,13.18540000,Berlin,Berlin,
13589,DE,52.55700000,13.16760000,Berlin,Berlin,
13595,DE,52.51160000,13.19620000,Berlin,Berlin,
14050,DE,52.52080000,13.26830000,Berlin,Berlin,
14055,DE,52.50200000,13.24470000,Berlin,Berlin,
14059,DE,52.52050000,13.28780000,Berlin,Berlin,
14089,DE,52.47080000,13.15160000,Berlin,Berlin,
14109,DE,52.41970000,13.14400000,Berlin,Berlin,
14129,DE,52.44630000,13.20260000,Berlin,Berlin,
14163,DE,52.43680000,13.23850000,Berlin,Berlin,
14165,DE,52.41750000,13.25360000,Berlin,Berlin,
14193,DE,52.48310000,13.23650000,Berlin,Berlin,
14195,DE,52.45890000,13.28290000,Berlin,Berlin,
14467,DE,52.40300000,13.06260000,Potsdam,Brandenburg,
14469,DE,52.40910000,12.98990000,Potsdam,Brandenburg,
14471,DE,52.37440000,13.01020000,Potsdam,Brandenburg,
14482,DE,52.38710000,13.09930000,Potsdam,Brandenburg,
14547,DE,52.23810000,12.97140000,Beelitz,Brandenburg,
14547,DE,52.24500000,13.07920000,Stücken,Brandenburg,
14641,DE,52.67630000,12.96460000,Grünefeld,Brandenburg,
14641,DE,52.62460000,12.75140000,Ribbeck,Brandenburg,
14641,DE,52.53370000,12.75740000,Wachow,Brandenburg,
14641,DE,52.67700000,12.71070000,Paulinenaue,Brandenburg,
14641,DE,52.65850000,13.01240000,Perwenitz,Brandenburg,
14641,DE,52.49630000,12.92340000,Falkenrehde,Brandenburg,
14641,DE,52.55000000,12.95000000,Wustermark,Brandenburg,
14641,DE,52.71250000,12.93370000,Tietzow,Brandenburg,
14641,DE,52.57960000,12.73290000,Groß Behnitz,Brandenburg,
14641,DE,52.63890000,13.04230000,Pausin,Brandenburg,
14641,DE,52.57910000,12.87200000,Markee,Brandenburg,
14641,DE,52.53050000,12.81810000,Tremmen,Brandenburg,
14641,DE,52.68980000,12.65000000,Brädikow,Brandenburg,
14641,DE,52.68600000,12.93550000,Börnicke,Brandenburg,
14641,DE,52.63280000,12.71380000,Selbelang,Brandenburg,
14641,DE,52.61530000,12.83050000,Lietzow,Brandenburg,
14641,DE,52.64240000,12.66680000,Pessin,Brandenburg,
14641,DE,52.62480000,12.68550000,Retzow,Brandenburg,
14641,DE,52.56700000,12.70830000,Klein Behnitz,Brandenburg,
14641,DE,52.57300000,12.95920000,Zeestow,Brandenburg,
14641,DE,52.63990000,13.08690000,Wansdorf,Brandenburg,
14641,DE,52.65610000,12.80390000,Bergerdamm,Brandenburg,
14641,DE,52.66300000,12.90580000,Kienberg,Brandenburg,
14641,DE,52.65380000,12.98760000,Paaren im Glien,Brandenburg,
14641,DE,52.58870000,12.92660000,Bredow,Brandenburg,
14641,DE,52.51770000,12.85420000,Etzin,Brandenburg,
14641,DE,52.62010000,12.79510000,Berge,Brandenburg,
14641,DE,52.66670000,12.61110000,Mühlenberge,Brandenburg,
14641,DE,52.60700000,12.87370000,Nauen,Brandenburg,
14712,DE,52.60660000,12.33700000,Rathenow,Brandenburg,
14770,DE,52.41890000,12.52280000,Brandenburg an der Havel,Brandenburg,
14772,DE,52.43580000,12.52970000,Brandenburg an der Havel,Brandenburg,
14797,DE,52.32710000,12.66250000,Kloster Lehnin,Brandenburg,
14929,DE,52.09750000,12.87260000,Treuenbrietzen,Brandenburg,
14943,DE,52.15640000,12.97030000,Lühsdorf,Brandenburg,
14943,DE,52.18580000,13.28990000,Lüdersdorf,Brandenburg,
14943,DE,52.09030000,13.16770000,Luckenwalde,Brandenburg,
14974,DE,52.30320000,13.25400000,Ludwigsfelde,Brandenburg,
14974,DE,52.25260000,13.23960000,Thyrow,Brandenburg,
15232,DE,52.32410000,14.53250000,Frankfurt (Oder),Brandenburg,
15236,DE,52.33330000,14.40000000,Jacobsdorf Pillgram,Brandenburg,
15236,DE,52.38330000,14.36670000,Jacobsdorf Sieversdorf,Brandenburg,
15236,DE,52.36670000,14.35000000,Jacobsdorf Petersdorf bei Briesen,Brandenburg,
15236,DE,52.33330000,14.35000000,Jacobsdorf,Brandenburg,
15236,DE,52.40000000,14.40000000,Treplin,Brandenburg,
15236,DE,52.33450000,14.41790000,Jacobsdorf Jacobsdorf,Brandenburg,
15236,DE,52.35000000,14.55000000,Frankfurt (Oder),Brandenburg,
15306,DE,52.48990000,14.42850000,Lindendorf,Brandenburg,
15306,DE,52.52060000,14.27490000,Vierlinden Worin,Brandenburg,
15306,DE,52.48020000,14.38980000,Lindendorf Neu Mahlisch,Brandenburg,
15306,DE,52.51210000,14.33110000,Vierlinden Diedersdorf,Brandenburg,
15306,DE,52.46410000,14.42090000,Fichtenhöhe Alt Mahlisch,Brandenburg,
15306,DE,52.52990000,14.31070000,Vierlinden Görlsdorf,Brandenburg,
15306,DE,52.51500000,14.31410000,Vierlinden,Brandenburg,
15306,DE,52.43330000,14.31670000,Falkenhagen,Brandenburg,
15306,DE,52.48300000,14.28000000,Vierlinden Marxdorf,Brandenburg,
15306,DE,52.51020000,14.39870000,Vierlinden Friedersdorf,Brandenburg,
15306,DE,52.53390000,14.38130000,Seelow,Brandenburg,
15306,DE,52.46990000,14.34010000,Lietzen,Brandenburg,
15306,DE,52.50200000,14.32650000,Vierlinden Neuentempel,Brandenburg,
15306,DE,52.44490000,14.43240000,Fichtenhöhe Niederjesar,Brandenburg,
15306,DE,52.56170000,14.38480000,Werbig,Brandenburg,
15306,DE,52.54710000,14.27700000,Vierlinden Alt Rosenthal,Brandenburg,
15306,DE,52.45560000,14.44690000,Fichtenhöhe,Brandenburg,
15306,DE,52.58350000,14.32440000,Gusow-Platkow Platkow,Brandenburg,
15306,DE,52.57770000,14.34000000,Gusow-Platkow,Brandenburg,
15306,DE,52.47750000,14.43670000,Lindendorf Libbenichen,Brandenburg,
15306,DE,52.49550000,14.40710000,Lindendorf Dolgelin,Brandenburg,
15306,DE,52.57190000,14.35560000,Gusow-Platkow Gusow,Brandenburg,
15306,DE,52.50630000,14.48040000,Lindendorf Sachsendorf,Brandenburg,
15344,DE,52.57860000,13.88740000,Strausberg,Brandenburg,
15526,DE,52.26670000,14.00000000,Reichenwalde,Brandenburg,
15526,DE,52.28330000,14.06670000,Bad Saarow,Brandenburg,
15526,DE,52.23210000,14.16190000,Rietz-Neuendorf,Brandenburg,
15526,DE,52.26670000,14.00000000,Reichenwalde Reichenwalde,Brandenburg,
15526,DE,52.23330000,13.98330000,Reichenwalde Dahmsdorf,Brandenburg,
15526,DE,52.28330000,14.06670000,Bad Saarow Bad Saarow,Brandenburg,
15526,DE,52.28330000,13.98330000,Reichenwalde Kolpin,Brandenburg,
15526,DE,52.30000000,14.10000000,Bad Saarow Neu Golm,Brandenburg,
15526,DE,52.30000000,14.11670000,Rietz-Neuendorf Alt Golm,Brandenburg,
15526,DE,52.31670000,14.08330000,Bad Saarow Petersdorf,Brandenburg,
15537,DE,52.41110000,13.88890000,Grünheide (Mark),Brandenburg,
15537,DE,52.36670000,13.75000000,Gosen Neu Zittau,Brandenburg,
15537,DE,52.46670000,13.91670000,Grünheide (Mark) Kagel,Brandenburg,
15537,DE,52.45000000,13.95000000,Grünheide (Mark) Kienbaum,Brandenburg,
15537,DE,52.42000000,13.75440000,Erkner,Brandenburg,
15537,DE,52.41670000,13.81670000,Grünheide (Mark) Grünheide,Brandenburg,
15537,DE,52.40000000,13.71670000,Gosen Gosen,Brandenburg,
15537,DE,52.40000000,13.71670000,Gosen,Berlin,
15562,DE,52.47070000,13.77360000,Rüdersdorf bei Berlin,Brandenburg,
15569,DE,52.44600000,13.75600000,Woltersdorf,Brandenburg,
15711,DE,52.30140000,13.63300000,Königs Wusterhausen,Brandenburg,
15711,DE,52.27790000,13.59480000,Schenkendorf,Brandenburg,
15711,DE,52.27880000,13.63760000,Zeesen,Brandenburg,
15755,DE,52.12970000,13.61960000,Teupitz,Brandenburg,
15755,DE,52.17150000,13.57710000,Töpchin,Brandenburg,
15755,DE,52.15000000,13.63330000,Schwerin,Brandenburg,
15848,DE,52.11670000,14.11670000,Tauche Briescht,Brandenburg,
15848,DE,52.11670000,14.03330000,Tauche Werder,Brandenburg,
15848,DE,52.15000000,14.16670000,Tauche Tauche,Brandenburg,
15848,DE,52.03600000,14.22080000,Speichrow,Brandenburg,
15848,DE,52.11670000,14.06670000,Tauche Kossenblatt,Brandenburg,
15848,DE,52.11670000,14.20000000,Tauche Ranzig,Brandenburg,
15848,DE,52.16670000,14.13330000,Tauche Falkenberg,Brandenburg,
15848,DE,52.11670000,14.21670000,Friedland Leißnitz,Brandenburg,
15848,DE,52.20000000,14.13330000,Tauche Lindenberg,Brandenburg,
15848,DE,52.09430000,14.31040000,Friedland,Brandenburg,
15848,DE,52.17290000,14.24600000,Beeskow,Brandenburg,
15848,DE,52.15000000,14.10000000,Tauche Görsdorf bei Beeskow,Brandenburg,
15848,DE,52.06670000,14.15000000,Tauche Mittweide,Brandenburg,
15848,DE,52.08330000,14.16670000,Tauche Trebatsch,Brandenburg,
15848,DE,52.13330000,14.13330000,Tauche Giesensdorf,Brandenburg,
15848,DE,52.12920000,14.13060000,Tauche,Brandenburg,
15848,DE,52.13330000,14.16670000,Tauche Stremmen,Brandenburg,
15848,DE,52.13330000,14.26670000,Friedland Zeust,Brandenburg,
15848,DE,52.10630000,14.01800000,Plattkow,Brandenburg,
15848,DE,52.26670000,14.28330000,Rietz-Neuendorf Neubrück (Spree),Brandenburg,
15848,DE,52.10000000,14.30000000,Friedland Lindow,Brandenburg,
15848,DE,52.20000000,14.30000000,Ragow-Merz Merz,Brandenburg,
15848,DE,52.26670000,14.16670000,Rietz-Neuendorf Pfaffendorf,Brandenburg,
15848,DE,52.05000000,14.43330000,Friedland Klein Muckrow,Brandenburg,
15848,DE,52.05000000,14.23330000,Friedland Pieskow,Brandenburg,
15848,DE,52.16670000,14.20000000,Beeskow Kohlsdorf,Brandenburg,
15848,DE,52.15000000,14.33330000,Beeskow Krügersdorf,Brandenburg,
15848,DE,52.26670000,14.13330000,Rietz-Neuendorf Wilmersdorf,Brandenburg,
15848,DE,52.08330000,14.28330000,Friedland Karras,Brandenburg,
15848,DE,52.15000000,14.23330000,Friedland Kummerow,Brandenburg,
15848,DE,52.16670000,14.08330000,Rietz-Neuendorf Ahrensdorf,Brandenburg,
15848,DE,52.18330000,14.05000000,Rietz-Neuendorf Behrensdorf,Brandenburg,
15848,DE,52.20000000,14.32500000,Ragow-Merz,Brandenburg,
15848,DE,52.11670000,14.38330000,Friedland Groß Briesen,Brandenburg,
15848,DE,52.23330000,14.20000000,Rietz-Neuendorf Görzig,Brandenburg,
15848,DE,52.18330000,14.16670000,Rietz-Neuendorf Buckow,Brandenburg,
15848,DE,52.05000000,14.26670000,Friedland Schadow,Brandenburg,
15848,DE,52.16670000,14.20000000,Beeskow Bornow,Brandenburg,
15848,DE,52.10000000,14.26670000,Friedland Friedland,Brandenburg,
15848,DE,52.18330000,14.28330000,Beeskow Oegeln,Brandenburg,
15848,DE,52.21670000,14.11670000,Rietz-Neuendorf Herzberg,Brandenburg,
15848,DE,52.13330000,14.33330000,Friedland Reudnitz,Brandenburg,
15848,DE,52.16670000,14.33330000,Beeskow Schneeberg,Brandenburg,
15848,DE,52.20000000,14.20000000,Rietz-Neuendorf Birkholz,Brandenburg,
15848,DE,52.20000000,14.35000000,Ragow-Merz Ragow,Brandenburg,
15848,DE,52.08330000,14.30000000,Friedland Günthersdorf,Brandenburg,
15848,DE,52.08330000,14.23330000,Friedland Niewisch,Brandenburg,
15848,DE,52.10000000,14.43330000,Friedland Chossewitz,Brandenburg,
15848,DE,52.08330000,14.35000000,Friedland Weichensdorf,Brandenburg,
15848,DE,52.23210000,14.16190000,Rietz-Neuendorf,Brandenburg,
15848,DE,52.21670000,14.21670000,Rietz-Neuendorf Groß Rietz,Brandenburg,
15848,DE,52.28330000,14.23330000,Rietz-Neuendorf Drahendorf,Brandenburg,
15848,DE,52.26670000,14.21670000,Rietz-Neuendorf Sauen,Brandenburg,
15848,DE,52.18330000,14.23330000,Beeskow Neuendorf,Brandenburg,
15848,DE,52.21670000,14.26670000,Beeskow Radinkendorf,Brandenburg,
15890,DE,52.20000000,14.48330000,Siehdichum Schernsdorf,Brandenburg,
15890,DE,52.19440000,14.53330000,Siehdichum,Brandenburg,
15890,DE,52.18240000,14.66370000,Vogelsang,Brandenburg,
15890,DE,52.15000000,14.50000000,Schlaubetal Bremsdorf,Brandenburg,
15890,DE,52.20000000,14.53330000,Siehdichum Rießen,Brandenburg,
15890,DE,52.18330000,14.58330000,Siehdichum Pohlitz,Brandenburg,
15890,DE,52.15000000,14.61670000,Eisenhüttenstadt Schönfließ,Brandenburg,
15890,DE,52.16010000,14.55500000,Eisenhüttenstadt,Brandenburg,
15890,DE,52.15000000,14.53330000,Schlaubetal Fünfeichen,Brandenburg,
15890,DE,52.13330000,14.60000000,Eisenhüttenstadt Diehlo,Brandenburg,
15890,DE,52.15000000,14.66670000,Eisenhüttenstadt Fürstenberg,Brandenburg,
15890,DE,52.12890000,14.51110000,Schlaubetal,Brandenburg,
15890,DE,52.11670000,14.50000000,Schlaubetal Kieselwitz,Brandenburg,
15907,DE,51.94550000,13.88520000,Lübben (Spreewald),Brandenburg,
15926,DE,51.85040000,13.74700000,Cahnsdorf,Brandenburg,
15926,DE,51.80550000,13.67990000,Heideblick Riedebeck,Brandenburg,
15926,DE,51.80840000,13.82060000,Schlabendorf,Brandenburg,
15926,DE,51.81270000,13.65510000,Heideblick,Brandenburg,
15926,DE,51.94250000,13.77600000,Bersteland,Brandenburg,
15926,DE,51.79150000,13.73990000,Heideblick Beesdau,Brandenburg,
15926,DE,51.85200000,13.56840000,Heideblick Falkenberg,Brandenburg,
15926,DE,51.80330000,13.64690000,Heideblick Gehren,Brandenburg,
15926,DE,51.87150000,13.59050000,Heideblick Pitschen-Pickel,Brandenburg,
15926,DE,51.82150000,13.65040000,Heideblick Waltersdorf,Brandenburg,
15926,DE,51.93700000,13.78650000,Bersteland Niewitz,Brandenburg,
15926,DE,51.77320000,13.69390000,Heideblick Bornsdorf,Brandenburg,
15926,DE,51.92730000,13.72560000,Bersteland Reichwalde,Brandenburg,
15926,DE,51.81810000,13.75540000,Görlsdorf,Brandenburg,
15926,DE,51.95750000,13.74610000,Bersteland Freiwalde,Brandenburg,
15926,DE,51.89760000,13.80740000,Duben,Brandenburg,
15926,DE,51.82970000,13.67410000,Luckau,Brandenburg,
15926,DE,51.77780000,13.62690000,Walddrehna,Brandenburg,
15926,DE,51.74970000,13.69370000,Heideblick Weißack,Brandenburg,
15926,DE,51.81820000,13.60000000,Heideblick Wüstermarke,Brandenburg,
15926,DE,51.82000000,13.69960000,Heideblick Goßmar,Brandenburg,
15926,DE,51.83330000,13.64240000,Heideblick Langengrassau,Brandenburg,
16225,DE,52.83420000,13.82180000,Eberswalde,Brandenburg,
16269,DE,52.70000000,14.05830000,Wriezener Höhe,Brandenburg,
16269,DE,52.65860000,14.17610000,Bliesdorf Metzdorf,Brandenburg,
16269,DE,52.69300000,14.15950000,Bliesdorf,Brandenburg,
16269,DE,52.67470000,14.15840000,Bliesdorf Kunersdorf,Brandenburg,
16269,DE,52.72090000,14.13430000,Wriezen,Brandenburg,
16269,DE,52.70000000,14.15000000,Bliesdorf Bliesdorf,Brandenburg,
16278,DE,53.00850000,14.14260000,Schöneberg,Brandenburg,
16278,DE,53.03730000,13.98830000,Kerkow,Brandenburg,
16278,DE,52.97550000,13.98760000,Herzsprung,Brandenburg,
16278,DE,53.02490000,13.90140000,Wolletz,Brandenburg,
16278,DE,53.08730000,13.95520000,Greiffenberg,Brandenburg,
16278,DE,53.06200000,14.08560000,Pinnow,Brandenburg,
16278,DE,53.01500000,13.99920000,Angermünde,Brandenburg,
16278,DE,53.05320000,13.94230000,Görlsdorf,Brandenburg,
16278,DE,53.14300000,13.95210000,Schmiedeberg,Brandenburg,
16278,DE,53.06920000,14.00220000,Welsow,Brandenburg,
16278,DE,53.05320000,14.03330000,Mürow,Brandenburg,
16278,DE,53.09460000,13.87870000,Steinhöfel,Brandenburg,
16278,DE,53.08130000,13.97470000,Bruchhagen,Brandenburg,
16278,DE,52.96840000,14.07070000,Gellmersdorf,Brandenburg,
16278,DE,52.99980000,14.08010000,Crussow,Brandenburg,
16278,DE,52.98150000,13.95850000,Schmargendorf,Brandenburg,
16278,DE,52.98330000,14.11670000,Stolpe/Oder,Brandenburg,
16278,DE,53.07710000,14.04220000,Frauenhagen,Brandenburg,
16278,DE,53.09710000,13.96400000,Günterberg,Brandenburg,
16278,DE,53.11090000,13.90610000,Wilmersdorf,Brandenburg,
16278,DE,53.11110000,14.09170000,Mark Landin,Brandenburg,
16278,DE,53.11980000,14.01290000,Biesenbrow,Brandenburg,
16278,DE,52.97300000,14.03940000,Neukünkendorf,Brandenburg,
16303,DE,53.06600000,14.27110000,Schwedt/Oder,Brandenburg,
16321,DE,52.66300000,13.63800000,Börnicke,Brandenburg,
16321,DE,52.72790000,13.59210000,Lobetal,Brandenburg,
16321,DE,52.60260000,13.52440000,Lindenberg,Brandenburg,
16321,DE,52.73470000,13.66580000,Danewitz,Brandenburg,
16321,DE,52.67710000,13.53640000,Schönow,Brandenburg,
16321,DE,52.68210000,13.59650000,Bernau,Brandenburg,
16321,DE,52.72140000,13.62500000,Rüdnitz,Brandenburg,
16515,DE,52.75530000,13.37660000,Wensickendorf,Brandenburg,
16515,DE,52.81480000,13.21460000,Nassenheide,Brandenburg,
16515,DE,52.73000000,13.38760000,Zühlsdorf,Brandenburg,
16515,DE,52.82610000,13.27460000,Freienhagen,Brandenburg,
16515,DE,52.75580000,13.24200000,Oranienburg,Brandenburg,
16515,DE,52.78380000,13.38780000,Zehlendorf,Brandenburg,
16515,DE,52.76820000,13.32590000,Schmachtenhagen,Brandenburg,
16515,DE,52.85960000,13.32570000,Neuholland,Brandenburg,
16515,DE,52.79470000,13.27990000,Friedrichsthal,Brandenburg,
16515,DE,52.80300000,13.29220000,Malz,Brandenburg,
16547,DE,52.68330000,13.28330000,Birkenwerder,Brandenburg,
16761,DE,52.63600000,13.20420000,Hennigsdorf,Brandenburg,
16766,DE,52.76220000,13.02520000,Kremmen,Brandenburg,
16766,DE,52.58330000,13.31670000,Oberkrämer,Brandenburg,
16775,DE,53.03580000,13.04900000,Schulzendorf,Brandenburg,
16775,DE,53.06670000,13.10000000,Großwoltersdorf,Brandenburg,
16775,DE,52.96650000,13.43910000,Kappe,Brandenburg,
16775,DE,53.05470000,13.27850000,Marienthal,Brandenburg,
16775,DE,53.04760000,13.25330000,Zabelsdorf,Brandenburg,
16775,DE,53.01920000,13.08840000,Sonnenberg,Brandenburg,
16775,DE,53.00700000,13.12020000,Schönermark,Brandenburg,
16775,DE,53.13660000,13.24260000,Bredereiche,Brandenburg,
16775,DE,53.00700000,13.15750000,Gransee,Brandenburg,
16775,DE,52.89580000,13.17290000,Löwenberger Land,Brandenburg,
16775,DE,53.09980000,13.25080000,Blumenow,Brandenburg,
16775,DE,52.99870000,13.25230000,Badingen,Brandenburg,
16775,DE,52.96670000,13.28330000,Klein-Mutz,Brandenburg,
16775,DE,52.94430000,13.38600000,Krewelin,Brandenburg,
16775,DE,53.06320000,13.28750000,Tornow,Brandenburg,
16775,DE,53.01090000,13.28790000,Mildenberg,Brandenburg,
16775,DE,53.00420000,13.04070000,Rönnebeck,Brandenburg,
16775,DE,53.10210000,13.28820000,Barsdorf,Brandenburg,
16775,DE,53.04900000,13.30160000,Burgwall,Brandenburg,
16775,DE,53.10560000,13.04170000,Stechlin,Brandenburg,
16816,DE,52.92820000,12.80310000,Neuruppin,Brandenburg,
16866,DE,52.98080000,12.32740000,Kyritz,Brandenburg,
16866,DE,52.96230000,12.18250000,Schönhagen,Brandenburg,
16866,DE,53.01200000,12.08410000,Groß Welle,Brandenburg,
16866,DE,52.99060000,12.18540000,Döllen,Brandenburg,
16866,DE,52.98330000,12.40000000,Kyritz Drewen,Brandenburg,
16866,DE,53.01230000,12.31920000,Vehlow,Brandenburg,
16866,DE,53.02660000,12.24040000,Dannenwalde,Brandenburg,
16866,DE,52.94360000,12.20130000,Görike,Brandenburg,
16866,DE,52.98330000,12.25000000,Gumtow,Brandenburg,
16866,DE,52.97780000,12.11070000,Schrepkow,Brandenburg,
16866,DE,52.97430000,12.29320000,Demerthin,Brandenburg,
16866,DE,52.99500000,12.13300000,Kunow,Brandenburg,
16866,DE,53.02500000,12.50830000,Teetz-Ganz,Brandenburg,
16866,DE,52.95870000,12.25040000,Granzow,Brandenburg,
16866,DE,53.03330000,12.45000000,Bork-Lellichow,Brandenburg,
16866,DE,52.92360000,12.23400000,Barenthin,Brandenburg,
16866,DE,52.90000000,12.23330000,Kyritz Kötzlin,Brandenburg,
16866,DE,52.95690000,12.13900000,Vehlin,Brandenburg,
16866,DE,53.03090000,12.28630000,Kolrep,Brandenburg,
16866,DE,52.95000000,12.29170000,Rehfeld-Berlitt,Brandenburg,
16866,DE,53.01850000,12.37480000,Wutike,Brandenburg,
16909,DE,53.20000000,12.33330000,Heiligengrabe Blesendorf,Brandenburg,
16909,DE,53.21670000,12.43330000,Heiligengrabe Wernikow,Brandenburg,
16909,DE,53.18330000,12.35000000,Heiligengrabe Maulbeerwalde,Brandenburg,
16909,DE,53.16670000,12.43330000,Heiligengrabe Jabel,Brandenburg,
16909,DE,53.15000000,12.40000000,Heiligengrabe Liebenthal,Brandenburg,
16909,DE,53.13330000,12.43330000,Heiligengrabe Papenbruch,Brandenburg,
16909,DE,53.11670000,12.53330000,Wittstock/Dosse Dossow,Brandenburg,
16909,DE,53.25000000,12.65000000,Wittstock/Dosse Sewekow,Brandenburg,
16909,DE,53.11670000,12.38330000,Heiligengrabe Blandikow,Brandenburg,
16909,DE,53.14460000,12.36250000,Heiligengrabe,Brandenburg,
16909,DE,53.18330000,12.40000000,Heiligengrabe Zaatzke,Brandenburg,
16909,DE,53.18330000,12.55000000,Wittstock/Dosse Groß Haßlow,Brandenburg,
16909,DE,53.08330000,12.46670000,Wittstock/Dosse Christdorf,Brandenburg,
16909,DE,53.21670000,12.58330000,Wittstock/Dosse Berlinchen,Brandenburg,
16909,DE,53.05000000,12.56670000,Wittstock/Dosse Rossow,Brandenburg,
16909,DE,53.18330000,12.63330000,Wittstock/Dosse Schweinrich,Brandenburg,
16909,DE,53.08330000,12.40000000,Heiligengrabe Grabow bei Blumenthal,Brandenburg,
16909,DE,53.25000000,12.35000000,Wittstock/Dosse Niemerlang,Brandenburg,
16909,DE,53.06670000,12.43330000,Wittstock/Dosse Königsberg,Brandenburg,
16909,DE,53.11670000,12.61670000,Wittstock/Dosse Gadow,Brandenburg,
16909,DE,53.06670000,12.55000000,Wittstock/Dosse Fretzdorf,Brandenburg,
16909,DE,53.25000000,12.43330000,Wittstock/Dosse Wulfersdorf,Brandenburg,
16909,DE,53.20000000,12.61670000,Wittstock/Dosse Dranse,Brandenburg,
16909,DE,53.06670000,12.46670000,Wittstock/Dosse Herzsprung,Brandenburg,
16909,DE,53.15490000,12.48700000,Wittstock/Dosse,Brandenburg,
16909,DE,53.13330000,12.58330000,Wittstock/Dosse Zootzen,Brandenburg,
16909,DE,53.13330000,12.51670000,Wittstock/Dosse Goldbeck,Brandenburg,
16928,DE,53.13940000,12.23600000,Kemnitz,Brandenburg,
16928,DE,53.14940000,12.17410000,Pritzwalk,Brandenburg,
16928,DE,53.05950000,12.23310000,Schönebeck,Brandenburg,
16928,DE,53.04740000,12.18690000,Kehrberg,Brandenburg,
16928,DE,53.11750000,12.18350000,Buchholz,Brandenburg,
16928,DE,53.20650000,12.20310000,Falkenhagen,Brandenburg,
16928,DE,53.08330000,12.36670000,Heiligengrabe Blumenthal,Brandenburg,
16928,DE,53.15070000,12.22080000,Beveringen,Brandenburg,
16928,DE,53.03650000,12.06160000,Hoppenrade,Brandenburg,
16928,DE,53.11950000,12.04970000,Groß Pankow,Brandenburg,
16928,DE,53.10000000,12.27780000,Boddin-Langnow,Brandenburg,
16928,DE,53.19850000,12.11750000,Steffenshagen,Brandenburg,
16928,DE,53.03320000,12.17060000,Vettin,Brandenburg,
16928,DE,53.11850000,12.10720000,Kuhsdorf,Brandenburg,
16928,DE,53.08240000,12.15060000,Groß Woltersdorf,Brandenburg,
16928,DE,53.06210000,12.09330000,Tüchen,Brandenburg,
16928,DE,53.14840000,12.09420000,Kuhbier,Brandenburg,
16928,DE,53.18660000,12.26520000,Sadenbeck,Brandenburg,
16928,DE,53.09530000,12.13090000,Mesendorf,Brandenburg,
16928,DE,53.15000000,12.26670000,Alt Krüssow,Brandenburg,
16928,DE,53.05000000,12.36670000,Heiligengrabe Rosenwinkel,Brandenburg,
16928,DE,53.16790000,12.03260000,Helle,Brandenburg,
16928,DE,53.16220000,12.30740000,Wilmersdorf,Brandenburg,
16928,DE,53.03770000,12.12910000,Lindenberg,Brandenburg,
16928,DE,53.24460000,12.19810000,Gerdshagen,Brandenburg,
16928,DE,53.07540000,12.18490000,Klein Woltersdorf,Brandenburg,
17036,DE,53.55370000,13.29690000,Neubrandenburg,Mecklenburg-Vorpommern,
17109,DE,53.90760000,13.03140000,Demmin,Mecklenburg-Vorpommern,
17166,DE,53.77540000,12.57490000,Teterow,Mecklenburg-Vorpommern,
17166,DE,53.77850000,12.50470000,Groß Roge,Mecklenburg-Vorpommern,
17166,DE,53.72140000,12.54380000,Hohen Demzin,Mecklenburg-Vorpommern,
17166,DE,53.80240000,12.65120000,Alt Sührkow,Mecklenburg-Vorpommern,
17166,DE,53.81480000,12.50210000,Dalkendorf,Mecklenburg-Vorpommern,
17166,DE,53.68990000,12.60070000,Bülow,Mecklenburg-Vorpommern,
17166,DE,53.75130000,12.49250000,Groß Wokern,Mecklenburg-Vorpommern,
17166,DE,53.71230000,12.62570000,Bristow,Mecklenburg-Vorpommern,
17166,DE,53.66090000,12.58140000,Dahmen,Mecklenburg-Vorpommern,
17192,DE,53.60010000,12.75780000,Lansen,Mecklenburg-Vorpommern,
17192,DE,53.53720000,12.78640000,Schloen,Mecklenburg-Vorpommern,
17192,DE,53.51520000,12.71860000,Waren (Müritz),Mecklenburg-Vorpommern,
17192,DE,53.58470000,12.73380000,Alt Schönau,Mecklenburg-Vorpommern,
17192,DE,53.58410000,12.86020000,Varchentin,Mecklenburg-Vorpommern,
17192,DE,53.54640000,12.85080000,Groß Plasten,Mecklenburg-Vorpommern,
17192,DE,53.51280000,12.83990000,Groß Dratow,Mecklenburg-Vorpommern,
17192,DE,53.56670000,12.78330000,Torgelow am See,Mecklenburg-Vorpommern,
17192,DE,53.58080000,12.78190000,Groß Gievitz,Mecklenburg-Vorpommern,
17192,DE,53.47760000,12.62130000,Klink,Mecklenburg-Vorpommern,
17192,DE,53.51050000,12.78330000,Kargow,Mecklenburg-Vorpommern,
17235,DE,53.36130000,13.07290000,Neustrelitz,Mecklenburg-Vorpommern,
17268,DE,53.08000000,13.74170000,Temmen-Ringenwalde,Brandenburg,
17268,DE,53.04900000,13.60320000,Gollin,Brandenburg,
17268,DE,53.17110000,13.56170000,Klosterwalde,Brandenburg,
17268,DE,53.10170000,13.44420000,Röddelin,Brandenburg,
17268,DE,53.18330000,13.66670000,Mittenwalde,Brandenburg,
17268,DE,53.11190000,13.64150000,Milmersdorf,Brandenburg,
17268,DE,53.14530000,13.37790000,Densow,Brandenburg,
17268,DE,53.16210000,13.62530000,Petznick,Brandenburg,
17268,DE,53.16990000,13.74850000,Gerswalde,Brandenburg,
17268,DE,53.12620000,13.54550000,Templin,Brandenburg,
17268,DE,53.02350000,13.48060000,Grunewald,Brandenburg,
17268,DE,52.99280000,13.52550000,Groß Dölln,Brandenburg,
17268,DE,53.05020000,13.52950000,Vietmannsdorf,Brandenburg,
17268,DE,53.19750000,13.60310000,Herzfelde,Brandenburg,
17268,DE,53.04700000,13.44240000,Storkow,Brandenburg,
17268,DE,53.25500000,13.58670000,Boitzenburger Land,Brandenburg,
17268,DE,53.11380000,13.38890000,Beutel,Brandenburg,
17268,DE,53.07140000,13.43190000,Hammelspring,Brandenburg,
17268,DE,53.17350000,13.44090000,Gandenitz,Brandenburg,
17268,DE,53.14170000,13.83330000,Flieth-Stegelitz,Brandenburg,
17291,DE,53.25830000,13.96670000,Uckerfelde,Brandenburg,
17291,DE,53.40630000,13.91560000,Göritz,Brandenburg,
17291,DE,53.21250000,13.88750000,Oberuckersee,Brandenburg,
17291,DE,53.41360000,13.98570000,Schönfeld,Brandenburg,
17291,DE,53.30560000,14.05560000,Randowtal,Brandenburg,
17291,DE,53.36670000,13.95000000,Schenkenberg,Brandenburg,
17291,DE,53.31670000,13.95000000,Grünow,Brandenburg,
17291,DE,53.21250000,14.00750000,Gramzow,Brandenburg,
17291,DE,53.31620000,13.86260000,Prenzlau,Brandenburg,
17291,DE,53.36670000,14.06800000,Carmzow-Wallmow,Brandenburg,
17291,DE,53.26970000,13.60460000,Nordwestuckermark,Brandenburg,
17309,DE,53.54720000,13.96960000,Belling,Mecklenburg-Vorpommern,
17309,DE,53.49960000,14.05860000,Polzow,Mecklenburg-Vorpommern,
17309,DE,53.54900000,14.04000000,Viereck,Mecklenburg-Vorpommern,
17309,DE,53.54350000,13.90470000,Schönwalde,Mecklenburg-Vorpommern,
17309,DE,53.49370000,14.08980000,Zerrenthin,Mecklenburg-Vorpommern,
17309,DE,53.57950000,13.93960000,Jatznick,Mecklenburg-Vorpommern,
17309,DE,53.53090000,14.13240000,Koblentz,Mecklenburg-Vorpommern,
17309,DE,53.49640000,13.94700000,Papendorf,Mecklenburg-Vorpommern,
17309,DE,53.52550000,14.08460000,Krugsdorf,Mecklenburg-Vorpommern,
17309,DE,53.44210000,13.97320000,Damerow,Mecklenburg-Vorpommern,
17309,DE,53.47330000,13.97790000,Rollwitz,Mecklenburg-Vorpommern,
17309,DE,53.44430000,14.01810000,Züsedom,Mecklenburg-Vorpommern,
17309,DE,53.57090000,14.15000000,Marienthal,Mecklenburg-Vorpommern,
17309,DE,53.43980000,14.06110000,Fahrenwalde,Mecklenburg-Vorpommern,
17309,DE,53.50630000,13.99000000,Pasewalk,Mecklenburg-Vorpommern,
17309,DE,53.43990000,13.92240000,Nieden,Mecklenburg-Vorpommern,
17309,DE,53.46670000,13.90000000,Brietzig,Mecklenburg-Vorpommern,
17373,DE,53.73790000,14.04470000,Ueckermünde,Mecklenburg-Vorpommern,
17438,DE,54.05280000,13.77200000,Wolgast,Mecklenburg-Vorpommern,
17489,DE,54.08810000,13.38760000,Greifswald,Mecklenburg-Vorpommern,
17491,DE,54.08300000,13.40580000,Greifswald,Mecklenburg-Vorpommern,
17495,DE,54.01610000,13.59400000,Wrangelsburg,Mecklenburg-Vorpommern,
17495,DE,53.94890000,13.52830000,Ranzin,Mecklenburg-Vorpommern,
17495,DE,53.97710000,13.54850000,Züssow,Mecklenburg-Vorpommern,
17495,DE,54.00870000,13.63560000,Lühmannsdorf,Mecklenburg-Vorpommern,
17495,DE,53.97170000,13.61010000,Karlsburg,Mecklenburg-Vorpommern,
17495,DE,54.01260000,13.47850000,Groß Kiesow,Mecklenburg-Vorpommern,
18057,DE,54.08720000,12.10620000,Rostock,Mecklenburg-Vorpommern,
18059,DE,54.03520000,12.13260000,Papendorf,Mecklenburg-Vorpommern,
18059,DE,53.99430000,12.03930000,Ziesendorf,Mecklenburg-Vorpommern,
18059,DE,54.01670000,12.10000000,Pölchow,Mecklenburg-Vorpommern,
18059,DE,54.06790000,12.11860000,Rostock,Mecklenburg-Vorpommern,
18209,DE,54.12260000,11.78750000,Wittenbeck,Mecklenburg-Vorpommern,
18209,DE,54.10470000,11.82190000,Steffenshagen,Mecklenburg-Vorpommern,
18209,DE,54.08870000,11.85060000,Reddelich,Mecklenburg-Vorpommern,
18209,DE,54.08120000,11.97850000,Bartenshagen-Parkentin,Mecklenburg-Vorpommern,
18209,DE,54.10710000,11.90050000,Bad Doberan,Mecklenburg-Vorpommern,
18246,DE,53.84830000,11.98260000,Bützow,Mecklenburg-Vorpommern,
18246,DE,53.83480000,12.04600000,Zepelin,Mecklenburg-Vorpommern,
18246,DE,53.93820000,11.96620000,Klein Belitz,Mecklenburg-Vorpommern,
18246,DE,53.81250000,11.87830000,Baumgarten,Mecklenburg-Vorpommern,
18246,DE,53.82100000,11.93990000,Rühn,Mecklenburg-Vorpommern,
18246,DE,53.84450000,11.92390000,Steinhagen,Mecklenburg-Vorpommern,
18246,DE,53.86110000,11.94490000,Neuendorf,Mecklenburg-Vorpommern,
18246,DE,53.95420000,11.89660000,Jürgenshagen,Mecklenburg-Vorpommern,
18258,DE,53.87860000,12.07190000,Kassow,Mecklenburg-Vorpommern,
18258,DE,53.97580000,12.10250000,Benitz,Mecklenburg-Vorpommern,
18258,DE,53.89890000,12.15480000,Rukieten,Mecklenburg-Vorpommern,
18258,DE,53.90780000,12.07070000,Vorbeck,Mecklenburg-Vorpommern,
18258,DE,53.94650000,12.15050000,Wiendorf,Mecklenburg-Vorpommern,
18258,DE,53.96410000,12.05160000,Bröbberow,Mecklenburg-Vorpommern,
18258,DE,53.94050000,12.10720000,Schwaan,Mecklenburg-Vorpommern,
18273,DE,53.79720000,12.17340000,Güstrow,Mecklenburg-Vorpommern,
18311,DE,54.24220000,12.45670000,Ribnitz-Damgarten,Mecklenburg-Vorpommern,
18435,DE,54.32720000,13.06420000,Stralsund,Mecklenburg-Vorpommern,
18516,DE,54.07620000,13.13330000,Süderholz,Mecklenburg-Vorpommern,
18528,DE,54.43750000,13.44800000,Sehlen,Mecklenburg-Vorpommern,
18528,DE,54.38870000,13.53950000,Zirkow,Mecklenburg-Vorpommern,
18528,DE,54.44970000,13.38990000,Thesenvitz,Mecklenburg-Vorpommern,
18528,DE,54.43790000,13.39870000,Parchtitz,Mecklenburg-Vorpommern,
18528,DE,54.41820000,13.43350000,Bergen auf Rügen,Mecklenburg-Vorpommern,
18528,DE,54.43000000,13.47120000,Buschvitz,Mecklenburg-Vorpommern,
18528,DE,54.50860000,13.38390000,Rappin,Mecklenburg-Vorpommern,
18528,DE,54.48170000,13.50720000,Lietzow,Mecklenburg-Vorpommern,
18528,DE,54.46480000,13.39560000,Patzig,Mecklenburg-Vorpommern,
18528,DE,54.47190000,13.44850000,Ralswiek,Mecklenburg-Vorpommern,
19055,DE,53.64410000,11.41030000,Schwerin,Mecklenburg-Vorpommern,
19067,DE,53.72920000,11.50360000,Retgendorf,Mecklenburg-Vorpommern,
19067,DE,53.66260000,11.49870000,Leezen,Mecklenburg-Vorpommern,
19067,DE,53.69720000,11.52710000,Cambs,Mecklenburg-Vorpommern,
19067,DE,53.65810000,11.54690000,Langen Brütz,Mecklenburg-Vorpommern,
19067,DE,53.75670000,11.57140000,Rubow,Mecklenburg-Vorpommern,
19089,DE,53.57320000,11.65190000,Crivitz,Mecklenburg-Vorpommern,
19089,DE,53.59220000,11.76810000,Bülow,Mecklenburg-Vorpommern,
19089,DE,53.59580000,11.69640000,Barnin,Mecklenburg-Vorpommern,
19089,DE,53.55350000,11.66560000,Zapel,Mecklenburg-Vorpommern,
19089,DE,53.57190000,11.73140000,Wessin,Mecklenburg-Vorpommern,
19089,DE,53.53130000,11.70730000,Ruthenbeck,Mecklenburg-Vorpommern,
19089,DE,53.62970000,11.76640000,Demen,Mecklenburg-Vorpommern,
19089,DE,53.61170000,11.60800000,Gädebehn,Mecklenburg-Vorpommern,
19089,DE,53.53520000,11.61060000,Göhren,Mecklenburg-Vorpommern,
19089,DE,53.52250000,11.64790000,Tramm,Mecklenburg-Vorpommern,
19258,DE,53.40310000,10.82200000,Wiebendorf,Mecklenburg-Vorpommern,
19258,DE,53.38010000,10.78820000,Neu Gülze,Mecklenburg-Vorpommern,
19258,DE,53.47710000,10.79930000,Greven,Mecklenburg-Vorpommern,
19258,DE,53.34300000,10.85910000,Besitz,Mecklenburg-Vorpommern,
19258,DE,53.41770000,10.84870000,Klein Bengerstorf,Mecklenburg-Vorpommern,
19258,DE,53.38150000,10.72380000,Boizenburg,Mecklenburg-Vorpommern,
19258,DE,53.49350000,10.83320000,Gallin,Mecklenburg-Vorpommern,
19258,DE,53.40660000,10.65410000,Nostorf,Mecklenburg-Vorpommern,
19258,DE,53.40000000,10.85000000,Tessin bei Boizenburg,Mecklenburg-Vorpommern,
19258,DE,53.42920000,10.68300000,Schwanheide,Mecklenburg-Vorpommern,
19258,DE,53.42910000,10.74600000,Gresse,Mecklenburg-Vorpommern,
19288,DE,53.31840000,11.30800000,Alt Krenzlin,Mecklenburg-Vorpommern,
19288,DE,53.32920000,11.49710000,Ludwigslust,Mecklenburg-Vorpommern,
19288,DE,53.27800000,11.28840000,Leussow,Mecklenburg-Vorpommern,
19288,DE,53.30640000,11.36700000,Göhlen,Mecklenburg-Vorpommern,
19288,DE,53.27760000,11.36700000,Glaisin,Mecklenburg-Vorpommern,
19288,DE,53.34490000,11.40500000,Warlow,Mecklenburg-Vorpommern,
19288,DE,53.44470000,11.48140000,Fahrbinde,Mecklenburg-Vorpommern,
19288,DE,53.40260000,11.50150000,Wöbbelin,Mecklenburg-Vorpommern,
19288,DE,53.41550000,11.45100000,Lüblow,Mecklenburg-Vorpommern,
19288,DE,53.32960000,11.38630000,Kummer,Mecklenburg-Vorpommern,
19288,DE,53.34650000,11.54920000,Groß Laasch,Mecklenburg-Vorpommern,
19348,DE,53.18890000,11.92780000,Gülitz-Reetz,Brandenburg,
19348,DE,53.09700000,12.00390000,Klein Gottschow,Brandenburg,
19348,DE,53.10890000,11.72260000,Nebelin,Brandenburg,
19348,DE,53.05970000,12.01910000,Krampfer,Brandenburg,
19348,DE,53.21670000,11.90000000,Pirow,Brandenburg,
19348,DE,53.14820000,12.01140000,Wolfshagen,Brandenburg,
19348,DE,53.11410000,11.99480000,Retzin,Brandenburg,
19348,DE,53.16330000,11.91640000,Baek,Brandenburg,
19348,DE,53.07580000,11.85740000,Perleberg,Brandenburg,
19348,DE,53.23330000,11.86670000,Berge,Brandenburg,
19348,DE,53.05250000,11.95800000,Kleinow,Brandenburg,
19370,DE,53.42630000,11.84880000,Parchim,Mecklenburg-Vorpommern,
19395,DE,53.38290000,12.24880000,Ganzlin,Mecklenburg-Vorpommern,
19395,DE,53.36940000,12.19530000,Retzow,Mecklenburg-Vorpommern,
19395,DE,53.49690000,12.20940000,Plauerhagen,Mecklenburg-Vorpommern,
19395,DE,53.53770000,12.25780000,Karow,Mecklenburg-Vorpommern,
19395,DE,53.33940000,12.27180000,Wendisch Priborn,Mecklenburg-Vorpommern,
19395,DE,53.40390000,12.21510000,Gnevsdorf,Mecklenburg-Vorpommern,
19395,DE,53.45820000,12.26250000,Plau am See,Mecklenburg-Vorpommern,
19395,DE,53.46550000,12.17920000,Barkow,Mecklenburg-Vorpommern,
20246,DE,53.59051939,9.97618842,Hamburg,,
20251,DE,53.61080000,10.01310000,Hamburg Alsterdorf,Hamburg,
20251,DE,53.58920000,9.98140000,Hamburg Eppendorf,Hamburg,
20251,DE,53.58280000,9.98080000,Hamburg Hoheluft-Ost,Hamburg,
20251,DE,53.58300000,9.98130000,Hamburg,Hamburg,
20259,DE,53.57250000,9.94970000,Hamburg Eimsbüttel,Hamburg,
20259,DE,53.57110000,9.95340000,Hamburg,Hamburg,
20357,DE,53.57250000,9.94970000,Hamburg Eimsbüttel,Hamburg,
20357,DE,53.55030000,9.93530000,Hamburg Altona-Altstadt,Hamburg,
20357,DE,53.56420000,9.96790000,Hamburg,Hamburg,
20357,DE,53.56140000,9.94470000,Hamburg Altona-Nord,Hamburg,
20357,DE,53.56940000,9.98530000,Hamburg Rotherbaum,Hamburg,
20357,DE,53.55110000,9.97000000,Hamburg Sankt Pauli,Hamburg,
20459,DE,53.55020000,9.98410000,Hamburg,Hamburg,
20459,DE,53.55110000,9.97000000,Hamburg Sankt Pauli,Hamburg,
20459,DE,53.54530000,9.99530000,Hamburg Hamburg-Altstadt,Hamburg,
20459,DE,53.54970000,9.97940000,Hamburg Neustadt,Hamburg,
21029,DE,53.43060000,10.26780000,Hamburg Altengamme,Hamburg,
21029,DE,53.45330000,10.23530000,Hamburg Curslack,Hamburg,
21029,DE,53.48260000,10.22110000,Hamburg,Hamburg,
21029,DE,53.48580000,10.22670000,Hamburg Bergedorf,Hamburg,
21031,DE,53.50570000,10.20420000,Hamburg,Hamburg,
21031,DE,53.50890000,10.19830000,Hamburg Lohbrügge,Hamburg,
21031,DE,53.48580000,10.22670000,Hamburg Bergedorf,Hamburg,
21033,DE,53.50690000,10.12560000,Hamburg Billwerder,Hamburg,
21033,DE,53.50530000,10.15180000,Hamburg,Hamburg,
21033,DE,53.50890000,10.19830000,Hamburg Lohbrügge,Hamburg,
21033,DE,53.48580000,10.22670000,Hamburg Bergedorf,Hamburg,
21075,DE,53.47030000,9.89330000,Hamburg Hausbruch,Hamburg,
21075,DE,53.46500000,9.95860000,Hamburg Heimfeld,Hamburg,
21075,DE,53.45700000,9.93010000,Hamburg,Hamburg,
21075,DE,53.45920000,9.98060000,Hamburg Harburg,Hamburg,
21075,DE,53.45140000,9.93500000,Hamburg Eißendorf,Hamburg,
21107,DE,53.53920000,9.96140000,Hamburg Steinwerder,Hamburg,
21107,DE,53.49780000,10.01890000,Hamburg Wilhelmsburg,Hamburg,
21107,DE,53.51000000,9.97840000,Hamburg,Hamburg,
21224,DE,53.40650000,9.92560000,Rosengarten,Niedersachsen,
21244,DE,53.32640000,9.86810000,Buchholz in der Nordheide,Niedersachsen,
21266,DE,53.30970000,9.95260000,Jesteburg,Niedersachsen,
21335,DE,53.23290000,10.40780000,Lüneburg,Niedersachsen,
21339,DE,53.26040000,10.39680000,Lüneburg,Niedersachsen,
21423,DE,53.41670000,10.26670000,Drage,Niedersachsen,
21423,DE,53.34840000,10.20680000,Winsen (Luhe),Niedersachsen,
21465,DE,53.51700000,10.24880000,Reinbek,Schleswig-Holstein,
21465,DE,53.50000000,10.25000000,Wentorf bei Hamburg,Schleswig-Holstein,
21502,DE,53.43330000,10.45000000,Wiershop,Schleswig-Holstein,
21502,DE,53.43580000,10.37790000,Geesthacht,Schleswig-Holstein,
21502,DE,53.45000000,10.41670000,Hamwarde,Schleswig-Holstein,
21502,DE,53.46670000,10.41670000,Worth,Schleswig-Holstein,
21614,DE,53.46720000,9.68640000,Buxtehude,Niedersachsen,
21680,DE,53.59080000,9.48480000,Stade,Niedersachsen,
21682,DE,53.60840000,9.46880000,Stade,Niedersachsen,
21762,DE,53.77810000,8.94120000,Osterbruch,Niedersachsen,
21762,DE,53.80910000,8.90070000,Otterndorf,Niedersachsen,
22049,DE,53.58250000,10.06250000,Hamburg Dulsberg,Hamburg,
22049,DE,53.57940000,10.08640000,Hamburg Wandsbek,Hamburg,
22049,DE,53.58080000,10.05940000,Hamburg,Hamburg,
22087,DE,53.56610000,10.04750000,Hamburg Eilbek,Hamburg,
22087,DE,53.56600000,10.02470000,Hamburg,Hamburg,
22087,DE,53.57140000,10.01890000,Hamburg Uhlenhorst,Hamburg,
22087,DE,53.56280000,10.02640000,Hamburg Hohenfelde,Hamburg,
22087,DE,53.56030000,10.05110000,Hamburg Hamm-Nord,Hamburg,
22115,DE,53.52810000,10.14730000,Hamburg,Hamburg,
22115,DE,53.54110000,10.12420000,Hamburg Billstedt,Hamburg,
22115,DE,53.50890000,10.19830000,Hamburg Lohbrügge,Hamburg,
22149,DE,53.58690000,10.11750000,Hamburg Tonndorf,Hamburg,
22149,DE,53.60720000,10.16060000,Hamburg Rahlstedt,Hamburg,
22149,DE,53.58930000,10.16910000,Hamburg,Hamburg,
22297,DE,53.61080000,10.01310000,Hamburg Alsterdorf,Hamburg,
22297,DE,53.60860000,9.98690000,Hamburg Groß Borstel,Hamburg,
22297,DE,53.60230000,10.02520000,Hamburg,Hamburg,
22297,DE,53.59610000,10.05110000,Hamburg Barmbek-Nord,Hamburg,
22297,DE,53.59530000,10.01220000,Hamburg Winterhude,Hamburg,
22337,DE,53.62190000,10.04110000,Hamburg Ohlsdorf,Hamburg,
22337,DE,53.62830000,10.03470000,Hamburg,Hamburg,
22337,DE,53.61080000,10.01310000,Hamburg Alsterdorf,Hamburg,
22359,DE,53.66720000,10.13060000,Hamburg Bergstedt,Hamburg,
22359,DE,53.60720000,10.16060000,Hamburg Rahlstedt,Hamburg,
22359,DE,53.64970000,10.18420000,Hamburg Volksdorf,Hamburg,
22359,DE,53.65560000,10.16560000,Hamburg,Hamburg,
22403,DE,0.00000000,0.00000000,Schwedt/Oder,Brandenburg,
22417,DE,53.66330000,10.00830000,Hamburg Langenhorn,Hamburg,
22417,DE,53.66710000,10.03450000,Hamburg,Hamburg,
22417,DE,53.65390000,10.04860000,Hamburg Hummelsbüttel,Hamburg,
22419,DE,53.66330000,10.00830000,Hamburg Langenhorn,Hamburg,
22419,DE,53.66630000,10.00570000,Hamburg,Hamburg,
22457,DE,53.60500000,9.91610000,Hamburg Eidelstedt,Hamburg,
22457,DE,53.63640000,9.93060000,Hamburg Schnelsen,Hamburg,
22457,DE,53.61860000,9.96110000,Hamburg Niendorf,Hamburg,
22457,DE,53.63820000,9.91210000,Hamburg,Hamburg,
22459,DE,53.63640000,9.93060000,Hamburg Schnelsen,Hamburg,
22459,DE,53.61860000,9.96110000,Hamburg Niendorf,Hamburg,
22459,DE,53.62420000,9.92350000,Hamburg,Hamburg,
22559,DE,53.58470000,9.75640000,Hamburg Rissen,Hamburg,
22559,DE,53.59310000,9.76510000,Hamburg,Hamburg,
22587,DE,53.55000000,9.86310000,Hamburg Nienstedten,Hamburg,
22587,DE,53.58560000,9.79890000,Hamburg Sülldorf,Hamburg,
22587,DE,53.55750000,9.80310000,Hamburg Blankenese,Hamburg,
22587,DE,53.58470000,9.75640000,Hamburg Rissen,Hamburg,
22587,DE,53.57360000,9.85220000,Hamburg Osdorf,Hamburg,
22587,DE,53.56520000,9.80000000,Hamburg,Hamburg,
22609,DE,53.57360000,9.85220000,Hamburg Osdorf,Hamburg,
22609,DE,53.55500000,9.88810000,Hamburg Othmarschen,Hamburg,
22609,DE,53.55000000,9.86310000,Hamburg Nienstedten,Hamburg,
22609,DE,53.56580000,9.87940000,Hamburg Groß Flottbek,Hamburg,
22609,DE,53.57010000,9.86540000,Hamburg,Hamburg,
22763,DE,53.55500000,9.91810000,Hamburg Ottensen,Hamburg,
22763,DE,53.55200000,9.90840000,Hamburg,Hamburg,
22763,DE,53.55500000,9.88810000,Hamburg Othmarschen,Hamburg,
22767,DE,53.55030000,9.93530000,Hamburg Altona-Altstadt,Hamburg,
22767,DE,53.55110000,9.97000000,Hamburg Sankt Pauli,Hamburg,
22767,DE,53.55090000,9.94250000,Hamburg,Hamburg,
22767,DE,53.55500000,9.91810000,Hamburg Ottensen,Hamburg,
22846,DE,53.70990000,9.99460000,Norderstedt,Schleswig-Holstein,
22880,DE,53.58370000,9.69840000,Wedel,Schleswig-Holstein,
22927,DE,53.66670000,10.28330000,Großhansdorf,Schleswig-Holstein,
23552,DE,53.86850000,10.68540000,Lübeck,Schleswig-Holstein,
23554,DE,53.87600000,10.67480000,Lübeck,Schleswig-Holstein,
23560,DE,53.84710000,10.68450000,Lübeck,Schleswig-Holstein,
23562,DE,53.85110000,10.70280000,Lübeck,Schleswig-Holstein,
23568,DE,53.89220000,10.75830000,Lübeck,Schleswig-Holstein,
23570,DE,53.86670000,10.70000000,Lübeck,Schleswig-Holstein,
23611,DE,53.91890000,10.69690000,Bad Schwartau,Schleswig-Holstein,
23701,DE,54.08140000,10.70170000,Süsel,Schleswig-Holstein,
23701,DE,54.12150000,10.64680000,Eutin,Schleswig-Holstein,
23714,DE,54.20000000,10.68330000,Kirchnüchel,Schleswig-Holstein,
23714,DE,54.17230000,10.55970000,Malente,Schleswig-Holstein,
23730,DE,54.06670000,10.76670000,Sierksdorf,Schleswig-Holstein,
23730,DE,54.13330000,10.88330000,Schashagen,Schleswig-Holstein,
23730,DE,54.10710000,10.81450000,Neustadt in Holstein,Schleswig-Holstein,
23730,DE,54.13330000,10.83330000,Altenkrempe,Schleswig-Holstein,
23758,DE,54.29580000,10.90160000,Oldenburg in Holstein,Schleswig-Holstein,
23758,DE,54.28330000,10.95000000,Göhl,Schleswig-Holstein,
23758,DE,54.26670000,10.76670000,Wangels,Schleswig-Holstein,
23758,DE,54.33330000,10.93330000,Gremersdorf,Schleswig-Holstein,
23769,DE,54.43780000,11.19350000,Fehmarn,Schleswig-Holstein,
23774,DE,54.36960000,10.98020000,Heiligenhafen,Schleswig-Holstein,
23795,DE,53.94360000,10.39090000,Schieren,Schleswig-Holstein,
23795,DE,53.96670000,10.31670000,Groß Rönnau,Schleswig-Holstein,
23795,DE,53.91670000,10.28330000,Högersdorf,Schleswig-Holstein,
23795,DE,53.95000000,10.33330000,Stipsdorf,Schleswig-Holstein,
23795,DE,53.98330000,10.25000000,Negernbötel,Schleswig-Holstein,
23795,DE,53.96670000,10.31670000,Klein Rönnau,Schleswig-Holstein,
23795,DE,53.95000000,10.25000000,Fahrenkrug,Schleswig-Holstein,
23795,DE,53.94310000,10.30220000,Bad Segeberg,Schleswig-Holstein,
23795,DE,53.91670000,10.31670000,Klein Gladebrügge,Schleswig-Holstein,
23795,DE,53.94460000,10.31110000,Schackendorf,Schleswig-Holstein,
23795,DE,53.90000000,10.30000000,Schwissel,Schleswig-Holstein,
23795,DE,53.90000000,10.31670000,Traventhal,Schleswig-Holstein,
23795,DE,53.91670000,10.25000000,Mözen,Schleswig-Holstein,
23795,DE,53.92280000,10.37080000,Weede,Schleswig-Holstein,
23843,DE,53.78330000,10.28330000,Neritz,Schleswig-Holstein,
23843,DE,53.78330000,10.35000000,Rümpel,Schleswig-Holstein,
23843,DE,53.81170000,10.37420000,Bad Oldesloe,Schleswig-Holstein,
23843,DE,53.85000000,10.33330000,Travenbrück,Schleswig-Holstein,
23845,DE,53.88330000,10.35000000,Dreggers,Schleswig-Holstein,
23845,DE,53.83330000,10.15000000,Oering,Schleswig-Holstein,
23845,DE,53.88330000,10.38330000,Bahrenhof,Schleswig-Holstein,
23845,DE,53.84720000,10.17420000,Seth,Schleswig-Holstein,
23845,DE,53.86670000,10.36670000,Wakendorf I,Schleswig-Holstein,
23845,DE,53.88330000,10.38330000,Bühnsdorf,Schleswig-Holstein,
23845,DE,53.80800000,10.15800000,Itzstedt,Schleswig-Holstein,
23845,DE,53.80000000,10.28330000,Grabau,Schleswig-Holstein,
23863,DE,53.76780000,10.18750000,Bargfeld-Stegen,Schleswig-Holstein,
23863,DE,53.75630000,10.13230000,Kayhude,Schleswig-Holstein,
23863,DE,53.78690000,10.19440000,Nienwohld,Schleswig-Holstein,
23879,DE,53.61700000,10.68740000,Mölln,Schleswig-Holstein,
23909,DE,53.71670000,10.76670000,Römnitz,Schleswig-Holstein,
23909,DE,53.71670000,10.78330000,Bäk,Schleswig-Holstein,
23909,DE,53.69960000,10.77260000,Ratzeburg,Schleswig-Holstein,
23909,DE,53.66670000,10.71670000,Fredeburg,Schleswig-Holstein,
23909,DE,53.68330000,10.70000000,Giesensdorf,Schleswig-Holstein,
23909,DE,53.71670000,10.80000000,Mechow,Schleswig-Holstein,
23909,DE,53.68330000,10.70000000,Albsfelde,Schleswig-Holstein,
23936,DE,53.91380000,11.06630000,Roggenstorf,Mecklenburg-Vorpommern,
23936,DE,53.83570000,11.26860000,Plüschow,Mecklenburg-Vorpommern,
23936,DE,53.79420000,11.22100000,Rüting,Mecklenburg-Vorpommern,
23936,DE,53.88180000,11.07590000,Mallentin,Mecklenburg-Vorpommern,
23936,DE,53.84220000,11.04700000,Grieben,Mecklenburg-Vorpommern,
23936,DE,53.82910000,11.11660000,Bernstorf,Mecklenburg-Vorpommern,
23936,DE,53.82040000,11.21620000,Upahl,Mecklenburg-Vorpommern,
23936,DE,53.77680000,11.26950000,Testorf-Steinfort,Mecklenburg-Vorpommern,
23936,DE,53.86340000,11.19160000,Grevesmühlen,Mecklenburg-Vorpommern,
23936,DE,53.88770000,11.21090000,Warnow,Mecklenburg-Vorpommern,
23936,DE,53.80630000,11.14760000,Hanshagen,Mecklenburg-Vorpommern,
23936,DE,53.85880000,11.04920000,Papenhusen,Mecklenburg-Vorpommern,
23936,DE,53.85980000,11.12640000,Börzow,Mecklenburg-Vorpommern,
23966,DE,53.89200000,11.46360000,Wismar,Mecklenburg-Vorpommern,
24103,DE,54.32050000,10.13270000,Kiel,Schleswig-Holstein,
24105,DE,54.33470000,10.13480000,Kiel,Schleswig-Holstein,
24106,DE,54.35060000,10.12050000,Kiel,Schleswig-Holstein,
24113,DE,54.26670000,10.06670000,Molfsee,Schleswig-Holstein,
24113,DE,54.30100000,10.11600000,Kiel,Schleswig-Holstein,
24116,DE,54.32530000,10.12120000,Kiel,Schleswig-Holstein,
24119,DE,54.33330000,10.08330000,Kronshagen,Schleswig-Holstein,
24147,DE,54.30900000,10.21370000,Klausdorf,Schleswig-Holstein,
24147,DE,54.33330000,10.13330000,Kiel,Schleswig-Holstein,
24149,DE,54.33330000,10.13330000,Kiel,Schleswig-Holstein,
24211,DE,54.19880000,10.25960000,Kühren,Schleswig-Holstein,
24211,DE,54.20000000,10.31670000,Wahlstorf,Schleswig-Holstein,
24211,DE,54.23330000,10.36670000,Lehmkuhlen,Schleswig-Holstein,
24211,DE,54.23540000,10.27800000,Preetz,Schleswig-Holstein,
24211,DE,54.22950000,10.29400000,Schellhorn,Schleswig-Holstein,
24211,DE,54.26670000,10.28330000,Rastorf,Schleswig-Holstein,
24211,DE,54.23330000,10.18330000,Honigsee,Schleswig-Holstein,
24211,DE,54.23960000,10.24900000,Pohnsdorf,Schleswig-Holstein,
24211,DE,54.21040000,10.21280000,Postfeld,Schleswig-Holstein,
24223,DE,54.28130000,10.24910000,Raisdorf,Schleswig-Holstein,
24306,DE,54.15000000,10.48330000,Bösdorf,Schleswig-Holstein,
24306,DE,54.16240000,10.42330000,Plön,Schleswig-Holstein,
24306,DE,54.21670000,10.41670000,Lebrade,Schleswig-Holstein,
24306,DE,54.18330000,10.43330000,Rathjensdorf,Schleswig-Holstein,
24306,DE,54.16670000,10.36670000,Wittmoldt,Schleswig-Holstein,
24340,DE,54.46670000,9.81670000,Windeby,Schleswig-Holstein,
24340,DE,54.50000000,9.80000000,Gammelby,Schleswig-Holstein,
24340,DE,54.46850000,9.83820000,Eckernförde,Schleswig-Holstein,
24340,DE,54.43330000,9.81670000,Goosefeld,Schleswig-Holstein,
24340,DE,54.43330000,9.86670000,Altenhof,Schleswig-Holstein,
24351,DE,54.58240000,9.93590000,Damp,Schleswig-Holstein,
24351,DE,54.58330000,9.91670000,Thumby,Schleswig-Holstein,
24376,DE,54.71670000,9.98330000,Hasselberg,Schleswig-Holstein,
24376,DE,54.70000000,9.95000000,Rabel,Schleswig-Holstein,
24376,DE,54.63330000,9.91670000,Grödersby,Schleswig-Holstein,
24376,DE,54.63330000,9.91670000,Arnis,Schleswig-Holstein,
24376,DE,54.66120000,9.93130000,Kappeln,Schleswig-Holstein,
24534,DE,54.07250000,9.98280000,Neumünster,Schleswig-Holstein,
24536,DE,54.10000000,10.03330000,Tasdorf,Schleswig-Holstein,
24536,DE,54.10770000,9.99460000,Neumünster,Schleswig-Holstein,
24537,DE,54.08930000,9.97790000,Neumünster,Schleswig-Holstein,
24558,DE,53.78330000,10.08330000,Wakendorf II,Schleswig-Holstein,
24558,DE,53.80500000,9.97450000,Henstedt-Ulzburg,Schleswig-Holstein,
24576,DE,53.93330000,9.95000000,Bimöhlen,Schleswig-Holstein,
24576,DE,53.91830000,9.88420000,Bad Bramstedt,Schleswig-Holstein,
24576,DE,53.89020000,9.78770000,Mönkloh,Schleswig-Holstein,
24576,DE,53.90000000,9.83330000,Weddelbrook,Schleswig-Holstein,
24576,DE,53.94650000,9.82660000,Hagen,Schleswig-Holstein,
24576,DE,53.92400000,9.85260000,Hitzhusen,Schleswig-Holstein,
24635,DE,54.01670000,10.16670000,Rickling,Schleswig-Holstein,
24635,DE,54.01670000,10.25000000,Daldorf,Schleswig-Holstein,
24768,DE,54.30660000,9.66310000,Rendsburg,Schleswig-Holstein,
24837,DE,54.52160000,9.55860000,Schleswig,Schleswig-Holstein,
24848,DE,54.41670000,9.51670000,Kropp,Schleswig-Holstein,
24848,DE,54.45000000,9.48330000,Klein Rheide,Schleswig-Holstein,
24848,DE,54.38330000,9.43330000,Alt Bennebek,Schleswig-Holstein,
24848,DE,54.40000000,9.45000000,Klein Bennebek,Schleswig-Holstein,
24937,DE,54.78620000,9.43060000,Flensburg,Schleswig-Holstein,
24939,DE,54.79830000,9.42060000,Flensburg,Schleswig-Holstein,
25335,DE,53.75670000,9.64260000,Elmshorn,Schleswig-Holstein,
25335,DE,53.78810000,9.73590000,Bokholt-Hanredder,Schleswig-Holstein,
25335,DE,53.76670000,9.56670000,Altenmoor,Schleswig-Holstein,
25335,DE,53.73330000,9.56670000,Neuendorf bei Elmshorn,Schleswig-Holstein,
25335,DE,53.74840000,9.59450000,Raa-Besenbek,Schleswig-Holstein,
25337,DE,53.74130000,9.73000000,Seeth-Ekholt,Schleswig-Holstein,
25337,DE,53.75750000,9.69770000,Kölln-Reisiek,Schleswig-Holstein,
25337,DE,53.74940000,9.68500000,Elmshorn,Schleswig-Holstein,
25421,DE,53.65910000,9.80090000,Pinneberg,Schleswig-Holstein,
25524,DE,53.90570000,9.57040000,Breitenburg,Schleswig-Holstein,
25524,DE,53.92020000,9.59410000,Kollmoor,Schleswig-Holstein,
25524,DE,53.89960000,9.46810000,Heiligenstedtenerkamp,Schleswig-Holstein,
25524,DE,53.92740000,9.56380000,Oelixdorf,Schleswig-Holstein,
25524,DE,53.92100000,9.51530000,Itzehoe,Schleswig-Holstein,
25524,DE,53.93260000,9.47460000,Heiligenstedten,Schleswig-Holstein,
25524,DE,53.92500000,9.44630000,Bekmünde,Schleswig-Holstein,
25541,DE,53.89500000,9.10480000,Brunsbüttel,Schleswig-Holstein,
25746,DE,54.21630000,9.12540000,Ostrohe,Schleswig-Holstein,
25746,DE,54.19580000,9.09880000,Heide,Schleswig-Holstein,
25746,DE,54.20000000,9.01670000,Norderwöhrden,Schleswig-Holstein,
25746,DE,54.20990000,9.07640000,Wesseln,Schleswig-Holstein,
25746,DE,54.18800000,9.07070000,Lohe-Rickelshof,Schleswig-Holstein,
25813,DE,54.41670000,9.08330000,Südermarsch,Schleswig-Holstein,
25813,DE,54.43350000,8.97690000,Simonsberg,Schleswig-Holstein,
25813,DE,54.48580000,9.05240000,Husum,Schleswig-Holstein,
25813,DE,54.49480000,9.13500000,Schwesing,Schleswig-Holstein,
25821,DE,54.61870000,8.96440000,Bredstedt,Schleswig-Holstein,
25821,DE,54.60000000,8.98330000,Breklum,Schleswig-Holstein,
25821,DE,54.60230000,8.90270000,Reußenköge,Schleswig-Holstein,
25821,DE,54.63330000,9.00000000,Sönnebüll,Schleswig-Holstein,
25821,DE,54.58330000,9.01670000,Almdorf,Schleswig-Holstein,
25821,DE,54.58330000,9.00000000,Struckum,Schleswig-Holstein,
25821,DE,54.61670000,9.03330000,Vollstedt,Schleswig-Holstein,
25899,DE,54.81670000,8.86670000,Bosbüll,Schleswig-Holstein,
25899,DE,54.75000000,8.75000000,Galmsbüll,Schleswig-Holstein,
25899,DE,54.72930000,8.70080000,Dagebüll,Schleswig-Holstein,
25899,DE,54.80340000,8.89570000,Klixbüll,Schleswig-Holstein,
25899,DE,54.78660000,8.82850000,Niebüll,Schleswig-Holstein,
25938,DE,54.71510000,8.52160000,Midlum,Schleswig-Holstein,
25938,DE,54.69950000,8.44060000,Witsum,Schleswig-Holstein,
25938,DE,54.69140000,8.56700000,Wyk auf Föhr,Schleswig-Holstein,
25938,DE,54.73330000,8.38330000,Dunsum,Schleswig-Holstein,
25938,DE,54.71430000,8.40610000,Utersum,Schleswig-Holstein,
25938,DE,54.71020000,8.53170000,Oevenum,Schleswig-Holstein,
25938,DE,54.70060000,8.45740000,Borgsum,Schleswig-Holstein,
25938,DE,54.73110000,8.44470000,Oldsum,Schleswig-Holstein,
25938,DE,54.69190000,8.49090000,Nieblum,Schleswig-Holstein,
25938,DE,54.69990000,8.54860000,Wrixum,Schleswig-Holstein,
25938,DE,54.70800000,8.50930000,Alkersum,Schleswig-Holstein,
25938,DE,54.72610000,8.43850000,Süderende,Schleswig-Holstein,
25980,DE,54.86110000,8.41140000,Sylt-Ost,Schleswig-Holstein,
25980,DE,54.84570000,8.29330000,Rantum,Schleswig-Holstein,
25980,DE,54.90790000,8.30330000,Westerland,Schleswig-Holstein,
26121,DE,53.15990000,8.20500000,Oldenburg,Niedersachsen,
26122,DE,53.14070000,8.21710000,Oldenburg,Niedersachsen,
26133,DE,53.11560000,8.21590000,Oldenburg,Niedersachsen,
26160,DE,53.17170000,8.04140000,Bad Zwischenahn,Niedersachsen,
26169,DE,53.02260000,7.85760000,Friesoythe,Niedersachsen,
26316,DE,53.39690000,8.13620000,Varel,Niedersachsen,
26316,DE,53.40020000,8.08930000,Varel Winkelsheide,Niedersachsen,
26316,DE,53.40020000,8.11340000,Varel Langendamm,Niedersachsen,
26316,DE,53.42270000,8.13220000,Varel Moorhausen,Niedersachsen,
26316,DE,53.36920000,8.14060000,Varel Büppel,Niedersachsen,
26316,DE,53.39480000,8.09190000,Varel Borgstede,Niedersachsen,
26316,DE,53.40830000,8.06520000,Varel Jeringhave,Niedersachsen,
26316,DE,53.34090000,8.12040000,Varel Rosenberg,Niedersachsen,
26316,DE,53.35170000,8.13310000,Varel Neuenwege,Niedersachsen,
26316,DE,53.38670000,8.05670000,Varel Seghorn,Niedersachsen,
26316,DE,53.39170000,8.16980000,Varel Hohenberge,Niedersachsen,
26316,DE,53.35700000,8.08370000,Varel Altjührden,Niedersachsen,
26316,DE,53.37860000,8.16080000,Varel Jethausen,Niedersachsen,
26316,DE,53.38760000,8.15480000,Varel Streek,Niedersachsen,
26316,DE,53.41370000,8.11940000,Varel Rallenbüschen,Niedersachsen,
26316,DE,53.44600000,8.11940000,Varel Dangast,Niedersachsen,
26316,DE,53.41370000,8.10290000,Varel Dangastermoor,Niedersachsen,
26316,DE,53.36510000,8.17210000,Varel Hohelucht,Niedersachsen,
26316,DE,53.37280000,8.10160000,Varel Obenstrohe,Niedersachsen,
26316,DE,53.34800000,8.04920000,Varel Grünenkamp,Niedersachsen,
26316,DE,53.34680000,8.14420000,Varel Varel,Niedersachsen,
26316,DE,53.35300000,8.16160000,Varel Neudorf,Niedersachsen,
26389,DE,53.52410000,8.08670000,Wilhelmshaven,Niedersachsen,
26409,DE,53.63080000,7.78360000,Wittmund Funnix,Niedersachsen,
26409,DE,53.69120000,7.80100000,Wittmund Carolinensiel,Niedersachsen,
26409,DE,53.57670000,7.77840000,Wittmund,Niedersachsen,
26409,DE,53.55760000,7.69150000,Wittmund Wittmund,Niedersachsen,
26409,DE,53.62900000,7.80630000,Wittmund Berdum,Niedersachsen,
26409,DE,53.53320000,7.72880000,Wittmund Hovel,Niedersachsen,
26409,DE,53.59700000,7.74380000,Wittmund Blersum,Niedersachsen,
26409,DE,53.53500000,7.69050000,Wittmund Ardorf,Niedersachsen,
26409,DE,53.58940000,7.77380000,Wittmund Uttel,Niedersachsen,
26409,DE,53.62140000,7.72620000,Wittmund Buttforde,Niedersachsen,
26409,DE,53.57640000,7.82110000,Wittmund Asel,Niedersachsen,
26409,DE,53.52830000,7.77910000,Wittmund Leerhafe,Niedersachsen,
26409,DE,53.56020000,7.73180000,Wittmund Willen,Niedersachsen,
26409,DE,53.60600000,7.83500000,Wittmund Eggelingen,Niedersachsen,
26409,DE,53.59880000,7.70730000,Wittmund Burhafe,Niedersachsen,
26452,DE,53.50490000,8.01420000,Sande,Niedersachsen,
26452,DE,53.49910000,7.96520000,Sande Dykhausen,Niedersachsen,
26452,DE,53.51170000,8.05170000,Sande Mariensiel,Niedersachsen,
26452,DE,53.50800000,8.01630000,Sande Sanderbusch,Niedersachsen,
26452,DE,53.47790000,7.98630000,Sande Neustadtgödens,Niedersachsen,
26452,DE,53.48470000,8.05020000,Sande Cäciliengroden,Niedersachsen,
26452,DE,53.48520000,8.02710000,Sande Sande,Niedersachsen,
26506,DE,53.59340000,7.22290000,Norden Bargebur,Niedersachsen,
26506,DE,53.59550000,7.20640000,Norden,Niedersachsen,
26506,DE,53.59520000,7.23190000,Norden Tidofeld,Niedersachsen,
26506,DE,53.59150000,7.21270000,Norden Norden,Niedersachsen,
26506,DE,53.59070000,7.13150000,Norden Westermarsch II,Niedersachsen,
26506,DE,53.64260000,7.22610000,Norden Ostermarsch,Niedersachsen,
26506,DE,53.61720000,7.16110000,Norden Norddeich,Niedersachsen,
26506,DE,53.55860000,7.25000000,Norden Süderneuland II,Niedersachsen,
26506,DE,53.58070000,7.21530000,Norden Süderneuland I,Niedersachsen,
26506,DE,53.56990000,7.13750000,Norden Westermarsch I,Niedersachsen,
26506,DE,53.51470000,7.14430000,Norden Leybuchtpolder,Niedersachsen,
26506,DE,53.54180000,7.16620000,Norden Neuwesteel,Niedersachsen,
26548,DE,53.70830000,7.15820000,Norderney,Niedersachsen,
26603,DE,53.47190000,7.47750000,Aurich,Niedersachsen,
26655,DE,53.25680000,7.92740000,Westerstede,Niedersachsen,
26721,DE,53.37010000,7.20310000,Emden,Niedersachsen,
26757,DE,53.58090000,6.69150000,Borkum,Niedersachsen,
26789,DE,53.23480000,7.47520000,Leer (Ostfriesland),Niedersachsen,
26826,DE,53.16330000,7.35050000,Weener,Niedersachsen,
26871,DE,53.07740000,7.40440000,Papenburg,Niedersachsen,
26919,DE,53.32520000,8.46500000,Brake,Niedersachsen,
26954,DE,53.48610000,8.48090000,Nordenham,Niedersachsen,
27211,DE,52.85060000,8.72790000,Bassum,Niedersachsen,
27232,DE,52.68370000,8.80950000,Sulingen,Niedersachsen,
27283,DE,52.92080000,9.24800000,Verden (Aller),Niedersachsen,
27356,DE,53.11990000,9.42380000,Rotenburg (Wümme),Niedersachsen,
27432,DE,53.48330000,8.96670000,Hipstedt,Niedersachsen,
27432,DE,53.48460000,9.14310000,Bremervörde,Niedersachsen,
27432,DE,53.44500000,9.00020000,Basdahl,Niedersachsen,
27432,DE,53.48330000,9.05000000,Oerel,Niedersachsen,
27432,DE,53.55000000,9.06670000,Alfstedt,Niedersachsen,
27432,DE,53.52510000,9.04900000,Ebersdorf,Niedersachsen,
27474,DE,53.85550000,8.67730000,Cuxhaven,Niedersachsen,
27476,DE,53.86100000,8.64830000,Cuxhaven,Niedersachsen,
27498,DE,54.18140000,7.88630000,Helgoland,Schleswig-Holstein,
27568,DE,53.56870000,8.57410000,Bremerhaven,Bremen,
27574,DE,53.52990000,8.60980000,Bremerhaven,Bremen,
27607,DE,53.60550000,8.59510000,Langen,Niedersachsen,
27711,DE,53.22700000,8.79530000,Osterholz-Scharmbeck,Niedersachsen,
27753,DE,53.06280000,8.62360000,Delmenhorst,Niedersachsen,
27777,DE,53.03330000,8.53330000,Ganderkesee,Niedersachsen,
27793,DE,52.89450000,8.43380000,Wildeshausen,Niedersachsen,
28199,DE,53.06180000,8.79000000,Bremen,Bremen,
28201,DE,53.05770000,8.80360000,Bremen,Bremen,
28205,DE,53.07090000,8.84600000,Bremen,Bremen,
28209,DE,53.08410000,8.82710000,Bremen,Bremen,
28239,DE,53.12400000,8.74640000,Bremen,Bremen,
28277,DE,53.10940000,8.78140000,Bremen,Bremen,
28325,DE,53.10940000,8.78140000,Bremen,Bremen,
28329,DE,53.08150000,8.87210000,Bremen,Bremen,
28755,DE,53.10940000,8.78140000,Bremen,Bremen,
28832,DE,53.01420000,9.02630000,Achim,Niedersachsen,
28865,DE,53.14190000,8.90340000,Lilienthal,Niedersachsen,
29223,DE,52.63330000,10.08420000,Celle,Niedersachsen,
29378,DE,52.72810000,10.73910000,Wittingen,Niedersachsen,
29389,DE,52.83330000,10.68330000,Bad Bodenteich,Niedersachsen,
29410,DE,52.85440000,11.15250000,Salzwedel,Sachsen-Anhalt,
29410,DE,52.85000000,11.23330000,Chüden,Sachsen-Anhalt,
29451,DE,53.09770000,11.07560000,Dannenberg (Elbe) Lüggau,Niedersachsen,
29451,DE,53.07260000,11.07080000,Schaafhausen,Niedersachsen,
29451,DE,53.10890000,11.03250000,Dannenberg (Elbe) Riskau,Niedersachsen,
29451,DE,53.12110000,11.10080000,Dannenberg (Elbe) Predöhlsau,Niedersachsen,
29451,DE,53.09040000,11.09240000,Dannenberg (Elbe),Niedersachsen,
29451,DE,53.05950000,11.05630000,Dannenberg (Elbe) Neu Tramm,Niedersachsen,
29451,DE,53.11340000,11.16480000,Dannenberg (Elbe) Sipnitz,Niedersachsen,
29451,DE,53.07190000,11.05090000,Dannenberg (Elbe) Riekau,Niedersachsen,
29451,DE,53.05380000,11.14480000,Dannenberg (Elbe) Groß Heide,Niedersachsen,
29451,DE,53.06990000,11.12040000,Dannenberg (Elbe) Prabstorf,Niedersachsen,
29451,DE,53.06400000,11.11750000,Dannenberg (Elbe) Liepehöfen,Niedersachsen,
29451,DE,53.10300000,11.14900000,Dannenberg (Elbe) Seybruch,Niedersachsen,
29451,DE,53.11370000,11.14400000,Dannenberg (Elbe) Gümse,Niedersachsen,
29451,DE,53.05940000,11.11960000,Dannenberg (Elbe) Soven,Niedersachsen,
29451,DE,53.09770000,11.12660000,Dannenberg (Elbe) Nebenstedt,Niedersachsen,
29451,DE,53.11260000,11.07530000,Dannenberg (Elbe) Pisselberg,Niedersachsen,
29451,DE,53.13730000,11.13870000,Dannenberg (Elbe) Penkefitz,Niedersachsen,
29451,DE,53.09170000,11.09850000,Dannenberg (Elbe) Dannenberg,Niedersachsen,
29451,DE,53.11920000,11.12430000,Dannenberg (Elbe) Dambeck,Niedersachsen,
29451,DE,53.10540000,11.04050000,Dannenberg (Elbe) Tripkau,Niedersachsen,
29451,DE,53.06130000,11.13330000,Dannenberg (Elbe) Klein Heide,Niedersachsen,
29451,DE,53.07610000,11.11160000,Dannenberg (Elbe) Bückau,Niedersachsen,
29451,DE,53.06450000,11.07310000,Dannenberg (Elbe) Tramm,Niedersachsen,
29451,DE,53.10860000,11.05930000,Dannenberg (Elbe) Streetz,Niedersachsen,
29451,DE,53.08570000,11.06960000,Dannenberg (Elbe) Prisser,Niedersachsen,
29451,DE,53.08180000,11.05760000,Dannenberg (Elbe) Niestedt,Niedersachsen,
29451,DE,53.10990000,11.13260000,Dannenberg (Elbe) Breese in der Marsch,Niedersachsen,
29451,DE,53.08690000,11.05410000,Dannenberg (Elbe) Schmarsau,Niedersachsen,
29451,DE,53.09260000,11.14380000,Dannenberg (Elbe) Splietau,Niedersachsen,
29451,DE,53.11920000,11.14900000,Dannenberg (Elbe) Seedorf,Niedersachsen,
29525,DE,52.96570000,10.56110000,Uelzen,Niedersachsen,
29549,DE,53.07920000,10.58130000,Bad Bevensen,Niedersachsen,
29614,DE,52.98640000,9.84340000,Soltau,Niedersachsen,
29664,DE,52.86150000,9.59260000,Walsrode,Niedersachsen,
29683,DE,52.84970000,9.68800000,Fallingbostel,Niedersachsen,
30161,DE,52.38740000,9.74650000,Hannover,Niedersachsen,
30167,DE,52.39140000,9.70830000,Hannover,Niedersachsen,
30169,DE,52.36330000,9.74800000,Hannover,Niedersachsen,
30171,DE,52.36970000,9.75210000,Hannover,Niedersachsen,
30173,DE,52.35860000,9.75580000,Hannover,Niedersachsen,
30459,DE,52.34250000,9.71530000,Hannover,Niedersachsen,
30559,DE,52.36130000,9.83440000,Hannover,Niedersachsen,
30625,DE,52.37950000,9.80750000,Hannover,Niedersachsen,
30851,DE,52.43780000,9.74320000,Langenhagen,Niedersachsen,
30853,DE,52.45060000,9.74920000,Langenhagen,Niedersachsen,
30880,DE,52.31510000,9.79740000,Laatzen,Niedersachsen,
30938,DE,52.50270000,9.86000000,Burgwedel,Niedersachsen,
30989,DE,52.31360000,9.60030000,Gehrden,Niedersachsen,
31028,DE,52.08330000,9.78330000,Gronau (Leine),Niedersachsen,
31061,DE,51.98810000,9.81700000,Alfeld (Leine),Niedersachsen,
31134,DE,52.15310000,9.95550000,Hildesheim,Niedersachsen,
31135,DE,52.16470000,9.97680000,Hildesheim,Niedersachsen,
31226,DE,52.31430000,10.23360000,Peine,Niedersachsen,
31275,DE,52.37190000,9.97920000,Lehrte,Niedersachsen,
31319,DE,52.31390000,9.96820000,Sehnde,Niedersachsen,
31515,DE,52.42380000,9.43590000,Wunstorf,Niedersachsen,
31535,DE,52.50460000,9.45870000,Neustadt am Rübenberge,Niedersachsen,
31582,DE,52.67570000,9.22710000,Nienburg (Weser) Holtorf,Niedersachsen,
31582,DE,52.61730000,9.26040000,Nienburg (Weser) Langendamm,Niedersachsen,
31582,DE,52.66450000,9.24490000,Nienburg (Weser) Erichshagen,Niedersachsen,
31582,DE,52.65370000,9.22210000,Nienburg (Weser) Nienburg (Weser),Niedersachsen,
31582,DE,52.64930000,9.23650000,Nienburg (Weser),Niedersachsen,
31592,DE,52.50230000,9.02890000,Stolzenau Hibben,Niedersachsen,
31592,DE,52.48570000,9.00390000,Stolzenau Frestorf,Niedersachsen,
31592,DE,52.50100000,8.98550000,Stolzenau Nendorf,Niedersachsen,
31592,DE,52.48930000,9.02740000,Stolzenau Müsleringen,Niedersachsen,
31592,DE,52.51380000,9.02960000,Stolzenau Stolzenau,Niedersachsen,
31592,DE,52.51670000,9.06670000,Stolzenau,Niedersachsen,
31592,DE,52.47360000,9.00830000,Stolzenau Diethe,Niedersachsen,
31592,DE,52.52070000,9.05690000,Stolzenau Holzhausen,Niedersachsen,
31592,DE,52.54540000,9.07010000,"Stolzenau Anemolter-Schinna, Anemolter",Niedersachsen,
31592,DE,52.54090000,9.07160000,Stolzenau Anemolter-Schinna,Niedersachsen,
31592,DE,52.53640000,9.07310000,"Stolzenau Anemolter-Schinna, Schinna",Niedersachsen,
31655,DE,52.32330000,9.20310000,Stadthagen,Niedersachsen,
31655,DE,52.30110000,9.20560000,Stadthagen Krebshagen,Niedersachsen,
31655,DE,52.31690000,9.25240000,"Stadthagen Habichhorst-Blyinghausen, Blyinghausen",Niedersachsen,
31655,DE,52.32500000,9.15370000,Stadthagen Enzen,Niedersachsen,
31655,DE,52.29350000,9.20560000,Stadthagen Wendthagen-Ehlen,Niedersachsen,
31655,DE,52.32360000,9.14420000,Stadthagen Hobbensen,Niedersachsen,
31655,DE,52.31820000,9.27140000,Stadthagen Reinsen-Remeringhausen,Niedersachsen,
31655,DE,52.30290000,9.24290000,Stadthagen Obernwöhren,Niedersachsen,
31655,DE,52.29170000,9.23270000,Stadthagen Hörkamp-Langenbruch,Niedersachsen,
31655,DE,52.34160000,9.23270000,Stadthagen Probsthagen,Niedersachsen,
31655,DE,52.31640000,9.24400000,Stadthagen Habichhorst-Blyinghausen,Niedersachsen,
31655,DE,52.31600000,9.23560000,"Stadthagen Habichhorst-Blyinghausen, Habichhorst",Niedersachsen,
31655,DE,52.32030000,9.20070000,Stadthagen Stadthagen,Niedersachsen,
31683,DE,52.27210000,9.12910000,Obernkirchen,Niedersachsen,
31683,DE,52.24990000,9.12230000,Obernkirchen Krainhagen,Niedersachsen,
31683,DE,52.25920000,9.14370000,Obernkirchen Obernkirchen,Niedersachsen,
31683,DE,52.25620000,9.11640000,Obernkirchen Röhrkasten,Niedersachsen,
31683,DE,52.27280000,9.10260000,Obernkirchen Vehlen,Niedersachsen,
31683,DE,52.28360000,9.11860000,Obernkirchen Gelldorf,Niedersachsen,
31737,DE,52.17330000,9.11950000,Rinteln,Niedersachsen,
31737,DE,52.13480000,9.14790000,Rinteln Friedrichswald,Niedersachsen,
31737,DE,52.16680000,9.11590000,Rinteln Strücken,Niedersachsen,
31737,DE,52.14290000,9.10720000,Rinteln Volksen,Niedersachsen,
31737,DE,52.20320000,9.14790000,Rinteln Westendorf,Niedersachsen,
31737,DE,52.15780000,9.09920000,Rinteln Uchtorf,Niedersachsen,
31737,DE,52.21220000,9.05360000,Rinteln Todenmann,Niedersachsen,
31737,DE,52.20990000,9.12010000,Rinteln Steinbergen,Niedersachsen,
31737,DE,52.16450000,9.03150000,Rinteln Möllenbeck,Niedersachsen,
31737,DE,52.17870000,9.07110000,Rinteln Rinteln,Niedersachsen,
31737,DE,52.14470000,9.13780000,Rinteln Wennenkamp,Niedersachsen,
31737,DE,52.15370000,9.08100000,Rinteln Krankenhagen,Niedersachsen,
31737,DE,52.18560000,9.14940000,Rinteln Kohlenstädt,Niedersachsen,
31737,DE,52.20000000,9.18810000,Rinteln Schaumburg,Niedersachsen,
31737,DE,52.10340000,9.15160000,Rinteln Goldbeck,Niedersachsen,
31737,DE,52.18430000,9.13850000,Rinteln Ahe,Niedersachsen,
31737,DE,52.19460000,9.10720000,Rinteln Engern,Niedersachsen,
31737,DE,52.16940000,9.09630000,Rinteln Exten,Niedersachsen,
31737,DE,52.17120000,9.14940000,Rinteln Hohenrode,Niedersachsen,
31737,DE,52.20180000,9.16830000,Rinteln Deckbergen,Niedersachsen,
31785,DE,52.10370000,9.36760000,Hameln,Niedersachsen,
31812,DE,51.98590000,9.25250000,Bad Pyrmont,Niedersachsen,
31840,DE,52.17270000,9.24910000,Hessisch Oldendorf,Niedersachsen,
31848,DE,52.19550000,9.46420000,Bad Münder am Deister,Niedersachsen,
31863,DE,52.11850000,9.54870000,Coppenbrügge,Niedersachsen,
34117,DE,51.31660000,9.49120000,Kassel,Hessen,Regierungsbezirk Kassel
34119,DE,51.31520000,9.46470000,Kassel,Hessen,Regierungsbezirk Kassel
34121,DE,51.30560000,9.46520000,Kassel,Hessen,Regierungsbezirk Kassel
34125,DE,51.31950000,9.51630000,Kassel,Hessen,Regierungsbezirk Kassel
34127,DE,51.33550000,9.49130000,Kassel,Hessen,Regierungsbezirk Kassel
34128,DE,51.33600000,9.44570000,Kassel,Hessen,Regierungsbezirk Kassel
34131,DE,51.31730000,9.42270000,Kassel,Hessen,Regierungsbezirk Kassel
34212,DE,51.13030000,9.55240000,Melsungen,Hessen,Regierungsbezirk Kassel
34346,DE,51.41510000,9.65050000,Hannoversch Münden,Niedersachsen,
34369,DE,51.49610000,9.38500000,Hofgeismar,Hessen,Regierungsbezirk Kassel
34376,DE,51.44290000,9.52310000,Immenhausen,Hessen,Regierungsbezirk Kassel
34399,DE,51.58330000,9.56670000,Oberweser,Hessen,Regierungsbezirk Kassel
34454,DE,51.37980000,9.01450000,Bad Arolsen,Hessen,Regierungsbezirk Kassel
34466,DE,51.32610000,9.17020000,Wolfhagen,Hessen,Regierungsbezirk Kassel
34497,DE,51.27560000,8.87300000,Korbach,Hessen,Regierungsbezirk Kassel
34537,DE,51.11960000,9.12470000,Bad Wildungen,Hessen,Regierungsbezirk Kassel
34560,DE,51.13180000,9.27560000,Fritzlar,Hessen,Regierungsbezirk Kassel
34596,DE,51.05000000,9.18330000,Bad Zwesten,Hessen,Regierungsbezirk Kassel
34613,DE,50.93330000,9.21670000,Schwalmstadt,Hessen,Regierungsbezirk Kassel
35039,DE,50.80980000,8.77730000,Marburg,Hessen,Reg.-Bez. Gießen
35041,DE,50.81650000,8.75130000,Marburg,Hessen,Reg.-Bez. Gießen
35043,DE,50.77650000,8.76450000,Marburg,Hessen,Reg.-Bez. Gießen
35066,DE,51.05850000,8.78330000,Frankenberg (Eder),Hessen,Regierungsbezirk Kassel
35080,DE,50.75000000,8.50000000,Bad Endbach,Hessen,Reg.-Bez. Gießen
35114,DE,51.02780000,8.96670000,Haina (Kloster),Hessen,Regierungsbezirk Kassel
35216,DE,50.91120000,8.53020000,Biedenkopf,Hessen,Reg.-Bez. Gießen
35392,DE,50.56690000,8.65380000,Gießen,Hessen,Reg.-Bez. Gießen
35398,DE,50.58330000,8.65000000,Gießen,Hessen,Reg.-Bez. Gießen
35423,DE,50.52080000,8.81570000,Lich,Hessen,Reg.-Bez. Gießen
35578,DE,50.54550000,8.50500000,Wetzlar,Hessen,Reg.-Bez. Gießen
35619,DE,50.53410000,8.33330000,Braunfels Tiefenbach,Hessen,Reg.-Bez. Gießen
35619,DE,50.50330000,8.42820000,Braunfels Bonbaden,Hessen,Reg.-Bez. Gießen
35619,DE,50.47250000,8.40710000,Braunfels Altenkirchen,Hessen,Reg.-Bez. Gießen
35619,DE,50.51710000,8.38340000,Braunfels Braunfels,Hessen,Reg.-Bez. Gießen
35619,DE,50.48430000,8.43850000,Braunfels Neukirchen,Hessen,Reg.-Bez. Gießen
35619,DE,50.49220000,8.37580000,Braunfels Philippstein,Hessen,Reg.-Bez. Gießen
35619,DE,50.51540000,8.38920000,Braunfels,Hessen,Reg.-Bez. Gießen
35630,DE,50.60000000,8.38330000,Ehringshausen,Hessen,Reg.-Bez. Gießen
35638,DE,50.55130000,8.35840000,Leun,Hessen,Reg.-Bez. Gießen
35683,DE,50.73690000,8.28730000,Dillenburg,Hessen,Reg.-Bez. Gießen
35745,DE,50.68140000,8.30370000,Herborn,Hessen,Reg.-Bez. Gießen
35781,DE,50.48440000,8.26250000,Weilburg,Hessen,Reg.-Bez. Gießen
35789,DE,50.43140000,8.37670000,Weilmünster,Hessen,Reg.-Bez. Gießen
36037,DE,50.55180000,9.68330000,Fulda,Hessen,Regierungsbezirk Kassel
36039,DE,50.57320000,9.68240000,Fulda,Hessen,Regierungsbezirk Kassel
36041,DE,50.55690000,9.64310000,Fulda,Hessen,Regierungsbezirk Kassel
36043,DE,50.53450000,9.69220000,Fulda,Hessen,Regierungsbezirk Kassel
36088,DE,50.67970000,9.76730000,Hünfeld,Hessen,Regierungsbezirk Kassel
36129,DE,50.45140000,9.91420000,Gersfeld,Hessen,Regierungsbezirk Kassel
36199,DE,50.99560000,9.72840000,Rotenburg an der Fulda,Hessen,Regierungsbezirk Kassel
36251,DE,50.90000000,9.76670000,Ludwigsau,Hessen,Regierungsbezirk Kassel
36251,DE,50.87200000,9.70890000,Bad Hersfeld,Hessen,Regierungsbezirk Kassel
36304,DE,50.75180000,9.27080000,Alsfeld,Hessen,Reg.-Bez. Gießen
36341,DE,50.63560000,9.39780000,Lauterbach,Hessen,Reg.-Bez. Gießen
36355,DE,50.48920000,9.33860000,Grebenhain,Hessen,Reg.-Bez. Gießen
36381,DE,50.36550000,9.58290000,Schlüchtern,Hessen,Regierungsbezirk Darmstadt
36433,DE,50.81340000,10.23610000,Bad Salzungen,Thüringen,
36433,DE,50.79230000,10.27810000,Immelborn,Thüringen,
36433,DE,50.81670000,10.20000000,Leimbach,Thüringen,
36433,DE,50.85000000,10.28330000,Moorgrund,Thüringen,
36448,DE,50.81570000,10.35120000,Bad Liebenstein,Thüringen,
36448,DE,50.83320000,10.36390000,Steinbach,Thüringen,
36448,DE,50.82500000,10.33790000,Schweina,Thüringen,
37073,DE,51.53640000,9.93900000,Göttingen,Niedersachsen,
37075,DE,51.55090000,9.93280000,Göttingen,Niedersachsen,
37081,DE,51.53350000,9.89930000,Göttingen,Niedersachsen,
37115,DE,51.51310000,10.25950000,Duderstadt,Niedersachsen,
37124,DE,51.50000000,9.90000000,Rosdorf,Niedersachsen,
37154,DE,51.70660000,10.00000000,Northeim,Niedersachsen,
37235,DE,51.19950000,9.71860000,Hessisch Lichtenau,Hessen,Regierungsbezirk Kassel
37269,DE,51.18390000,10.05330000,Eschwege,Hessen,Regierungsbezirk Kassel
37355,DE,51.35000000,10.50000000,Vollenborn,Thüringen,
37355,DE,51.38330000,10.46670000,"Bernterode, Untereichsfeld",Thüringen,
37355,DE,51.38330000,10.48330000,Gerterode,Thüringen,
37355,DE,51.37220000,10.42370000,Niederorschel,Thüringen,
37355,DE,51.35450000,10.47440000,Deuna,Thüringen,
37355,DE,51.35000000,10.38330000,Kleinbartloff,Thüringen,
37412,DE,51.65920000,10.27770000,Elbingerode,Niedersachsen,
37412,DE,51.66830000,10.28370000,Hörden,Niedersachsen,
37412,DE,51.65550000,10.33940000,Herzberg am Harz,Niedersachsen,
37431,DE,51.63270000,10.47030000,Bad Lauterberg im Harz,Niedersachsen,
37574,DE,51.82020000,9.86960000,Einbeck,Niedersachsen,
37581,DE,51.87170000,10.02540000,Bad Gandersheim,Niedersachsen,
37603,DE,51.82800000,9.44550000,Holzminden,Niedersachsen,
38102,DE,52.25750000,10.53650000,Braunschweig,Niedersachsen,
38118,DE,52.25900000,10.50020000,Braunschweig,Niedersachsen,
38124,DE,52.22580000,10.52710000,Braunschweig,Niedersachsen,
38154,DE,52.25120000,10.81680000,Königslutter am Elm,Niedersachsen,
38226,DE,52.12210000,10.37610000,Salzgitter,Niedersachsen,
38226,DE,52.15810000,10.33310000,Salzgitter Lebenstedt,Niedersachsen,
38259,DE,52.12210000,10.37610000,Salzgitter,Niedersachsen,
38259,DE,52.03670000,10.30970000,Salzgitter Ringelheim,Niedersachsen,
38259,DE,52.10080000,10.42330000,Salzgitter Lobmachtersen,Niedersachsen,
38259,DE,52.08560000,10.43920000,Salzgitter Flachstöckheim,Niedersachsen,
38259,DE,52.06190000,10.44640000,Salzgitter Ohlendorf,Niedersachsen,
38259,DE,52.03580000,10.35310000,Salzgitter Gitter,Niedersachsen,
38259,DE,52.05280000,10.37320000,Salzgitter Bad,Niedersachsen,
38259,DE,52.02440000,10.34860000,Salzgitter Hohenrode,Niedersachsen,
38259,DE,52.05140000,10.40940000,Salzgitter Groß Mahner,Niedersachsen,
38259,DE,52.07500000,10.41190000,Salzgitter Beinum,Niedersachsen,
38302,DE,52.16610000,10.55140000,Wolfenbüttel,Niedersachsen,
38350,DE,52.22790000,11.00980000,Helmstedt,Niedersachsen,
38440,DE,52.42390000,10.78120000,Wolfsburg,Niedersachsen,
38518,DE,52.47770000,10.55110000,Gifhorn,Niedersachsen,
38642,DE,51.90660000,10.48460000,Goslar Oker,Niedersachsen,
38642,DE,51.91910000,10.41670000,Goslar,Niedersachsen,
38642,DE,51.90820000,10.47510000,Goslar Goslar,Niedersachsen,
38667,DE,51.90320000,10.56670000,Bad Harzburg Westerode,Niedersachsen,
38667,DE,51.89330000,10.54890000,"Bad Harzburg Bündheim/Schlewecke, Bündheim",Niedersachsen,
38667,DE,51.90290000,10.56550000,Bad Harzburg Bettingerode,Niedersachsen,
38667,DE,51.88270000,10.56160000,Bad Harzburg,Niedersachsen,
38667,DE,51.89910000,10.51820000,Bad Harzburg Göttingerode,Niedersachsen,
38667,DE,51.91200000,10.52220000,Bad Harzburg Harlingerode,Niedersachsen,
38667,DE,51.88580000,10.56000000,Bad Harzburg Bad Harzburg,Niedersachsen,
38667,DE,51.89810000,10.54670000,Bad Harzburg Bündheim/Schlewecke,Niedersachsen,
38667,DE,51.89950000,10.53780000,"Bad Harzburg Bündheim/Schlewecke, Schlewecke",Niedersachsen,
38667,DE,51.90020000,10.65180000,Bad Harzburg Eckertal,Niedersachsen,
38678,DE,51.80950000,10.33820000,Clausthal-Zellerfeld,Niedersachsen,
38704,DE,52.02180000,10.43170000,Liebenburg,Niedersachsen,
38723,DE,51.89100000,10.17850000,Seesen,Niedersachsen,
38820,DE,51.89560000,11.05620000,Halberstadt,Sachsen-Anhalt,
38875,DE,51.74340000,10.76520000,Königshütte,Sachsen-Anhalt,
38875,DE,51.77040000,10.80560000,Elbingerode,Sachsen-Anhalt,
38875,DE,51.69840000,10.72240000,Tanne,Sachsen-Anhalt,
38875,DE,51.69260000,10.69790000,Sorge,Sachsen-Anhalt,
38875,DE,51.74470000,10.68760000,Elend,Sachsen-Anhalt,
39108,DE,52.13330000,11.61670000,Magdeburg,Sachsen-Anhalt,
39110,DE,52.12630000,11.60110000,Magdeburg,Sachsen-Anhalt,
39114,DE,52.13330000,11.61670000,Magdeburg,Sachsen-Anhalt,
39120,DE,52.08160000,11.62120000,Magdeburg,Sachsen-Anhalt,
39130,DE,52.15610000,11.57890000,Magdeburg,Sachsen-Anhalt,
39218,DE,52.01830000,11.72400000,Schönebeck (Elbe),Sachsen-Anhalt,
39240,DE,51.89640000,11.71750000,Brumby,Sachsen-Anhalt,
39240,DE,51.92340000,11.94900000,Breitenhagen,Sachsen-Anhalt,
39240,DE,51.91700000,11.89180000,Groß Rosenburg,Sachsen-Anhalt,
39240,DE,51.91000000,11.67470000,Glöthe,Sachsen-Anhalt,
39240,DE,51.88360000,11.95400000,Lödderitz,Sachsen-Anhalt,
39240,DE,51.86650000,11.88190000,Sachsendorf,Sachsen-Anhalt,
39240,DE,51.90670000,11.77480000,Calbe,Sachsen-Anhalt,
39240,DE,51.85410000,11.85230000,Zuchau,Sachsen-Anhalt,
39245,DE,52.04530000,11.82680000,Pretzien,Sachsen-Anhalt,
39245,DE,52.07040000,11.87420000,Dannigkow,Sachsen-Anhalt,
39245,DE,52.05210000,11.80200000,Plötzky,Sachsen-Anhalt,
39245,DE,52.07390000,11.82300000,Gommern,Sachsen-Anhalt,
39261,DE,51.96620000,12.08520000,Zerbst,Sachsen-Anhalt,
39288,DE,52.26670000,11.86310000,Burg,Sachsen-Anhalt,
39291,DE,52.33070000,11.91600000,Ihleburg,Sachsen-Anhalt,
39291,DE,52.21400000,11.79280000,Möser,Sachsen-Anhalt,
39291,DE,52.25690000,12.01580000,Stresow,Sachsen-Anhalt,
39291,DE,52.13910000,11.89830000,Zeddenick,Sachsen-Anhalt,
39291,DE,52.32230000,11.88230000,Parchau,Sachsen-Anhalt,
39291,DE,52.21080000,11.98480000,Friedensau,Sachsen-Anhalt,
39291,DE,52.14720000,11.82690000,Büden,Sachsen-Anhalt,
39291,DE,52.29000000,11.78940000,Schartau,Sachsen-Anhalt,
39291,DE,52.20950000,12.19870000,Dörnitz,Sachsen-Anhalt,
39291,DE,52.16830000,12.12390000,Lübars,Sachsen-Anhalt,
39291,DE,52.20870000,11.73790000,Lostau,Sachsen-Anhalt,
39291,DE,52.22860000,12.07270000,Küsel,Sachsen-Anhalt,
39291,DE,52.18130000,12.04960000,Hohenziatz,Sachsen-Anhalt,
39291,DE,52.22970000,11.71530000,Hohenwarthe,Sachsen-Anhalt,
39291,DE,52.24890000,11.96240000,Grabow,Sachsen-Anhalt,
39291,DE,52.21550000,12.16490000,Drewitz,Sachsen-Anhalt,
39291,DE,52.27400000,12.06600000,Krüssau,Sachsen-Anhalt,
39291,DE,52.22890000,12.19200000,Magdeburgerforth,Sachsen-Anhalt,
39291,DE,52.21030000,11.85000000,Pietzpuhl,Sachsen-Anhalt,
39291,DE,52.10700000,11.83780000,Karith,Sachsen-Anhalt,
39291,DE,52.28430000,11.93800000,Reesen,Sachsen-Anhalt,
39291,DE,52.11910000,11.91440000,Wallwitz,Sachsen-Anhalt,
39291,DE,52.10650000,11.88040000,Vehlitz,Sachsen-Anhalt,
39291,DE,52.18990000,11.90680000,Stegelitz,Sachsen-Anhalt,
39291,DE,52.23210000,11.81380000,Schermen,Sachsen-Anhalt,
39291,DE,52.27750000,12.01550000,Rietzel,Sachsen-Anhalt,
39291,DE,52.14860000,11.87100000,Ziepel,Sachsen-Anhalt,
39291,DE,52.24530000,11.81090000,Detershagen,Sachsen-Anhalt,
39291,DE,52.24040000,12.04890000,Theeßen,Sachsen-Anhalt,
39291,DE,52.26320000,11.75870000,Niegripp,Sachsen-Anhalt,
39291,DE,52.23570000,12.22480000,Schopsdorf,Sachsen-Anhalt,
39291,DE,52.12800000,11.83230000,Nedlitz,Sachsen-Anhalt,
39291,DE,52.21120000,11.96910000,Möckern,Sachsen-Anhalt,
39291,DE,52.24240000,12.17010000,Reesdorf,Sachsen-Anhalt,
39291,DE,52.21860000,12.12060000,Wüstenjerichow,Sachsen-Anhalt,
39291,DE,52.17090000,11.84480000,Wörmlitz,Sachsen-Anhalt,
39291,DE,52.16570000,11.91320000,Tryppehna,Sachsen-Anhalt,
39319,DE,52.43550000,12.06860000,Nielebock,Sachsen-Anhalt,
39319,DE,52.50050000,12.02380000,Jerichow,Sachsen-Anhalt,
39319,DE,52.46780000,12.07610000,Redekin,Sachsen-Anhalt,
39319,DE,52.50000000,12.13330000,Wulkow,Sachsen-Anhalt,
39340,DE,52.30060000,11.43030000,Haldensleben,Sachsen-Anhalt,
39387,DE,52.07410000,11.25020000,Altbrandsleben,Sachsen-Anhalt,
39387,DE,52.04510000,11.17100000,Hornhausen,Sachsen-Anhalt,
39387,DE,52.03040000,11.22900000,Oschersleben,Sachsen-Anhalt,
39387,DE,52.06280000,11.31380000,Ampfurth,Sachsen-Anhalt,
39387,DE,52.05000000,11.10000000,Am Großen Bruch Neuwegersleben,Sachsen-Anhalt,
39387,DE,52.05750000,11.28700000,Schermcke,Sachsen-Anhalt,
39387,DE,52.01960000,11.13140000,Wulferstedt,Sachsen-Anhalt,
39387,DE,52.05560000,11.07220000,Am Großen Bruch,Sachsen-Anhalt,
39418,DE,51.85190000,11.58510000,Staßfurt,Sachsen-Anhalt,
39418,DE,51.81670000,11.56670000,Neundorf (Anhalt),Sachsen-Anhalt,
39576,DE,52.60690000,11.85870000,Stendal,Sachsen-Anhalt,
39615,DE,52.88330000,11.88330000,Neukirchen (Altmark),Sachsen-Anhalt,
39615,DE,52.86390000,11.57120000,Neulingen,Sachsen-Anhalt,
39615,DE,52.93330000,11.61100000,Groß Garz,Sachsen-Anhalt,
39615,DE,52.85680000,11.87760000,Lichterfelde,Sachsen-Anhalt,
39615,DE,52.87380000,11.67220000,Losse,Sachsen-Anhalt,
39615,DE,52.99170000,11.60600000,Wanzer,Sachsen-Anhalt,
39615,DE,52.86670000,11.98330000,Werben (Elbe),Sachsen-Anhalt,
39615,DE,52.88510000,11.57340000,Leppin,Sachsen-Anhalt,
39615,DE,52.88000000,11.82520000,Schönberg,Sachsen-Anhalt,
39615,DE,52.92330000,11.69800000,Krüden,Sachsen-Anhalt,
39615,DE,52.98430000,11.67740000,Wahrenberg,Sachsen-Anhalt,
39615,DE,52.95440000,11.73610000,Geestgottberg,Sachsen-Anhalt,
39615,DE,52.88870000,11.75240000,Seehausen,Sachsen-Anhalt,
39615,DE,52.85870000,11.92440000,Wendemark,Sachsen-Anhalt,
39615,DE,52.96630000,11.76540000,Losenrade,Sachsen-Anhalt,
39615,DE,52.87420000,11.61420000,Höwisch,Sachsen-Anhalt,
39615,DE,52.93960000,11.78590000,Beuster,Sachsen-Anhalt,
39615,DE,52.99260000,11.58220000,Aulosen,Sachsen-Anhalt,
39615,DE,52.96910000,11.62400000,Pollitz,Sachsen-Anhalt,
39615,DE,52.95790000,11.55070000,Gollensdorf,Sachsen-Anhalt,
39615,DE,52.86070000,11.81280000,Falkenberg,Sachsen-Anhalt,
39638,DE,52.53110000,11.53250000,Hottendorf,Sachsen-Anhalt,
39638,DE,52.44620000,11.48520000,Letzlingen,Sachsen-Anhalt,
39638,DE,52.60570000,11.29860000,Zichtau,Sachsen-Anhalt,
39638,DE,52.44380000,11.30780000,Jeseritz,Sachsen-Anhalt,
39638,DE,52.46840000,11.32090000,Jerchel,Sachsen-Anhalt,
39638,DE,52.52570000,11.46350000,Kloster Neuendorf,Sachsen-Anhalt,
39638,DE,52.43440000,11.40620000,Roxförde,Sachsen-Anhalt,
39638,DE,52.55240000,11.36930000,Berge,Sachsen-Anhalt,
39638,DE,52.52520000,11.39520000,Gardelegen,Sachsen-Anhalt,
39638,DE,52.59790000,11.44240000,Algenstedt,Sachsen-Anhalt,
39638,DE,52.58660000,11.48540000,Kassieck,Sachsen-Anhalt,
39638,DE,52.61980000,11.34160000,Engersen,Sachsen-Anhalt,
39638,DE,52.58920000,11.56360000,Seethen,Sachsen-Anhalt,
39638,DE,52.60320000,11.39580000,Schenkenhorst,Sachsen-Anhalt,
39638,DE,52.37870000,11.38940000,Dorst,Sachsen-Anhalt,
39638,DE,52.57640000,11.35970000,Estedt,Sachsen-Anhalt,
39638,DE,52.59160000,11.53080000,Lindstedt,Sachsen-Anhalt,
39638,DE,52.40820000,11.39980000,Klüden,Sachsen-Anhalt,
39638,DE,52.42030000,11.30720000,Berenbrock,Sachsen-Anhalt,
39638,DE,52.59960000,11.33210000,Wiepke,Sachsen-Anhalt,
39638,DE,52.50590000,11.28640000,Solpke,Sachsen-Anhalt,
39638,DE,52.44500000,11.33770000,Potzehne,Sachsen-Anhalt,
39638,DE,52.40420000,11.36760000,Zobbenitz,Sachsen-Anhalt,
39638,DE,52.56860000,11.25320000,Breitenfeld,Sachsen-Anhalt,
39638,DE,52.43860000,11.44860000,Wannefeld,Sachsen-Anhalt,
39638,DE,52.52410000,11.49910000,Jävenitz,Sachsen-Anhalt,
39638,DE,52.59770000,11.25830000,Schwiesau,Sachsen-Anhalt,
39638,DE,52.56670000,11.42950000,Hemstedt,Sachsen-Anhalt,
48455,DE,52.30070000,7.15760000,Bad Bentheim,Niedersachsen,
48527,DE,52.44910000,7.05180000,Nordhorn,Niedersachsen,
49074,DE,52.27380000,8.05210000,Osnabrück,Niedersachsen,
49076,DE,52.28320000,7.94850000,Osnabrück,Niedersachsen,
49082,DE,52.24400000,8.06130000,Osnabrück,Niedersachsen,
49088,DE,52.26670000,8.05000000,Osnabrück,Niedersachsen,
49124,DE,52.20300000,8.04480000,Georgsmarienhütte,Niedersachsen,
49179,DE,52.35000000,8.23330000,Ostercappeln,Niedersachsen,
49214,DE,52.11670000,8.16670000,Bad Rothenfelde,Niedersachsen,
49324,DE,52.19770000,8.33890000,Melle,Niedersachsen,
49377,DE,52.72630000,8.28600000,Vechta,Niedersachsen,
49393,DE,52.65890000,8.22500000,Lohne (Oldenburg),Niedersachsen,
49401,DE,52.52160000,8.19790000,Damme,Niedersachsen,
49434,DE,52.51670000,8.06670000,Neuenkirchen-Vörden,Niedersachsen,
49565,DE,52.40880000,7.97290000,Bramsche,Niedersachsen,
49577,DE,52.58330000,7.83330000,Kettenkamp,Niedersachsen,
49577,DE,52.55000000,7.88330000,Ankum,Niedersachsen,
49577,DE,52.56670000,7.81670000,Eggermühlen,Niedersachsen,
49610,DE,52.67500000,7.94980000,Quakenbrück,Niedersachsen,
49624,DE,52.73680000,7.75810000,Löningen,Niedersachsen,
49661,DE,52.84750000,8.04500000,Cloppenburg,Niedersachsen,
49716,DE,52.69060000,7.29100000,Meppen,Niedersachsen,
49740,DE,52.67410000,7.48460000,Haselünne,Niedersachsen,
49751,DE,52.78330000,7.51670000,Hüven,Niedersachsen,
49751,DE,52.87210000,7.50830000,Werpeloh,Niedersachsen,
49751,DE,52.87030000,7.60320000,Spahnharrenstätte,Niedersachsen,
49751,DE,52.85000000,7.51670000,Sögel,Niedersachsen,
49808,DE,52.51380000,7.31330000,Lingen,Niedersachsen,
49811,DE,52.51670000,7.31670000,Lingen,Niedersachsen,
49832,DE,52.46670000,7.46670000,Messingen,Niedersachsen,
49832,DE,52.50000000,7.48330000,Thuine,Niedersachsen,
49832,DE,52.48700000,7.54310000,Freren,Niedersachsen,
49832,DE,52.43330000,7.50000000,Beesten,Niedersachsen,
49832,DE,52.50000000,7.58330000,Andervenne,Niedersachsen,
53424,DE,50.57880000,7.22700000,Remagen,Rheinland-Pfalz,
53474,DE,50.54320000,7.11130000,Bad Neuenahr-Ahrweiler,Rheinland-Pfalz,
53489,DE,50.54380000,7.24640000,Sinzig,Rheinland-Pfalz,
53545,DE,50.56880000,7.28440000,Linz am Rhein,Rheinland-Pfalz,
53545,DE,50.57610000,7.27540000,Ockenfels,Rheinland-Pfalz,
53567,DE,50.66670000,7.41670000,Asbach,Rheinland-Pfalz,
53567,DE,50.68670000,7.39520000,Buchholz (Westerwald),Rheinland-Pfalz,
54290,DE,49.75370000,6.63930000,Trier,Rheinland-Pfalz,
54292,DE,49.77280000,6.66450000,Trier,Rheinland-Pfalz,
54411,DE,49.75000000,7.05000000,Deuselbach,Rheinland-Pfalz,
54411,DE,49.65530000,6.94410000,Hermeskeil,Rheinland-Pfalz,
54411,DE,49.76670000,7.05000000,Rorodt,Rheinland-Pfalz,
54439,DE,49.60640000,6.54370000,Saarburg,Rheinland-Pfalz,
54439,DE,49.56670000,6.36670000,Palzem,Rheinland-Pfalz,
54439,DE,49.61670000,6.48330000,Fisch,Rheinland-Pfalz,
54439,DE,49.58330000,6.48330000,Merzkirchen,Rheinland-Pfalz,
54470,DE,49.91600000,7.07660000,Bernkastel-Kues,Rheinland-Pfalz,
54470,DE,49.93450000,7.06330000,Graach,Rheinland-Pfalz,
54470,DE,49.91670000,7.01670000,Lieser,Rheinland-Pfalz,
54516,DE,49.98600000,6.89310000,Wittlich,Rheinland-Pfalz,
54516,DE,50.01670000,6.93330000,Flußbach,Rheinland-Pfalz,
54550,DE,50.19720000,6.82940000,Daun,Rheinland-Pfalz,
54568,DE,50.22220000,6.65980000,Gerolstein,Rheinland-Pfalz,
54595,DE,50.20780000,6.42020000,Prüm,Rheinland-Pfalz,
54595,DE,50.23330000,6.41670000,Gondenbrett,Rheinland-Pfalz,
54595,DE,50.23330000,6.46670000,Weinsheim,Rheinland-Pfalz,
54595,DE,50.18330000,6.36670000,Watzerath,Rheinland-Pfalz,
54595,DE,50.16670000,6.38330000,Orlenbach,Rheinland-Pfalz,
54595,DE,50.18330000,6.35000000,Pittenbach,Rheinland-Pfalz,
54634,DE,49.95000000,6.48330000,Birtlingen,Rheinland-Pfalz,
54634,DE,49.93330000,6.51670000,Oberstedem,Rheinland-Pfalz,
54634,DE,49.93330000,6.50000000,Niederstedem,Rheinland-Pfalz,
54634,DE,49.98000000,6.58940000,Metterich,Rheinland-Pfalz,
54634,DE,49.96790000,6.52730000,Bitburg,Rheinland-Pfalz,
55131,DE,49.98230000,8.26090000,Mainz,Rheinland-Pfalz,
55232,DE,49.74660000,8.11510000,Alzey,Rheinland-Pfalz,
55232,DE,49.80640000,8.11560000,Ensheim,Rheinland-Pfalz,
55411,DE,49.96670000,7.89920000,Bingen am Rhein,Rheinland-Pfalz,
55430,DE,50.13330000,7.71670000,Urbar,Rheinland-Pfalz,
55430,DE,50.06670000,7.70000000,Perscheid,Rheinland-Pfalz,
55430,DE,50.10780000,7.72520000,Oberwesel,Rheinland-Pfalz,
55457,DE,49.90000000,7.96670000,Horrweiler,Rheinland-Pfalz,
55457,DE,49.90000000,7.93330000,Gensingen,Rheinland-Pfalz,
55469,DE,49.95000000,7.46670000,Schönborn,Rheinland-Pfalz,
55469,DE,49.96670000,7.48330000,Nannhausen,Rheinland-Pfalz,
55469,DE,49.96670000,7.50000000,Ohlweiler,Rheinland-Pfalz,
55469,DE,49.98200000,7.52350000,Simmern,Rheinland-Pfalz,
55469,DE,50.05000000,7.58330000,Riegenroth,Rheinland-Pfalz,
55469,DE,50.01670000,7.58330000,Rayerschied,Rheinland-Pfalz,
55469,DE,50.01670000,7.56670000,Pleizenhausen,Rheinland-Pfalz,
55469,DE,50.05000000,7.53330000,Horn,Rheinland-Pfalz,
55469,DE,49.98330000,7.56670000,Mutterschied,Rheinland-Pfalz,
55469,DE,49.95000000,7.53330000,Holzbach,Rheinland-Pfalz,
55469,DE,50.03330000,7.53330000,Klosterkumbd,Rheinland-Pfalz,
55469,DE,50.03330000,7.56670000,Budenbach,Rheinland-Pfalz,
55469,DE,49.98330000,7.56670000,Altweidelbach,Rheinland-Pfalz,
55469,DE,50.01670000,7.56670000,Bergenhausen,Rheinland-Pfalz,
55469,DE,49.95000000,7.48330000,Belgweiler,Rheinland-Pfalz,
55469,DE,50.01670000,7.53330000,Niederkumbd,Rheinland-Pfalz,
55469,DE,49.95000000,7.46670000,Oppertshausen,Rheinland-Pfalz,
55543,DE,49.83680000,7.86470000,Bad Kreuznach,Rheinland-Pfalz,
55590,DE,49.70720000,7.66770000,Meisenheim,Rheinland-Pfalz,
55606,DE,49.80880000,7.44990000,Oberhausen,Rheinland-Pfalz,
55606,DE,49.73330000,7.60000000,Bärweiler,Rheinland-Pfalz,
55606,DE,49.78910000,7.45770000,Kirn,Rheinland-Pfalz,
55606,DE,49.80000000,7.50000000,Hochstetten-Dhaun,Rheinland-Pfalz,
55606,DE,49.83330000,7.40000000,Bruschied,Rheinland-Pfalz,
55606,DE,49.81670000,7.50000000,Brauweiler,Rheinland-Pfalz,
55606,DE,49.73330000,7.55000000,Limbach,Rheinland-Pfalz,
55606,DE,49.81670000,7.48330000,Heinzenberg,Rheinland-Pfalz,
55606,DE,49.85000000,7.48330000,Kellenbach,Rheinland-Pfalz,
55606,DE,49.71670000,7.51670000,Otzweiler,Rheinland-Pfalz,
55606,DE,49.85000000,7.48330000,Königsau,Rheinland-Pfalz,
55606,DE,49.80960000,7.41980000,Hahnenbach,Rheinland-Pfalz,
55606,DE,49.81670000,7.51670000,Horbach,Rheinland-Pfalz,
55606,DE,49.75550000,7.49320000,Heimweiler,Rheinland-Pfalz,
55606,DE,49.78330000,7.50000000,Meckenbach,Rheinland-Pfalz,
55743,DE,49.75000000,7.25000000,Kirschweiler,Rheinland-Pfalz,
55743,DE,49.71440000,7.30780000,Idar-Oberstein,Rheinland-Pfalz,
55743,DE,49.73330000,7.40000000,Fischbach,Rheinland-Pfalz,
55743,DE,49.75000000,7.33330000,Gerach,Rheinland-Pfalz,
55743,DE,49.73330000,7.35000000,Hintertiefenbach,Rheinland-Pfalz,
55765,DE,49.68330000,7.16670000,Oberhambach,Rheinland-Pfalz,
55765,DE,49.65000000,7.21670000,Rimsberg,Rheinland-Pfalz,
55765,DE,49.65240000,7.16670000,Birkenfeld,Rheinland-Pfalz,
55765,DE,49.63330000,7.18330000,Dienstweiler,Rheinland-Pfalz,
55765,DE,49.61670000,7.15000000,Ellweiler,Rheinland-Pfalz,
55765,DE,49.66670000,7.20000000,Elchweiler,Rheinland-Pfalz,
55765,DE,49.63330000,7.13330000,Dambach,Rheinland-Pfalz,
55765,DE,49.65000000,7.15000000,Ellenberg,Rheinland-Pfalz,
55765,DE,49.66670000,7.20000000,Schmißberg,Rheinland-Pfalz,
56072,DE,50.35780000,7.52510000,Koblenz,Rheinland-Pfalz,
56073,DE,50.35860000,7.58120000,Koblenz,Rheinland-Pfalz,
56112,DE,50.30000000,7.61670000,Lahnstein,Rheinland-Pfalz,
56130,DE,50.33540000,7.71370000,Bad Ems,Rheinland-Pfalz,
56170,DE,50.42290000,7.57920000,Bendorf,Rheinland-Pfalz,
56179,DE,50.40000000,7.61670000,Niederwerth,Rheinland-Pfalz,
56179,DE,50.39590000,7.62430000,Vallendar,Rheinland-Pfalz,
56242,DE,50.51670000,7.75000000,Nordhofen,Rheinland-Pfalz,
56242,DE,50.51640000,7.72530000,Ellenhausen,Rheinland-Pfalz,
56242,DE,50.55000000,7.71670000,Marienrachdorf,Rheinland-Pfalz,
56242,DE,50.53250000,7.75580000,Selters,Rheinland-Pfalz,
56242,DE,50.52080000,7.79690000,Quirnbach,Rheinland-Pfalz,
56269,DE,50.56390000,7.69280000,Marienhausen,Rheinland-Pfalz,
56269,DE,50.54650000,7.65270000,Dierdorf,Rheinland-Pfalz,
56355,DE,50.24630000,7.74800000,Oberbachheim,Rheinland-Pfalz,
56355,DE,50.16670000,7.86670000,Diethardt,Rheinland-Pfalz,
56355,DE,50.23310000,7.86880000,Bettendorf,Rheinland-Pfalz,
56355,DE,50.25920000,7.75880000,Kehlbach,Rheinland-Pfalz,
56355,DE,50.15000000,7.88330000,Weidenbach,Rheinland-Pfalz,
56355,DE,50.20180000,7.81810000,Endlichhofen,Rheinland-Pfalz,
56355,DE,50.23640000,7.73900000,Winterwerb,Rheinland-Pfalz,
56355,DE,50.19880000,7.85890000,Nastätten,Rheinland-Pfalz,
56355,DE,50.16670000,7.83330000,Lautert,Rheinland-Pfalz,
56355,DE,50.24900000,7.83730000,Hunzel,Rheinland-Pfalz,
56368,DE,50.25890000,8.00710000,Berghausen,Rheinland-Pfalz,
56368,DE,50.27740000,7.93180000,Herold,Rheinland-Pfalz,
56368,DE,50.27210000,7.94250000,Ergeshausen,Rheinland-Pfalz,
56368,DE,50.26750000,7.97320000,Katzenelnbogen,Rheinland-Pfalz,
56368,DE,50.27550000,7.96970000,Klingelbach,Rheinland-Pfalz,
56368,DE,50.26690000,7.89630000,Roth,Rheinland-Pfalz,
56368,DE,50.25540000,7.89700000,Niedertiefenbach,Rheinland-Pfalz,
56377,DE,50.31670000,7.86670000,Seelbach,Rheinland-Pfalz,
56377,DE,50.28330000,7.75000000,Schweighausen,Rheinland-Pfalz,
56377,DE,50.31450000,7.80030000,Nassau,Rheinland-Pfalz,
56377,DE,50.30690000,7.76940000,Misselberg,Rheinland-Pfalz,
56410,DE,50.43590000,7.82320000,Montabaur,Rheinland-Pfalz,
56428,DE,50.46670000,7.78330000,Dernbach (Westerwald),Rheinland-Pfalz,
56564,DE,50.43260000,7.46300000,Neuwied,Rheinland-Pfalz,
56588,DE,50.55000000,7.41670000,Waldbreitbach,Rheinland-Pfalz,
56626,DE,50.43110000,7.40420000,Andernach,Rheinland-Pfalz,
56648,DE,50.38330000,7.41670000,Saffig,Rheinland-Pfalz,
56727,DE,50.32800000,7.22280000,Mayen,Rheinland-Pfalz,
56727,DE,50.31670000,7.15000000,Reudelsterz,Rheinland-Pfalz,
56727,DE,50.35000000,7.20000000,Sankt Johann,Rheinland-Pfalz,
56812,DE,50.14510000,7.16380000,Cochem,Rheinland-Pfalz,
56812,DE,50.12930000,7.12150000,Dohr,Rheinland-Pfalz,
56812,DE,50.15000000,7.21670000,Valwig,Rheinland-Pfalz,
56856,DE,50.02920000,7.18230000,Zell,Rheinland-Pfalz,
56864,DE,50.06670000,7.03330000,Bad Bertrich,Rheinland-Pfalz,
57537,DE,50.77910000,7.73470000,Wissen,Rheinland-Pfalz,
57537,DE,50.80000000,7.68330000,Forst,Rheinland-Pfalz,
57537,DE,50.77520000,7.80470000,Mittelhof,Rheinland-Pfalz,
57548,DE,50.80850000,7.88630000,Kirchen,Rheinland-Pfalz,
57610,DE,50.68300000,7.70750000,Ingelbach,Rheinland-Pfalz,
57610,DE,50.71670000,7.65000000,Bachenberg,Rheinland-Pfalz,
57610,DE,50.66670000,7.68330000,Gieleroth,Rheinland-Pfalz,
57610,DE,50.68330000,7.63330000,Almersbach,Rheinland-Pfalz,
57610,DE,50.68330000,7.66640000,Michelbach,Rheinland-Pfalz,
57610,DE,50.68590000,7.64180000,Altenkirchen,Rheinland-Pfalz,
57627,DE,50.66000000,7.82280000,Hachenburg,Rheinland-Pfalz,
57627,DE,50.69500000,7.77830000,Astert,Rheinland-Pfalz,
57627,DE,50.69110000,7.75580000,Marzhausen,Rheinland-Pfalz,
57627,DE,50.69910000,7.75980000,Heuzert,Rheinland-Pfalz,
57627,DE,50.64170000,7.82940000,Gehlert,Rheinland-Pfalz,
60311,DE,50.11120000,8.68310000,Frankfurt am Main,Hessen,Regierungsbezirk Darmstadt
60316,DE,50.12090000,8.69660000,Frankfurt am Main,Hessen,Regierungsbezirk Darmstadt
60389,DE,50.13830000,8.71160000,Frankfurt am Main,Hessen,Regierungsbezirk Darmstadt
60431,DE,50.14570000,8.65490000,Frankfurt am Main,Hessen,Regierungsbezirk Darmstadt
60487,DE,50.12570000,8.64140000,Frankfurt am Main,Hessen,Regierungsbezirk Darmstadt
60488,DE,50.14160000,8.61550000,Frankfurt am Main,Hessen,Regierungsbezirk Darmstadt
60528,DE,50.08370000,8.64400000,Frankfurt am Main,Hessen,Regierungsbezirk Darmstadt
60590,DE,0.00000000,0.00000000,Schwedt/Oder,Brandenburg,
60594,DE,50.10390000,8.68860000,Frankfurt am Main,Hessen,Regierungsbezirk Darmstadt
61231,DE,50.36460000,8.73860000,Bad Nauheim,Hessen,Regierungsbezirk Darmstadt
61352,DE,50.21670000,8.61670000,Bad Homburg vor der Höhe,Hessen,Regierungsbezirk Darmstadt
61381,DE,50.24960000,8.64280000,Friedrichsdorf,Hessen,Regierungsbezirk Darmstadt
61440,DE,50.20730000,8.57750000,Oberursel,Hessen,Regierungsbezirk Darmstadt
61462,DE,50.17940000,8.47130000,Königstein im Taunus,Hessen,Regierungsbezirk Darmstadt
61462,DE,50.18110000,8.47160000,Königstein im Taunus Falkenstein,Hessen,Regierungsbezirk Darmstadt
61462,DE,50.16670000,8.45000000,Königstein im Taunus Schneidhain,Hessen,Regierungsbezirk Darmstadt
61462,DE,50.18090000,8.47200000,Königstein im Taunus Mammolshain,Hessen,Regierungsbezirk Darmstadt
63069,DE,50.08940000,8.74940000,Offenbach,Hessen,Regierungsbezirk Darmstadt
63071,DE,50.09930000,8.78520000,Offenbach,Hessen,Regierungsbezirk Darmstadt
63225,DE,49.98960000,8.66850000,Langen,Hessen,Regierungsbezirk Darmstadt
63450,DE,50.13160000,8.92080000,Hanau,Hessen,Regierungsbezirk Darmstadt
63500,DE,50.04320000,8.97390000,Seligenstadt,Hessen,Regierungsbezirk Darmstadt
63571,DE,50.20160000,9.18740000,Gelnhausen,Hessen,Regierungsbezirk Darmstadt
63619,DE,50.22790000,9.34780000,Bad Orb,Hessen,Regierungsbezirk Darmstadt
63654,DE,50.29010000,9.11140000,Büdingen,Hessen,Regierungsbezirk Darmstadt
63667,DE,50.41330000,9.00640000,Nidda,Hessen,Regierungsbezirk Darmstadt
63679,DE,50.50350000,9.12520000,Schotten,Hessen,Reg.-Bez. Gießen
63739,DE,49.97570000,9.14780000,Aschaffenburg,Bayern,Regierungsbezirk Unterfranken
63897,DE,49.70450000,9.26730000,Miltenberg,Bayern,Regierungsbezirk Unterfranken
63906,DE,49.80340000,9.16310000,Erlenbach am Main,Bayern,Regierungsbezirk Unterfranken
65189,DE,50.07100000,8.25650000,Wiesbaden,Hessen,Regierungsbezirk Darmstadt
65191,DE,50.08760000,8.27970000,Wiesbaden,Hessen,Regierungsbezirk Darmstadt
65197,DE,50.07940000,8.21570000,Wiesbaden,Hessen,Regierungsbezirk Darmstadt
65199,DE,50.07340000,8.19600000,Wiesbaden,Hessen,Regierungsbezirk Darmstadt
65307,DE,50.14200000,8.06960000,Bad Schwalbach,Hessen,Regierungsbezirk Darmstadt
65346,DE,50.03330000,8.11670000,Eltville am Rhein,Hessen,Regierungsbezirk Darmstadt
65385,DE,49.98210000,7.92960000,Rüdesheim am Rhein,Hessen,Regierungsbezirk Darmstadt
65510,DE,50.23330000,8.18330000,Hünstetten,Hessen,Regierungsbezirk Darmstadt
65510,DE,50.21770000,8.26680000,Idstein,Hessen,Regierungsbezirk Darmstadt
65520,DE,50.29700000,8.26900000,Bad Camberg,Hessen,Reg.-Bez. Gießen
65549,DE,50.38300000,8.06110000,Limburg an der Lahn,Hessen,Reg.-Bez. Gießen
65582,DE,50.40000000,7.98330000,Hambach,Rheinland-Pfalz,
65582,DE,50.37420000,8.00740000,Diez,Rheinland-Pfalz,
65582,DE,50.38560000,8.00190000,Aull,Rheinland-Pfalz,
65719,DE,50.09020000,8.44930000,Hofheim am Taunus,Hessen,Regierungsbezirk Darmstadt
65779,DE,50.13700000,8.45020000,Kelkheim (Taunus),Hessen,Regierungsbezirk Darmstadt
65812,DE,50.14080000,8.50450000,Bad Soden am Taunus,Hessen,Regierungsbezirk Darmstadt
65929,DE,50.10450000,8.53890000,Frankfurt am Main,Hessen,Regierungsbezirk Darmstadt
66111,DE,49.24610000,7.00220000,Saarbrücken,Saarland,
66119,DE,49.20870000,7.02020000,Saarbrücken,Saarland,
66280,DE,49.30000000,7.06670000,Sulzbach/Saar,Saarland,
66346,DE,49.28550000,6.88720000,Püttlingen,Saarland,
66386,DE,49.27700000,7.11670000,Sankt Ingbert,Saarland,
66424,DE,49.32640000,7.33870000,Homburg,Saarland,
66482,DE,49.24690000,7.36980000,Zweibrücken,Rheinland-Pfalz,
66538,DE,49.34480000,7.17990000,Neunkirchen/Saar,Saarland,
66539,DE,49.33660000,7.21910000,Neunkirchen/Saar,Saarland,
66564,DE,49.40130000,7.16420000,Ottweiler,Saarland,
66606,DE,49.46630000,7.16810000,Sankt Wendel,Saarland,
66663,DE,49.44330000,6.63870000,Merzig,Saarland,
66679,DE,49.51810000,6.73500000,Losheim am See,Saarland,
66693,DE,49.49360000,6.59690000,Mettlach,Saarland,
66740,DE,49.31370000,6.75150000,Saarlouis,Saarland,
66798,DE,49.32750000,6.71100000,Wallerfangen,Saarland,
66802,DE,49.24190000,6.69840000,Überherrn,Saarland,
66822,DE,49.41120000,6.90990000,Lebach,Saarland,
66849,DE,49.41310000,7.57020000,Landstuhl,Rheinland-Pfalz,
66869,DE,49.55000000,7.36670000,Ruthweiler,Rheinland-Pfalz,
66869,DE,49.53770000,7.40470000,Kusel,Rheinland-Pfalz,
66869,DE,49.51400000,7.39160000,Schellweiler,Rheinland-Pfalz,
66869,DE,49.56670000,7.40000000,Blaubach,Rheinland-Pfalz,
66955,DE,49.18390000,7.61340000,Pirmasens,Rheinland-Pfalz,
66976,DE,49.23940000,7.63960000,Rodalben,Rheinland-Pfalz,
66994,DE,49.15100000,7.77840000,Dahn,Rheinland-Pfalz,
67063,DE,49.49900000,8.41090000,Ludwigshafen am Rhein,Rheinland-Pfalz,
67067,DE,49.48110000,8.43530000,Ludwigshafen am Rhein,Rheinland-Pfalz,
67071,DE,49.48900000,8.37910000,Ludwigshafen am Rhein,Rheinland-Pfalz,
67098,DE,49.45630000,8.08140000,Bad Dürkheim,Rheinland-Pfalz,
67227,DE,49.53860000,8.35400000,Frankenthal (Pfalz),Rheinland-Pfalz,
67269,DE,49.56300000,8.16280000,Grünstadt,Rheinland-Pfalz,
67294,DE,49.66470000,8.05830000,Rittersheim,Rheinland-Pfalz,
67294,DE,49.71810000,8.04610000,Mauchenheim,Rheinland-Pfalz,
67294,DE,49.67000000,8.03250000,Bischheim,Rheinland-Pfalz,
67294,DE,49.69670000,8.02610000,Morschheim,Rheinland-Pfalz,
67294,DE,49.69000000,8.07530000,Ilbesheim,Rheinland-Pfalz,
67294,DE,49.70000000,8.00000000,Orbis,Rheinland-Pfalz,
67294,DE,49.65970000,8.07190000,Gauersheim,Rheinland-Pfalz,
67294,DE,49.70000000,7.96670000,Oberwiesen,Rheinland-Pfalz,
67294,DE,49.66940000,8.09190000,Stetten,Rheinland-Pfalz,
67346,DE,49.32080000,8.43110000,Speyer,Rheinland-Pfalz,
67434,DE,49.35050000,8.13630000,Neustadt an der Weinstraße,Rheinland-Pfalz,
67550,DE,49.63560000,8.35970000,Worms,Rheinland-Pfalz,
67655,DE,49.44250000,7.76590000,Kaiserslautern,Rheinland-Pfalz,
67657,DE,49.44950000,7.79480000,Kaiserslautern,Rheinland-Pfalz,
67806,DE,49.63330000,7.73330000,Teschenmoschel,Rheinland-Pfalz,
67806,DE,49.65000000,7.75000000,Bisterschied,Rheinland-Pfalz,
67806,DE,49.63510000,7.88680000,Marienthal,Rheinland-Pfalz,
67806,DE,49.62970000,7.82130000,Rockenhausen,Rheinland-Pfalz,
67806,DE,49.64520000,7.80890000,Katzenbach,Rheinland-Pfalz,
67806,DE,49.61670000,7.75000000,Dörrmoschel,Rheinland-Pfalz,
67806,DE,49.61460000,7.79220000,Dörnbach,Rheinland-Pfalz,
68159,DE,49.49340000,8.46530000,Mannheim,Baden-Württemberg,Karlsruhe Region
68163,DE,49.48830000,8.46470000,Mannheim,Baden-Württemberg,Karlsruhe Region
68165,DE,49.47720000,8.48180000,Mannheim,Baden-Württemberg,Karlsruhe Region
68167,DE,49.49960000,8.49390000,Mannheim,Baden-Württemberg,Karlsruhe Region
68723,DE,49.39440000,8.59610000,Plankstadt,Baden-Württemberg,Karlsruhe Region
68723,DE,49.36530000,8.58310000,Oftersheim,Baden-Württemberg,Karlsruhe Region
68723,DE,49.38220000,8.58230000,Schwetzingen,Baden-Württemberg,Karlsruhe Region
69115,DE,49.40620000,8.68680000,Heidelberg,Baden-Württemberg,Karlsruhe Region
69117,DE,49.40950000,8.69350000,Heidelberg,Baden-Württemberg,Karlsruhe Region
69120,DE,49.41690000,8.67640000,Heidelberg,Baden-Württemberg,Karlsruhe Region
69121,DE,49.43220000,8.68240000,Heidelberg,Baden-Württemberg,Karlsruhe Region
69123,DE,49.41670000,8.70000000,Heidelberg,Baden-Württemberg,Karlsruhe Region
69126,DE,49.37570000,8.69110000,Heidelberg,Baden-Württemberg,Karlsruhe Region
69168,DE,49.29500000,8.69850000,Wiesloch,Baden-Württemberg,Karlsruhe Region
69412,DE,49.46680000,8.99020000,Eberbach,Baden-Württemberg,Karlsruhe Region
69469,DE,49.54890000,8.66700000,Weinheim,Baden-Württemberg,Karlsruhe Region
70174,DE,48.78270000,9.17200000,Stuttgart Stuttgart-Mitte,Baden-Württemberg,Regierungsbezirk Stuttgart
70174,DE,48.76670000,9.18330000,Stuttgart,Baden-Württemberg,Regierungsbezirk Stuttgart
70174,DE,48.79780000,9.19210000,Stuttgart Stuttgart-Nord,Baden-Württemberg,Regierungsbezirk Stuttgart
70176,DE,48.77520000,9.15850000,Stuttgart Stuttgart-Mitte,Baden-Württemberg,Regierungsbezirk Stuttgart
70176,DE,48.76670000,9.18330000,Stuttgart,Baden-Württemberg,Regierungsbezirk Stuttgart
70176,DE,48.77360000,9.16410000,Stuttgart Stuttgart-West,Baden-Württemberg,Regierungsbezirk Stuttgart
70178,DE,48.76670000,9.18330000,Stuttgart,Baden-Württemberg,Regierungsbezirk Stuttgart
70178,DE,48.76440000,9.16780000,Stuttgart Stuttgart-Süd,Baden-Württemberg,Regierungsbezirk Stuttgart
70178,DE,48.77360000,9.16410000,Stuttgart Stuttgart-West,Baden-Württemberg,Regierungsbezirk Stuttgart
70178,DE,48.77280000,9.17310000,Stuttgart Stuttgart-Mitte,Baden-Württemberg,Regierungsbezirk Stuttgart
70184,DE,48.76070000,9.22180000,Stuttgart Frauenkopf,Baden-Württemberg,Regierungsbezirk Stuttgart
70184,DE,48.76670000,9.18330000,Stuttgart,Baden-Württemberg,Regierungsbezirk Stuttgart
70184,DE,48.78190000,9.20790000,Stuttgart Stuttgart-Ost,Baden-Württemberg,Regierungsbezirk Stuttgart
70184,DE,48.76440000,9.16780000,Stuttgart Stuttgart-Süd,Baden-Württemberg,Regierungsbezirk Stuttgart
70184,DE,48.77590000,9.17980000,Stuttgart Stuttgart-Mitte,Baden-Württemberg,Regierungsbezirk Stuttgart
70190,DE,48.78870000,9.20190000,Stuttgart Stuttgart-Mitte,Baden-Württemberg,Regierungsbezirk Stuttgart
70190,DE,48.76670000,9.18330000,Stuttgart,Baden-Württemberg,Regierungsbezirk Stuttgart
70190,DE,48.78190000,9.20790000,Stuttgart Stuttgart-Ost,Baden-Württemberg,Regierungsbezirk Stuttgart
70199,DE,48.75820000,9.15090000,Stuttgart Stuttgart-West,Baden-Württemberg,Regierungsbezirk Stuttgart
70199,DE,48.76440000,9.16780000,Stuttgart Stuttgart-Süd,Baden-Württemberg,Regierungsbezirk Stuttgart
70199,DE,48.76670000,9.18330000,Stuttgart,Baden-Württemberg,Regierungsbezirk Stuttgart
70329,DE,48.76670000,9.18330000,Stuttgart,Baden-Württemberg,Regierungsbezirk Stuttgart
70329,DE,48.76180000,9.26190000,Stuttgart Rohracker,Baden-Württemberg,Regierungsbezirk Stuttgart
70329,DE,48.76460000,9.26830000,Stuttgart Obertürkheim,Baden-Württemberg,Regierungsbezirk Stuttgart
70329,DE,48.77620000,9.27880000,Stuttgart Uhlbach,Baden-Württemberg,Regierungsbezirk Stuttgart
70372,DE,48.80260000,9.21770000,Stuttgart,Baden-Württemberg,Regierungsbezirk Stuttgart
70372,DE,48.80560000,9.21410000,Stuttgart Bad Cannstatt,Baden-Württemberg,Regierungsbezirk Stuttgart
70376,DE,48.82130000,9.22000000,Stuttgart Münster,Baden-Württemberg,Regierungsbezirk Stuttgart
70376,DE,48.76670000,9.18330000,Stuttgart,Baden-Württemberg,Regierungsbezirk Stuttgart
70376,DE,48.81370000,9.21250000,Stuttgart Burgholzhof,Baden-Württemberg,Regierungsbezirk Stuttgart
70376,DE,48.80560000,9.21410000,Stuttgart Bad Cannstatt,Baden-Württemberg,Regierungsbezirk Stuttgart
70597,DE,48.76670000,9.18330000,Stuttgart,Baden-Württemberg,Regierungsbezirk Stuttgart
70597,DE,48.74250000,9.17390000,Stuttgart Hoffeld,Baden-Württemberg,Regierungsbezirk Stuttgart
70597,DE,48.74960000,9.17030000,Stuttgart Degerloch,Baden-Württemberg,Regierungsbezirk Stuttgart
70597,DE,48.74460000,9.15520000,Stuttgart Sonnenberg,Baden-Württemberg,Regierungsbezirk Stuttgart
70597,DE,48.72580000,9.14640000,Stuttgart Möhringen,Baden-Württemberg,Regierungsbezirk Stuttgart
70597,DE,48.73830000,9.12930000,Stuttgart Kaltental,Baden-Württemberg,Regierungsbezirk Stuttgart
70794,DE,48.65700000,9.22050000,Filderstadt,Baden-Württemberg,Regierungsbezirk Stuttgart
70839,DE,48.79950000,9.06320000,Gerlingen,Baden-Württemberg,Regierungsbezirk Stuttgart
71032,DE,48.68210000,9.01170000,Böblingen,Baden-Württemberg,Regierungsbezirk Stuttgart
71065,DE,48.70230000,9.02190000,Sindelfingen,Baden-Württemberg,Regierungsbezirk Stuttgart
71083,DE,48.59520000,8.86650000,Herrenberg,Baden-Württemberg,Regierungsbezirk Stuttgart
71229,DE,48.80000000,9.01670000,Leonberg,Baden-Württemberg,Regierungsbezirk Stuttgart
71332,DE,48.82850000,9.31310000,Waiblingen,Baden-Württemberg,Regierungsbezirk Stuttgart
71364,DE,48.87560000,9.39820000,Winnenden,Baden-Württemberg,Regierungsbezirk Stuttgart
71640,DE,48.89240000,9.21800000,Ludwigsburg,Baden-Württemberg,Regierungsbezirk Stuttgart
71672,DE,48.97000000,9.32860000,Marbach am Neckar,Baden-Württemberg,Regierungsbezirk Stuttgart
71706,DE,48.90490000,9.08060000,Markgröningen,Baden-Württemberg,Regierungsbezirk Stuttgart
72076,DE,48.53690000,9.05360000,Tübingen,Baden-Württemberg,Tübingen Region
72108,DE,48.47960000,8.95000000,Rottenburg am Neckar,Baden-Württemberg,Tübingen Region
72116,DE,48.40570000,9.05420000,Mössingen,Baden-Württemberg,Tübingen Region
72250,DE,48.46700000,8.41370000,Freudenstadt,Baden-Württemberg,Karlsruhe Region
72270,DE,48.50320000,8.37700000,Baiersbronn,Baden-Württemberg,Karlsruhe Region
72336,DE,48.27530000,8.85460000,Balingen,Baden-Württemberg,Tübingen Region
72461,DE,48.25100000,9.01820000,Albstadt,Baden-Württemberg,Tübingen Region
72488,DE,48.08830000,9.23030000,Sigmaringen,Baden-Württemberg,Tübingen Region
72501,DE,48.25240000,9.22350000,Gammertingen,Baden-Württemberg,Tübingen Region
72525,DE,48.41130000,9.49700000,Münsingen,Baden-Württemberg,Tübingen Region
72574,DE,48.49110000,9.40010000,Bad Urach,Baden-Württemberg,Tübingen Region
72622,DE,48.62560000,9.34200000,Nürtingen,Baden-Württemberg,Regierungsbezirk Stuttgart
72764,DE,48.49310000,9.21250000,Reutlingen,Baden-Württemberg,Tübingen Region
73033,DE,48.70750000,9.65140000,Göppingen,Baden-Württemberg,Regierungsbezirk Stuttgart
73035,DE,48.70000000,9.66670000,Göppingen,Baden-Württemberg,Regierungsbezirk Stuttgart
73230,DE,48.64680000,9.45380000,Kirchheim unter Teck,Baden-Württemberg,Regierungsbezirk Stuttgart
73430,DE,48.84090000,10.09310000,Aalen,Baden-Württemberg,Regierungsbezirk Stuttgart
73450,DE,48.75510000,10.33040000,Neresheim,Baden-Württemberg,Regierungsbezirk Stuttgart
73479,DE,48.96230000,10.15450000,Ellwangen (Jagst),Baden-Württemberg,Regierungsbezirk Stuttgart
73557,DE,48.82590000,9.79710000,Mutlangen,Baden-Württemberg,Regierungsbezirk Stuttgart
73614,DE,48.80540000,9.52720000,Schorndorf,Baden-Württemberg,Regierungsbezirk Stuttgart
73728,DE,48.73940000,9.30610000,Esslingen am Neckar,Baden-Württemberg,Regierungsbezirk Stuttgart
73730,DE,48.73230000,9.32550000,Esslingen am Neckar,Baden-Württemberg,Regierungsbezirk Stuttgart
73760,DE,48.72700000,9.24950000,Ostfildern,Baden-Württemberg,Regierungsbezirk Stuttgart
74074,DE,49.12860000,9.22140000,Heilbronn,Baden-Württemberg,Regierungsbezirk Stuttgart
74078,DE,49.15660000,9.17460000,Heilbronn,Baden-Württemberg,Regierungsbezirk Stuttgart
74177,DE,49.23440000,9.21450000,Bad Friedrichshall,Baden-Württemberg,Regierungsbezirk Stuttgart
74189,DE,49.15130000,9.28760000,Weinsberg,Baden-Württemberg,Regierungsbezirk Stuttgart
74245,DE,49.09560000,9.38000000,Löwenstein,Baden-Württemberg,Regierungsbezirk Stuttgart
74321,DE,48.94410000,9.11750000,Bietigheim-Bissingen,Baden-Württemberg,Regierungsbezirk Stuttgart
74523,DE,49.11130000,9.73910000,Schwäbisch Hall,Baden-Württemberg,Regierungsbezirk Stuttgart
74564,DE,49.13440000,10.07190000,Crailsheim,Baden-Württemberg,Regierungsbezirk Stuttgart
74613,DE,49.19880000,9.50720000,Öhringen,Baden-Württemberg,Regierungsbezirk Stuttgart
74722,DE,49.52000000,9.32400000,Buchen (Odenwald),Baden-Württemberg,Karlsruhe Region
74736,DE,49.61190000,9.47190000,Hardheim,Baden-Württemberg,Karlsruhe Region
74821,DE,49.35360000,9.15110000,Mosbach,Baden-Württemberg,Karlsruhe Region
74889,DE,49.25290000,8.87870000,Sinsheim,Baden-Württemberg,Karlsruhe Region
74906,DE,49.23850000,9.10180000,Bad Rappenau,Baden-Württemberg,Regierungsbezirk Stuttgart
75015,DE,49.03690000,8.70750000,Bretten,Baden-Württemberg,Karlsruhe Region
75175,DE,48.89150000,8.71560000,Pforzheim,Baden-Württemberg,Karlsruhe Region
75179,DE,48.90060000,8.66970000,Pforzheim,Baden-Württemberg,Karlsruhe Region
75223,DE,48.91670000,8.78330000,Niefern-Öschelbronn,Baden-Württemberg,Karlsruhe Region
75305,DE,48.84520000,8.59570000,Neuenbürg,Baden-Württemberg,Karlsruhe Region
75323,DE,48.75000000,8.55000000,Bad Wildbad im Schwarzwald,Baden-Württemberg,Karlsruhe Region
75328,DE,48.78710000,8.64500000,Schömberg,Baden-Württemberg,Karlsruhe Region
75365,DE,48.71420000,8.74030000,Calw,Baden-Württemberg,Karlsruhe Region
75378,DE,48.77430000,8.72970000,Bad Liebenzell,Baden-Württemberg,Karlsruhe Region
75417,DE,48.94750000,8.83670000,Mühlacker,Baden-Württemberg,Karlsruhe Region
75433,DE,48.99960000,8.80340000,Maulbronn,Baden-Württemberg,Karlsruhe Region
76133,DE,49.00830000,8.39790000,Karlsruhe,Baden-Württemberg,Karlsruhe Region
76185,DE,49.01110000,8.36010000,Karlsruhe,Baden-Württemberg,Karlsruhe Region
76199,DE,48.96610000,8.40430000,Karlsruhe,Baden-Württemberg,Karlsruhe Region
76307,DE,48.91670000,8.50000000,Karlsbad,Baden-Württemberg,Karlsruhe Region
76437,DE,48.85850000,8.20960000,Rastatt,Baden-Württemberg,Karlsruhe Region
76530,DE,48.75000000,8.25000000,Baden-Baden,Baden-Württemberg,Karlsruhe Region
76593,DE,48.77030000,8.34310000,Gernsbach,Baden-Württemberg,Karlsruhe Region
76596,DE,48.68330000,8.35000000,Forbach,Baden-Württemberg,Karlsruhe Region
76646,DE,49.12430000,8.59800000,Bruchsal,Baden-Württemberg,Karlsruhe Region
76669,DE,49.20690000,8.64360000,Bad Schönborn,Baden-Württemberg,Karlsruhe Region
76726,DE,49.22310000,8.36390000,Germersheim,Rheinland-Pfalz,
76829,DE,49.19840000,8.11690000,Landau in der Pfalz,Rheinland-Pfalz,
76829,DE,49.18330000,8.01920000,Leinsweiler,Rheinland-Pfalz,
76829,DE,49.19580000,8.02860000,Ranschbach,Rheinland-Pfalz,
76835,DE,49.25750000,8.10110000,Hainfeld,Rheinland-Pfalz,
76835,DE,49.26720000,8.08500000,Weyher in der Pfalz,Rheinland-Pfalz,
76835,DE,49.24220000,8.06940000,Gleisweiler,Rheinland-Pfalz,
76835,DE,49.26970000,8.10780000,Rhodt unter Rietburg,Rheinland-Pfalz,
76835,DE,49.24610000,8.11890000,Roschbach,Rheinland-Pfalz,
76835,DE,49.24280000,8.09500000,Flemlingen,Rheinland-Pfalz,
76835,DE,49.24780000,8.07830000,Burrweiler,Rheinland-Pfalz,
76855,DE,49.20610000,7.97530000,Annweiler am Trifels,Rheinland-Pfalz,
76870,DE,49.08280000,8.19720000,Kandel,Rheinland-Pfalz,
76887,DE,49.09690000,8.05830000,Oberhausen,Rheinland-Pfalz,
76887,DE,49.10350000,7.96080000,Bad Bergzabern,Rheinland-Pfalz,
76887,DE,49.10000000,7.93330000,Böllenborn,Rheinland-Pfalz,
76889,DE,49.08970000,7.96140000,Dörrenbach,Rheinland-Pfalz,
76889,DE,49.04830000,8.03690000,Steinfeld,Rheinland-Pfalz,
76889,DE,49.14610000,7.87190000,Oberschlettenbach,Rheinland-Pfalz,
76889,DE,49.05310000,7.95640000,Schweigen-Rechtenbach,Rheinland-Pfalz,
76889,DE,49.08080000,8.06720000,Dierbach,Rheinland-Pfalz,
76889,DE,49.03980000,7.99370000,Schweighofen,Rheinland-Pfalz,
76889,DE,49.12610000,8.00580000,Gleiszellen-Gleishorbach,Rheinland-Pfalz,
76889,DE,49.11670000,7.93330000,Birkenhördt,Rheinland-Pfalz,
76889,DE,49.10170000,8.03110000,Kapellen-Drusweiler,Rheinland-Pfalz,
76889,DE,49.13330000,7.88330000,Vorderweidenthal,Rheinland-Pfalz,
76889,DE,49.11530000,8.03420000,Niederhorbach,Rheinland-Pfalz,
76889,DE,49.11810000,8.00780000,Pleisweiler-Oberhofen,Rheinland-Pfalz,
76889,DE,49.14060000,8.01860000,Klingenmünster,Rheinland-Pfalz,
76889,DE,49.09890000,8.06920000,Barbelroth,Rheinland-Pfalz,
76889,DE,49.04390000,8.02170000,Kapsweyer,Rheinland-Pfalz,
76889,DE,49.06030000,8.04560000,Niederotterbach,Rheinland-Pfalz,
76889,DE,49.07040000,7.96960000,Oberotterbach,Rheinland-Pfalz,
77654,DE,48.46510000,7.95590000,Offenburg,Baden-Württemberg,Freiburg Region
77694,DE,48.57300000,7.81520000,Kehl,Baden-Württemberg,Freiburg Region
77704,DE,48.53240000,8.07860000,Oberkirch,Baden-Württemberg,Freiburg Region
77709,DE,48.31670000,8.21670000,Oberwolfach,Baden-Württemberg,Freiburg Region
77709,DE,48.29320000,8.21580000,Wolfach,Baden-Württemberg,Freiburg Region
77773,DE,48.31200000,8.37210000,Schenkenzell,Baden-Württemberg,Freiburg Region
77883,DE,48.56670000,8.15000000,Ottenhöfen im Schwarzwald,Baden-Württemberg,Freiburg Region
77933,DE,48.33720000,7.87040000,Lahr/Schwarzwald,Baden-Württemberg,Freiburg Region
77955,DE,48.25700000,7.81250000,Ettenheim,Baden-Württemberg,Freiburg Region
78052,DE,48.06670000,8.45000000,Villingen-Schwenningen,Baden-Württemberg,Freiburg Region
78073,DE,48.02090000,8.53060000,Bad Dürrheim,Baden-Württemberg,Freiburg Region
78126,DE,48.13810000,8.41970000,Königsfeld im Schwarzwald,Baden-Württemberg,Freiburg Region
78262,DE,47.70000000,8.75000000,Gailingen am Hochrhein,Baden-Württemberg,Freiburg Region
78315,DE,47.74190000,8.97100000,Radolfzell am Bodensee,Baden-Württemberg,Freiburg Region
78333,DE,47.85110000,9.00910000,Stockach,Baden-Württemberg,Freiburg Region
78464,DE,47.67230000,9.18340000,Konstanz,Baden-Württemberg,Freiburg Region
78476,DE,47.71540000,9.07140000,Allensbach,Baden-Württemberg,Freiburg Region
78479,DE,47.68890000,9.06350000,Reichenau,Baden-Württemberg,Freiburg Region
78532,DE,47.98460000,8.81770000,Tuttlingen,Baden-Württemberg,Freiburg Region
78628,DE,48.16780000,8.62720000,Rottweil,Baden-Württemberg,Freiburg Region
78727,DE,48.30050000,8.57380000,Oberndorf am Neckar,Baden-Württemberg,Freiburg Region
79100,DE,47.98090000,7.83270000,Freiburg im Breisgau,Baden-Württemberg,Freiburg Region
79104,DE,48.00980000,7.85450000,Freiburg im Breisgau,Baden-Württemberg,Freiburg Region
79106,DE,48.00000000,7.85000000,Freiburg im Breisgau,Baden-Württemberg,Freiburg Region
79110,DE,48.02070000,7.81670000,Freiburg im Breisgau,Baden-Württemberg,Freiburg Region
79117,DE,47.98740000,7.89450000,Freiburg im Breisgau,Baden-Württemberg,Freiburg Region
79183,DE,48.09590000,7.96370000,Waldkirch,Baden-Württemberg,Freiburg Region
79189,DE,47.91670000,7.70000000,Bad Krozingen,Baden-Württemberg,Freiburg Region
79206,DE,48.03280000,7.58290000,Breisach am Rhein,Baden-Württemberg,Freiburg Region
79215,DE,48.17250000,8.06990000,Elzach,Baden-Württemberg,Freiburg Region
79215,DE,48.20000000,8.03330000,Biederbach,Baden-Württemberg,Freiburg Region
79235,DE,48.08330000,7.63330000,Vogtsburg im Kaiserstuhl,Baden-Württemberg,Freiburg Region
79256,DE,47.96140000,8.00910000,Buchenbach,Baden-Württemberg,Freiburg Region
79312,DE,48.12100000,7.85360000,Emmendingen,Baden-Württemberg,Freiburg Region
79379,DE,47.80820000,7.63030000,Müllheim,Baden-Württemberg,Freiburg Region
79415,DE,47.73150000,7.55760000,Bad Bellingen,Baden-Württemberg,Freiburg Region
79539,DE,47.61810000,7.65890000,Lörrach,Baden-Württemberg,Freiburg Region
79618,DE,47.57230000,7.78420000,Rheinfelden,Baden-Württemberg,Freiburg Region
79650,DE,47.65110000,7.82090000,Schopfheim,Baden-Württemberg,Freiburg Region
79761,DE,47.62320000,8.21720000,Waldshut-Tiengen,Baden-Württemberg,Freiburg Region
79780,DE,47.74580000,8.44810000,Stühlingen,Baden-Württemberg,Freiburg Region
79822,DE,47.92100000,8.19060000,Titisee-Neustadt,Baden-Württemberg,Freiburg Region
79837,DE,47.75000000,8.16670000,Häusern,Baden-Württemberg,Freiburg Region
79837,DE,47.76250000,8.12710000,Sankt Blasien,Baden-Württemberg,Freiburg Region
79837,DE,47.73330000,8.06670000,Ibach,Baden-Württemberg,Freiburg Region
79856,DE,47.90280000,8.10700000,Hinterzarten,Baden-Württemberg,Freiburg Region
80331,DE,48.13450000,11.57100000,München,Bayern,Upper Bavaria
80335,DE,48.14270000,11.55520000,München,Bayern,Upper Bavaria
80336,DE,48.13450000,11.55900000,München,Bayern,Upper Bavaria
80337,DE,48.12240000,11.54490000,München,Bayern,Upper Bavaria
80538,DE,48.14010000,11.58850000,München,Bayern,Upper Bavaria
80539,DE,48.15000000,11.58330000,München,Bayern,Upper Bavaria
80634,DE,48.14920000,11.53280000,München,Bayern,Upper Bavaria
80636,DE,48.15580000,11.54090000,München,Bayern,Upper Bavaria
80637,DE,48.17250000,11.52840000,München,Bayern,Upper Bavaria
80638,DE,48.15950000,11.49320000,München,Bayern,Upper Bavaria
80639,DE,48.15260000,11.51540000,München,Bayern,Upper Bavaria
80799,DE,48.15000000,11.58330000,München,Bayern,Upper Bavaria
80802,DE,48.16650000,11.59030000,München,Bayern,Upper Bavaria
80804,DE,48.17380000,11.58580000,München,Bayern,Upper Bavaria
81241,DE,48.14750000,11.46350000,München,Bayern,Upper Bavaria
81369,DE,48.11250000,11.53060000,München,Bayern,Upper Bavaria
81375,DE,48.11880000,11.49170000,München,Bayern,Upper Bavaria
81377,DE,48.12040000,11.50010000,München,Bayern,Upper Bavaria
81379,DE,48.09880000,11.52040000,München,Bayern,Upper Bavaria
81479,DE,48.09150000,11.53920000,München,Bayern,Upper Bavaria
81539,DE,48.11020000,11.58990000,München,Bayern,Upper Bavaria
81545,DE,48.08270000,11.56190000,München,Bayern,Upper Bavaria
81547,DE,48.09820000,11.58210000,München,Bayern,Upper Bavaria
81679,DE,48.15120000,11.61030000,München,Bayern,Upper Bavaria
81737,DE,48.10980000,11.61830000,München,Bayern,Upper Bavaria
81925,DE,48.16420000,11.62180000,München,Bayern,Upper Bavaria
81927,DE,48.16110000,11.63940000,München,Bayern,Upper Bavaria
82131,DE,48.06920000,11.37700000,Gauting,Bayern,Upper Bavaria
82152,DE,48.10670000,11.42480000,Planegg,Bayern,Upper Bavaria
82152,DE,48.10000000,11.40000000,Krailling,Bayern,Upper Bavaria
82166,DE,48.11880000,11.42940000,Gräfelfing,Bayern,Upper Bavaria
82211,DE,47.99890000,11.17680000,Herrsching am Ammersee,Bayern,Upper Bavaria
82229,DE,48.03510000,11.21400000,Seefeld,Bayern,Upper Bavaria
82256,DE,48.17900000,11.25470000,Fürstenfeldbruck,Bayern,Upper Bavaria
82319,DE,48.00190000,11.34420000,Starnberg,Bayern,Upper Bavaria
82327,DE,47.90940000,11.28030000,Tutzing,Bayern,Upper Bavaria
82335,DE,47.96740000,11.35450000,Berg,Bayern,Upper Bavaria
82340,DE,47.94600000,11.29330000,Feldafing,Bayern,Upper Bavaria
82362,DE,47.83760000,11.14890000,Weilheim in Oberbayern,Bayern,Upper Bavaria
82377,DE,47.75290000,11.37700000,Penzberg,Bayern,Upper Bavaria
82418,DE,47.68930000,11.18500000,Seehausen am Staffelsee,Bayern,Upper Bavaria
82418,DE,47.68080000,11.20120000,Murnau am Staffelsee,Bayern,Upper Bavaria
82418,DE,47.69870000,11.23390000,Riegsee,Bayern,Upper Bavaria
82467,DE,47.49210000,11.09580000,Garmisch-Partenkirchen,Bayern,Upper Bavaria
82487,DE,47.59810000,11.06690000,Oberammergau,Bayern,Upper Bavaria
82515,DE,47.91290000,11.42170000,Wolfratshausen,Bayern,Upper Bavaria
83022,DE,47.85500000,12.12320000,Rosenheim,Bayern,Upper Bavaria
83024,DE,47.87480000,12.11100000,Rosenheim,Bayern,Upper Bavaria
83034,DE,0.00000000,0.00000000,Korb,Baden-Württemberg,
83043,DE,47.86380000,12.01050000,Bad Aibling,Bayern,Upper Bavaria
83080,DE,47.64820000,12.17240000,Oberaudorf,Bayern,Upper Bavaria
83093,DE,47.90900000,12.29790000,Bad Endorf,Bayern,Upper Bavaria
83209,DE,47.85600000,12.34620000,Prien am Chiemsee,Bayern,Upper Bavaria
83229,DE,47.77690000,12.32300000,Aschau im Chiemgau,Bayern,Upper Bavaria
83233,DE,47.81170000,12.37570000,Bernau am Chiemsee,Bayern,Upper Bavaria
83278,DE,47.86820000,12.64330000,Traunstein,Bayern,Upper Bavaria
83308,DE,48.01750000,12.53460000,Trostberg,Bayern,Upper Bavaria
83324,DE,47.76670000,12.65000000,Ruhpolding,Bayern,Upper Bavaria
83395,DE,47.84090000,12.98110000,Freilassing,Bayern,Upper Bavaria
83413,DE,47.99770000,12.82630000,Fridolfing,Bayern,Upper Bavaria
83435,DE,47.72950000,12.87820000,Bad Reichenhall,Bayern,Upper Bavaria
83471,DE,47.60050000,12.98700000,Schönau am Königssee,Bayern,Upper Bavaria
83471,DE,47.63240000,13.00190000,Berchtesgaden,Bayern,Upper Bavaria
83512,DE,48.05250000,12.22340000,Wasserburg am Inn,Bayern,Upper Bavaria
83527,DE,48.17540000,12.19650000,Kirchdorf,Bayern,Upper Bavaria
83527,DE,48.16200000,12.17940000,Haag in Oberbayern,Bayern,Upper Bavaria
83569,DE,47.94690000,12.18130000,Vogtareuth,Bayern,Upper Bavaria
83646,DE,47.76110000,11.55890000,Bad Tölz,Bayern,Upper Bavaria
83646,DE,47.73330000,11.55000000,Wackersberg,Bayern,Upper Bavaria
83670,DE,47.74670000,11.45930000,Bad Heilbrunn,Bayern,Upper Bavaria
83734,DE,47.74660000,11.84070000,Hausham,Bayern,Upper Bavaria
84034,DE,48.53590000,12.13250000,Landshut,Bayern,Lower Bavaria
84036,DE,48.50940000,12.15640000,Kumhausen,Bayern,Lower Bavaria
84036,DE,48.52650000,12.15750000,Landshut,Bayern,Lower Bavaria
84048,DE,48.64180000,11.78090000,Mainburg,Bayern,Lower Bavaria
84056,DE,48.70230000,12.02720000,Rottenburg an der Laaber,Bayern,Lower Bavaria
84066,DE,48.76640000,12.23100000,Mallersdorf-Pfaffenberg,Bayern,Lower Bavaria
84130,DE,48.64240000,12.49280000,Dingolfing,Bayern,Lower Bavaria
84137,DE,48.45300000,12.35600000,Vilsbiburg,Bayern,Lower Bavaria
84307,DE,48.40510000,12.75750000,Eggenfelden,Bayern,Lower Bavaria
84347,DE,48.43200000,12.93810000,Pfarrkirchen,Bayern,Lower Bavaria
84359,DE,48.26550000,13.02310000,Simbach am Inn,Bayern,Lower Bavaria
84405,DE,48.27040000,12.16060000,Dorfen,Bayern,Upper Bavaria
84416,DE,48.34690000,12.07510000,Inning am Holz,Bayern,Upper Bavaria
84416,DE,48.33740000,12.19740000,Taufkirchen (Vils),Bayern,Upper Bavaria
84453,DE,48.25030000,12.52150000,Mühldorf am Inn,Bayern,Upper Bavaria
84489,DE,48.16930000,12.83140000,Burghausen,Bayern,Upper Bavaria
84503,DE,48.22530000,12.67660000,Altötting,Bayern,Upper Bavaria
85049,DE,48.76670000,11.41470000,Ingolstadt,Bayern,Upper Bavaria
85072,DE,48.88850000,11.19680000,Eichstätt,Bayern,Upper Bavaria
85092,DE,48.81400000,11.50490000,Kösching,Bayern,Upper Bavaria
85110,DE,48.95260000,11.39750000,Kipfenberg,Bayern,Upper Bavaria
85221,DE,48.26000000,11.43400000,Dachau,Bayern,Upper Bavaria
85229,DE,48.36060000,11.37790000,Markt Indersdorf,Bayern,Upper Bavaria
85276,DE,48.50000000,11.50000000,Hettenshausen,Bayern,Upper Bavaria
85276,DE,48.53050000,11.50500000,Pfaffenhofen an der Ilm,Bayern,Upper Bavaria
85354,DE,48.39380000,11.73310000,Freising,Bayern,Upper Bavaria
85435,DE,48.30600000,11.90690000,Erding,Bayern,Upper Bavaria
85456,DE,48.40600000,11.98860000,Wartenberg,Bayern,Upper Bavaria
85540,DE,48.10880000,11.72650000,Haar,Bayern,Upper Bavaria
85560,DE,48.07710000,11.97060000,Ebersberg,Bayern,Upper Bavaria
86150,DE,48.36730000,10.89210000,Augsburg,Bayern,Swabia
86152,DE,48.37180000,10.89250000,Augsburg,Bayern,Swabia
86154,DE,48.39320000,10.88140000,Augsburg,Bayern,Swabia
86156,DE,48.38150000,10.85480000,Augsburg,Bayern,Swabia
86199,DE,48.32910000,10.85780000,Augsburg,Bayern,Swabia
86316,DE,48.35690000,10.98460000,Friedberg,Bayern,Swabia
86381,DE,48.24180000,10.36320000,Krumbach,Bayern,Swabia
86391,DE,48.36640000,10.84640000,Stadtbergen,Bayern,Swabia
86399,DE,48.27090000,10.83390000,Bobingen,Bayern,Swabia
86513,DE,48.26430000,10.44590000,Ursberg,Bayern,Swabia
86529,DE,48.56070000,11.26070000,Schrobenhausen,Bayern,Upper Bavaria
86551,DE,48.45760000,11.13410000,Aichach,Bayern,Swabia
86609,DE,48.71800000,10.77930000,Donauwörth,Bayern,Swabia
86633,DE,48.73220000,11.18710000,Neuburg an der Donau,Bayern,Upper Bavaria
86637,DE,48.56310000,10.68150000,Wertingen,Bayern,Swabia
86720,DE,48.85120000,10.48870000,Nördlingen,Bayern,Swabia
86732,DE,48.95270000,10.60460000,Oettingen in Bayern,Bayern,Swabia
86807,DE,48.03720000,10.72550000,Buchloe,Bayern,Swabia
86830,DE,48.17930000,10.75680000,Schwabmünchen,Bayern,Swabia
86899,DE,48.04820000,10.88280000,Landsberg am Lech,Bayern,Upper Bavaria
86911,DE,47.95080000,11.10310000,Dießen am Ammersee,Bayern,Upper Bavaria
86949,DE,48.06670000,11.03330000,Windach,Bayern,Upper Bavaria
86956,DE,47.81240000,10.89660000,Schongau,Bayern,Upper Bavaria
87439,DE,47.71770000,10.29890000,Kempten,Bayern,Swabia
87459,DE,47.58220000,10.54960000,Pfronten,Bayern,Swabia
87509,DE,47.56000000,10.21390000,Immenstadt im Allgäu,Bayern,Swabia
87527,DE,47.51820000,10.28260000,Sonthofen,Bayern,Swabia
87527,DE,47.50000000,10.23330000,Ofterschwang,Bayern,Swabia
87561,DE,47.40720000,10.27940000,Oberstdorf,Bayern,Swabia
87600,DE,47.88240000,10.62190000,Kaufbeuren,Bayern,Swabia
87629,DE,47.57140000,10.70170000,Füssen,Bayern,Swabia
87634,DE,47.84550000,10.41820000,Obergünzburg,Bayern,Swabia
87634,DE,47.82490000,10.43550000,Günzach,Bayern,Swabia
87700,DE,47.98370000,10.18530000,Memmingen,Bayern,Swabia
87719,DE,48.04580000,10.49220000,Mindelheim,Bayern,Swabia
87724,DE,47.94130000,10.29970000,Ottobeuren,Bayern,Swabia
88048,DE,47.67270000,9.42990000,Friedrichshafen,Baden-Württemberg,Tübingen Region
88069,DE,47.66860000,9.59130000,Tettnang,Baden-Württemberg,Tübingen Region
88074,DE,47.70000000,9.56670000,Meckenbeuren,Baden-Württemberg,Tübingen Region
88131,DE,47.55010000,9.70850000,Lindau (Bodensee),Bayern,Swabia
88131,DE,47.56670000,9.66670000,Bodolz,Bayern,Swabia
88161,DE,47.60280000,9.88550000,Lindenberg im Allgäu,Bayern,Swabia
88167,DE,47.65000000,10.05000000,Maierhöfen,Bayern,Swabia
88167,DE,47.59320000,10.00370000,Stiefenhofen,Bayern,Swabia
88167,DE,47.62860000,10.00840000,Grünenbach,Bayern,Swabia
88167,DE,47.65000000,9.98330000,Gestratz,Bayern,Swabia
88167,DE,47.61670000,9.98330000,Röthenbach (Allgäu),Bayern,Swabia
88175,DE,47.58140000,9.84830000,Scheidegg,Bayern,Swabia
88212,DE,47.78150000,9.61830000,Ravensburg,Baden-Württemberg,Tübingen Region
88214,DE,47.78140000,9.61180000,Ravensburg,Baden-Württemberg,Tübingen Region
88239,DE,47.68950000,9.83250000,Wangen im Allgäu,Baden-Württemberg,Tübingen Region
88250,DE,47.81010000,9.63860000,Weingarten,Baden-Württemberg,Tübingen Region
88326,DE,47.95080000,9.63740000,Aulendorf,Baden-Württemberg,Tübingen Region
88339,DE,47.92030000,9.75490000,Bad Waldsee,Baden-Württemberg,Tübingen Region
88348,DE,48.01230000,9.50350000,Bad Saulgau,Baden-Württemberg,Tübingen Region
88348,DE,48.02850000,9.59360000,Allmannsweiler,Baden-Württemberg,Tübingen Region
88400,DE,48.09340000,9.79050000,Biberach an der Riß,Baden-Württemberg,Tübingen Region
88400,DE,48.10080000,9.81280000,Biberach an der Riß Bergerhausen,Baden-Württemberg,Tübingen Region
88422,DE,48.10360000,9.62180000,Alleshausen,Baden-Württemberg,Tübingen Region
88422,DE,48.06030000,9.55530000,Dürnau,Baden-Württemberg,Tübingen Region
88422,DE,48.11670000,9.56670000,Betzenweiler,Baden-Württemberg,Tübingen Region
88422,DE,48.06230000,9.61240000,Bad Buchau,Baden-Württemberg,Tübingen Region
88422,DE,48.07800000,9.55890000,Kanzach,Baden-Württemberg,Tübingen Region
88422,DE,48.06670000,9.65000000,Oggelshausen,Baden-Württemberg,Tübingen Region
88422,DE,48.10000000,9.65000000,Seekirch,Baden-Württemberg,Tübingen Region
88422,DE,48.08330000,9.65000000,Tiefenbach,Baden-Württemberg,Tübingen Region
88422,DE,48.08330000,9.60000000,Moosburg,Baden-Württemberg,Tübingen Region
88427,DE,48.00470000,9.65740000,Bad Schussenried,Baden-Württemberg,Tübingen Region
88427,DE,48.01860000,9.68340000,Bad Schussenried Dunzenhausen,Baden-Württemberg,Tübingen Region
88477,DE,48.17420000,9.97540000,Schwendi,Baden-Württemberg,Tübingen Region
88529,DE,48.23400000,9.46230000,Zwiefalten,Baden-Württemberg,Tübingen Region
88630,DE,47.92610000,9.25780000,Pfullendorf,Baden-Württemberg,Tübingen Region
88662,DE,47.76980000,9.17140000,Überlingen,Baden-Württemberg,Tübingen Region
89073,DE,48.40150000,9.99270000,Ulm,Baden-Württemberg,Tübingen Region
89081,DE,48.44590000,9.98900000,Ulm Jungingen,Baden-Württemberg,Tübingen Region
89081,DE,48.43910000,9.98230000,Ulm,Baden-Württemberg,Tübingen Region
89134,DE,48.41810000,9.91060000,Blaustein,Baden-Württemberg,Tübingen Region
89231,DE,48.40000000,10.01670000,Neu-Ulm,Bayern,Swabia
89257,DE,48.22340000,10.10350000,Illertissen,Bayern,Swabia
89264,DE,48.30500000,10.16050000,Weißenhorn,Bayern,Swabia
89312,DE,48.45600000,10.27700000,Günzburg,Bayern,Swabia
89331,DE,48.43160000,10.40990000,Burgau,Bayern,Swabia
89335,DE,48.37120000,10.30710000,Ichenhausen,Bayern,Swabia
89407,DE,48.58150000,10.49530000,Dillingen an der Donau,Bayern,Swabia
89522,DE,48.68330000,10.15000000,Heidenheim an der Brenz,Baden-Württemberg,Regierungsbezirk Stuttgart
89584,DE,48.25620000,9.58030000,Lauterach,Baden-Württemberg,Tübingen Region
89584,DE,48.28640000,9.68750000,Ehingen an der Donau,Baden-Württemberg,Tübingen Region
90419,DE,49.46390000,11.06710000,Nürnberg,Bayern,Regierungsbezirk Mittelfranken
90429,DE,49.45990000,11.02750000,Nürnberg,Bayern,Regierungsbezirk Mittelfranken
90449,DE,49.41770000,11.02970000,Nürnberg,Bayern,Regierungsbezirk Mittelfranken
90471,DE,49.41700000,11.12510000,Nürnberg,Bayern,Regierungsbezirk Mittelfranken
90480,DE,49.43710000,11.11940000,Nürnberg,Bayern,Regierungsbezirk Mittelfranken
90491,DE,49.47410000,11.12960000,Nürnberg,Bayern,Regierungsbezirk Mittelfranken
90518,DE,49.38560000,11.35730000,Altdorf,Bayern,Regierungsbezirk Mittelfranken
90592,DE,49.35780000,11.24330000,Schwarzenbruck,Bayern,Regierungsbezirk Mittelfranken
90763,DE,49.50690000,10.95650000,Fürth,Bayern,Regierungsbezirk Mittelfranken
90766,DE,49.48650000,10.96080000,Fürth,Bayern,Regierungsbezirk Mittelfranken
91054,DE,49.59320000,11.05040000,Buckenhof,Bayern,Regierungsbezirk Mittelfranken
91054,DE,49.59880000,11.00870000,Erlangen,Bayern,Regierungsbezirk Mittelfranken
91056,DE,49.59860000,10.96750000,Erlangen,Bayern,Regierungsbezirk Mittelfranken
91074,DE,49.56800000,10.88560000,Herzogenaurach,Bayern,Regierungsbezirk Mittelfranken
91126,DE,49.33050000,11.02350000,Schwabach,Bayern,Regierungsbezirk Mittelfranken
91126,DE,49.29320000,10.97280000,Kammerstein,Bayern,Regierungsbezirk Mittelfranken
91126,DE,49.30090000,11.08000000,Rednitzhembach,Bayern,Regierungsbezirk Mittelfranken
91154,DE,49.25970000,11.14570000,Roth,Bayern,Regierungsbezirk Mittelfranken
91207,DE,49.51390000,11.28250000,Lauf an der Pegnitz,Bayern,Regierungsbezirk Mittelfranken
91217,DE,49.51080000,11.43150000,Hersbruck,Bayern,Regierungsbezirk Mittelfranken
91238,DE,49.47180000,11.39940000,Engelthal,Bayern,Regierungsbezirk Mittelfranken
91238,DE,49.44970000,11.41320000,Offenhausen,Bayern,Regierungsbezirk Mittelfranken
91257,DE,49.75220000,11.54190000,Pegnitz,Bayern,Upper Franconia
91275,DE,49.69380000,11.62100000,Auerbach in der Oberpfalz,Bayern,Upper Palatinate
91315,DE,49.70620000,10.81330000,Höchstadt an der Aisch,Bayern,Regierungsbezirk Mittelfranken
91320,DE,49.78150000,11.18170000,Ebermannstadt,Bayern,Upper Franconia
91413,DE,49.57950000,10.61130000,Neustadt an der Aisch,Bayern,Regierungsbezirk Mittelfranken
91438,DE,49.50270000,10.41540000,Bad Windsheim,Bayern,Regierungsbezirk Mittelfranken
91522,DE,49.30480000,10.59310000,Ansbach,Bayern,Regierungsbezirk Mittelfranken
91541,DE,49.37890000,10.18710000,Rothenburg ob der Tauber,Bayern,Regierungsbezirk Mittelfranken
91550,DE,49.06940000,10.31990000,Dinkelsbühl,Bayern,Regierungsbezirk Mittelfranken
91564,DE,49.28330000,10.78330000,Neuendettelsau,Bayern,Regierungsbezirk Mittelfranken
91710,DE,49.11660000,10.75970000,Gunzenhausen,Bayern,Regierungsbezirk Mittelfranken
91781,DE,49.03090000,10.97220000,Weißenburg in Bayern,Bayern,Regierungsbezirk Mittelfranken
92224,DE,49.44290000,11.86270000,Amberg,Bayern,Upper Palatinate
92237,DE,49.50130000,11.74600000,Sulzbach-Rosenberg,Bayern,Upper Palatinate
92318,DE,49.28030000,11.46280000,Neumarkt in der Oberpfalz,Bayern,Upper Palatinate
92331,DE,49.15510000,11.75640000,Lupburg,Bayern,Upper Palatinate
92331,DE,49.16070000,11.71830000,Parsberg,Bayern,Upper Palatinate
92413,DE,0.00000000,0.00000000,,,
92421,DE,49.32360000,12.09930000,Schwandorf,Bayern,Upper Palatinate
92526,DE,49.45810000,12.41670000,Oberviechtach,Bayern,Upper Palatinate
92637,DE,49.67680000,12.15610000,Weiden,Bayern,Upper Palatinate
92637,DE,49.69030000,12.22740000,Theisseil,Bayern,Upper Palatinate
92648,DE,49.62380000,12.33810000,Vohenstrauß,Bayern,Upper Palatinate
92721,DE,49.73230000,12.20550000,Störnstein,Bayern,Upper Palatinate
93049,DE,49.01530000,12.05770000,Regensburg,Bayern,Upper Palatinate
93053,DE,48.99650000,12.12020000,Regensburg,Bayern,Upper Palatinate
93077,DE,48.93750000,12.04490000,Bad Abbach,Bayern,Lower Bavaria
93086,DE,49.00090000,12.40540000,Wörth an der Donau,Bayern,Upper Palatinate
93093,DE,49.03260000,12.20460000,Donaustauf,Bayern,Upper Palatinate
93133,DE,49.20380000,12.04450000,Burglengenfeld,Bayern,Upper Palatinate
93309,DE,48.91730000,11.88620000,Kelheim,Bayern,Lower Bavaria
93333,DE,48.80710000,11.76950000,Neustadt an der Donau,Bayern,Lower Bavaria
93413,DE,49.22570000,12.65500000,Cham,Bayern,Upper Palatinate
93426,DE,49.19430000,12.51960000,Roding,Bayern,Upper Palatinate
93444,DE,49.17650000,12.85520000,Kötzting,Bayern,Upper Palatinate
93449,DE,49.37800000,12.70910000,Waldmünchen,Bayern,Upper Palatinate
94032,DE,48.57320000,13.45060000,Passau,Bayern,Lower Bavaria
94072,DE,48.35100000,13.31200000,Bad Füssing,Bayern,Lower Bavaria
94078,DE,48.80950000,13.54770000,Freyung,Bayern,Lower Bavaria
94086,DE,48.45570000,13.19390000,Bad Griesbach im Rottal,Bayern,Lower Bavaria
94094,DE,48.36080000,13.19240000,Malching,Bayern,Lower Bavaria
94094,DE,48.35820000,13.20160000,Rotthalmünster,Bayern,Lower Bavaria
94110,DE,48.60140000,13.78730000,Wegscheid,Bayern,Lower Bavaria
94227,DE,49.03680000,13.25420000,Lindberg,Bayern,Lower Bavaria
94227,DE,49.01690000,13.23770000,Zwiesel,Bayern,Lower Bavaria
94234,DE,49.08000000,12.88570000,Viechtach,Bayern,Lower Bavaria
94315,DE,48.88130000,12.57390000,Straubing,Bayern,Lower Bavaria
94327,DE,48.91120000,12.68960000,Bogen,Bayern,Lower Bavaria
94405,DE,48.67250000,12.69320000,Landau an der Isar,Bayern,Lower Bavaria
94469,DE,48.84090000,12.96070000,Deggendorf,Bayern,Lower Bavaria
94474,DE,48.62690000,13.19220000,Vilshofen,Bayern,Lower Bavaria
94481,DE,48.85770000,13.39740000,Grafenau,Bayern,Lower Bavaria
94486,DE,48.70000000,13.02220000,Osterhofen,Bayern,Lower Bavaria
95032,DE,50.29530000,11.91030000,Hof,Bayern,Upper Franconia
95100,DE,50.17060000,12.13050000,Selb,Bayern,Upper Franconia
95111,DE,50.24920000,12.03420000,Rehau,Bayern,Upper Franconia
95119,DE,50.33030000,11.70460000,Naila,Bayern,Upper Franconia
95138,DE,50.36650000,11.64440000,Bad Steben,Bayern,Upper Franconia
95213,DE,50.18950000,11.78820000,Münchberg,Bayern,Upper Franconia
95326,DE,50.10070000,11.45030000,Kulmbach,Bayern,Upper Franconia
95346,DE,50.16430000,11.50350000,Stadtsteinach,Bayern,Upper Franconia
95445,DE,49.94310000,11.55920000,Bayreuth,Bayern,Upper Franconia
95478,DE,49.87010000,11.89080000,Kemnath,Bayern,Upper Palatinate
95615,DE,50.00440000,12.08590000,Marktredwitz,Bayern,Upper Franconia
95643,DE,49.88260000,12.33110000,Tirschenreuth,Bayern,Upper Palatinate
96049,DE,49.88000000,10.88340000,Bamberg,Bayern,Upper Franconia
96106,DE,50.09550000,10.79830000,Ebern,Bayern,Regierungsbezirk Unterfranken
96110,DE,49.97570000,11.03300000,Scheßlitz,Bayern,Upper Franconia
96138,DE,49.82830000,10.74340000,Burgebrach,Bayern,Upper Franconia
96215,DE,50.14570000,11.05930000,Lichtenfels,Bayern,Upper Franconia
96231,DE,50.10200000,11.00130000,Bad Staffelstein,Bayern,Upper Franconia
96250,DE,50.06640000,10.95830000,Ebensfeld,Bayern,Upper Franconia
96317,DE,50.23960000,11.33310000,Kronach,Bayern,Upper Franconia
96450,DE,50.25940000,10.96380000,Coburg,Bayern,Upper Franconia
96465,DE,50.32980000,11.12060000,Neustadt bei Coburg,Bayern,Upper Franconia
96476,DE,50.33330000,10.78330000,Bad Rodach,Bayern,Upper Franconia
96515,DE,50.35920000,11.17460000,Sonneberg,Thüringen,
97070,DE,49.79710000,9.93370000,Würzburg,Bayern,Regierungsbezirk Unterfranken
97074,DE,49.78020000,9.94160000,Würzburg,Bayern,Regierungsbezirk Unterfranken
97076,DE,49.80440000,9.97700000,Würzburg,Bayern,Regierungsbezirk Unterfranken
97080,DE,49.80170000,9.90580000,Würzburg,Bayern,Regierungsbezirk Unterfranken
97215,DE,49.53330000,10.13330000,Simmershofen,Bayern,Regierungsbezirk Mittelfranken
97215,DE,49.57580000,10.26440000,Weigenheim,Bayern,Regierungsbezirk Mittelfranken
97215,DE,49.54410000,10.23290000,Uffenheim,Bayern,Regierungsbezirk Mittelfranken
97318,DE,49.73970000,10.15070000,Kitzingen,Bayern,Regierungsbezirk Unterfranken
97318,DE,49.76670000,10.08330000,Biebelried,Bayern,Regierungsbezirk Unterfranken
97332,DE,49.86350000,10.22810000,Volkach,Bayern,Regierungsbezirk Unterfranken
97421,DE,50.04420000,10.22670000,Schweinfurt,Bayern,Regierungsbezirk Unterfranken
97422,DE,50.05450000,10.24410000,Schweinfurt,Bayern,Regierungsbezirk Unterfranken
97437,DE,50.03520000,10.51560000,Haßfurt,Bayern,Regierungsbezirk Unterfranken
97440,DE,49.98200000,10.09880000,Werneck,Bayern,Regierungsbezirk Unterfranken
97447,DE,49.88730000,10.31430000,Frankenwinheim,Bayern,Regierungsbezirk Unterfranken
97447,DE,49.90020000,10.34830000,Gerolzhofen,Bayern,Regierungsbezirk Unterfranken
97616,DE,50.32170000,10.20670000,Bad Neustadt an der Saale,Bayern,Regierungsbezirk Unterfranken
97616,DE,50.30840000,10.21200000,Salz,Bayern,Regierungsbezirk Unterfranken
97688,DE,50.20230000,10.07780000,Bad Kissingen,Bayern,Regierungsbezirk Unterfranken
97702,DE,50.24640000,10.20190000,Münnerstadt,Bayern,Regierungsbezirk Unterfranken
97762,DE,50.11630000,9.89140000,Hammelburg,Bayern,Regierungsbezirk Unterfranken
97769,DE,50.30850000,9.78980000,Bad Brückenau,Bayern,Regierungsbezirk Unterfranken
97816,DE,49.98920000,9.57220000,Lohr am Main,Bayern,Regierungsbezirk Unterfranken
97828,DE,49.84540000,9.60360000,Marktheidenfeld,Bayern,Regierungsbezirk Unterfranken
97877,DE,49.75900000,9.50850000,Wertheim,Baden-Württemberg,Regierungsbezirk Stuttgart
97941,DE,49.62470000,9.66280000,Tauberbischofsheim,Baden-Württemberg,Regierungsbezirk Stuttgart
97980,DE,49.49250000,9.77360000,Bad Mergentheim,Baden-Württemberg,Regierungsbezirk Stuttgart
98527,DE,50.60800000,10.69570000,Suhl,Thüringen,
98574,DE,50.72140000,10.44390000,Schmalkalden,Thüringen,
98617,DE,50.52900000,10.43960000,Obermaßfeld-Grimmenthal,Thüringen,
98617,DE,50.55000000,10.46670000,Ellingshausen,Thüringen,
98617,DE,50.51020000,10.43230000,Ritschenhausen,Thüringen,
98617,DE,50.57840000,10.33310000,Herpf,Thüringen,
98617,DE,50.52320000,10.36010000,Sülzfeld,Thüringen,
98617,DE,50.60000000,10.30000000,Stepfershausen,Thüringen,
98617,DE,50.51670000,10.55000000,Leutersdorf,Thüringen,
98617,DE,50.49850000,10.39120000,Bauerbach,Thüringen,
98617,DE,50.56790000,10.41520000,Meiningen,Thüringen,
98617,DE,50.50000000,10.46670000,Neubrunn,Thüringen,
98617,DE,50.49240000,10.35490000,Henneberg,Thüringen,
98617,DE,50.54500000,10.36500000,Rhönblick,Thüringen,
98617,DE,50.52630000,10.53730000,Vachdorf,Thüringen,
98617,DE,50.52830000,10.46190000,Einhausen,Thüringen,
98617,DE,50.53330000,10.50000000,Belrieth,Thüringen,
98617,DE,50.48330000,10.43330000,Wölfershausen,Thüringen,
98617,DE,50.54410000,10.36650000,Untermaßfeld,Thüringen,
98617,DE,50.61670000,10.43330000,Utendorf,Thüringen,
98646,DE,50.45000000,10.65000000,Reurieth,Thüringen,
98646,DE,50.42550000,10.73180000,Hildburghausen,Thüringen,
98646,DE,50.46510000,10.64080000,Trostadt,Thüringen,
98646,DE,50.37070000,10.59820000,Gleichamberg,Thüringen,
98646,DE,50.46770000,10.66240000,Siegritz,Thüringen,
98646,DE,50.43330000,10.60000000,Dingsleben,Thüringen,
98646,DE,50.35830000,10.70420000,Straufhain,Thüringen,
98693,DE,50.68320000,10.91860000,Ilmenau,Thüringen,
98693,DE,50.72330000,10.88900000,Martinroda,Thüringen,
99089,DE,50.99680000,11.00790000,Erfurt,Thüringen,
99097,DE,50.98330000,11.03330000,Erfurt,Thüringen,
99310,DE,50.84050000,10.95200000,Arnstadt,Thüringen,
99310,DE,50.85000000,11.08330000,Osthausen-Wülfershausen,Thüringen,
99310,DE,50.83330000,11.06670000,Bösleben-Wüllersleben,Thüringen,
99310,DE,50.85000000,11.03330000,Alkersleben,Thüringen,
99310,DE,50.83510000,10.99380000,Dornheim,Thüringen,
99310,DE,50.81670000,11.11670000,Witzleben,Thüringen,
99310,DE,50.78330000,11.00000000,Wipfratal,Thüringen,
99310,DE,50.85670000,10.88330000,Wachsenburggemeinde,Thüringen,
99425,DE,50.98330000,11.31670000,Weimar,Thüringen,
99438,DE,50.92100000,11.33250000,Buchfart,Thüringen,
99438,DE,50.92010000,11.21030000,Gutendorf,Thüringen,
99438,DE,50.91290000,11.30010000,Hetschburg,Thüringen,
99438,DE,50.89980000,11.28250000,Bad Berka,Thüringen,
99438,DE,50.93330000,11.25000000,Troistedt,Thüringen,
99438,DE,50.92250000,11.35810000,Oettern,Thüringen,
99438,DE,50.93600000,11.33090000,Vollersroda,Thüringen,
99438,DE,50.88900000,11.20370000,Tonndorf,Thüringen,
99444,DE,50.85990000,11.34390000,Blankenhain,Thüringen,
99510,DE,51.06100000,11.44220000,Pfiffelbach,Thüringen,
99510,DE,50.97460000,11.46870000,Kapellendorf,Thüringen,
99510,DE,51.01670000,11.43330000,Oßmannstedt,Thüringen,
99510,DE,51.02620000,11.51640000,Apolda,Thüringen,
99510,DE,51.00820000,11.58020000,Saaleplatte,Thüringen,
99510,DE,51.09750000,11.49620000,Gebstedt,Thüringen,
99510,DE,51.03330000,11.48330000,Niederroßla,Thüringen,
99510,DE,51.06330000,11.56910000,Obertrebra,Thüringen,
99510,DE,51.05920000,11.55800000,Flurstedt,Thüringen,
99510,DE,51.08700000,11.41290000,Oberreißen,Thüringen,
99510,DE,51.05980000,11.54230000,Wickerstedt,Thüringen,
99510,DE,51.09440000,11.47020000,Nirmsdorf,Thüringen,
99510,DE,51.09890000,11.41110000,Niederreißen,Thüringen,
99510,DE,51.08990000,11.45290000,Willerstedt,Thüringen,
99510,DE,51.05000000,11.51670000,Mattstedt,Thüringen,
99510,DE,51.05000000,11.40000000,Liebstedt,Thüringen,
99510,DE,50.98330000,11.43330000,Wiegendorf,Thüringen,
99610,DE,51.15910000,11.11520000,Sömmerda,Thüringen,
99610,DE,51.13330000,11.25000000,Vogelsberg,Thüringen,
99610,DE,51.15440000,11.03890000,Wundersleben,Thüringen,
99610,DE,51.13330000,11.26670000,Kleinbrembach,Thüringen,
99610,DE,51.11670000,11.31670000,Großbrembach,Thüringen,
99610,DE,51.12460000,11.19650000,Sprötau,Thüringen,
99734,DE,51.50180000,10.79570000,Nordhausen,Thüringen,
99752,DE,51.45560000,10.64390000,Wipperdorf,Thüringen,
99752,DE,51.45770000,10.55350000,Lipprechterode,Thüringen,
99752,DE,51.46670000,10.53330000,Kleinbodungen,Thüringen,
99752,DE,51.45000000,10.51670000,Kraja,Thüringen,
99752,DE,51.46670000,10.60000000,Kehmstedt,Thüringen,
99762,DE,51.53330000,10.86670000,Buchholz,Thüringen,
99762,DE,51.56670000,10.83330000,Neustadt/Harz,Thüringen,
99762,DE,51.55060000,10.76590000,Niedersachswerfen,Thüringen,
99762,DE,51.55000000,10.80000000,Harzungen,Thüringen,
99762,DE,51.54190000,10.91950000,Rodishain,Thüringen,
99762,DE,51.55000000,10.86670000,Herrmannsacker,Thüringen,
99762,DE,51.52740000,10.92350000,Stempeda,Thüringen,
99817,DE,50.98070000,10.31520000,Eisenach,Thüringen,
99867,DE,50.94820000,10.70190000,Gotha,Thüringen,
99894,DE,50.85750000,10.56510000,Friedrichroda,Thüringen,
99894,DE,50.83460000,10.58920000,Finsterbergen,Thüringen,
99894,DE,50.86480000,10.62060000,Ernstroda,Thüringen,
99947,DE,51.16670000,10.75000000,Tottleben,Thüringen,
99947,DE,51.16670000,10.71670000,Sundhausen,Thüringen,
99947,DE,51.10840000,10.51060000,Weberstedt,Thüringen,
99947,DE,51.12000000,10.57740000,Schönstedt,Thüringen,
99947,DE,51.18210000,10.70880000,Kirchheilingen,Thüringen,
99947,DE,51.11670000,10.50000000,Mülverstedt,Thüringen,
99947,DE,51.18330000,10.61670000,Bothenheilingen,Thüringen,
99947,DE,51.19240000,10.67530000,Neunheilingen,Thüringen,
99947,DE,51.10770000,10.64600000,Bad Langensalza,Thüringen,
99947,DE,51.20000000,10.65000000,Issersheilingen,Thüringen,
99947,DE,51.18330000,10.66670000,Kleinwelsbach,Thüringen,
99955,DE,51.11670000,10.83330000,Herbsleben,Thüringen,
99955,DE,51.15000000,10.78330000,Urleben,Thüringen,
99955,DE,51.21670000,10.81670000,Hornsömmern,Thüringen,
99955,DE,51.15000000,10.88330000,Ballhausen,Thüringen,
99955,DE,51.15450000,10.83870000,Bad Tennstedt,Thüringen,
99955,DE,51.18330000,10.81670000,Haussömmern,Thüringen,
99955,DE,51.20000000,10.81670000,Mittelsömmern,Thüringen,
99955,DE,51.18330000,10.78330000,Bruchstedt,Thüringen,
99955,DE,51.20000000,10.75000000,Kutzleben,Thüringen,
99955,DE,51.15000000,10.75000000,Klettstedt,Thüringen,
99955,DE,51.20000000,10.75000000,Blankenburg,Thüringen,
99974,DE,51.20900000,10.45280000,Mühlhausen,Thüringen,
99974,DE,51.26390000,10.44720000,Unstruttal,Thüringen,
99976,DE,51.26670000,10.33330000,Anrode,Thüringen,
99976,DE,51.20050000,10.21530000,Hildebrandshausen,Thüringen,
99976,DE,51.21670000,10.31670000,Rodeberg,Thüringen,
99976,DE,51.26390000,10.44720000,Unstruttal,Thüringen,
99976,DE,51.32220000,10.44440000,Dünwald,Thüringen,
99976,DE,51.21670000,10.21670000,Lengenfeld unterm Stein,Thüringen,
